id,ranking,en_title,title,content,description,phone,city,state,fax,Email,web,school,images,category,post_tag,icon,
3,1,Princeton University ,普林斯顿大学,,,,Princeton,NJ,,,http://www.princeton.edu,"学院列表@
https://www.princeton.edu/academics$
本科专业列表@
https://www.princeton.edu/academics/areas-of-study$
研究生专业@
https://www.princeton.edu/academics/areas-of-study$
研究生院@
https://gradschool.princeton.edu/$
国际学生本科申请@
https://admission.princeton.edu/how-apply/international-students$
国际学生本科申请截止日期@
https://admission.princeton.edu/how-apply/application-dates-deadlines$
英语能力要求@
https://admission.princeton.edu/how-apply/standardized-testing$
本科学费@
https://admission.princeton.edu/cost-aid/fees-payment-options$",1.png,综合大学,,1,.png
4,2,Harvard University ,哈佛大学,,,,Cambridge,MA,,,https://www.harvard.edu/,"学院列表@
https://www.harvard.edu/schools$
本科专业列表@
https://www.fas.harvard.edu/pages/academic-divisions$
研究生专业@
https://www.harvard.edu/admissions-aid#grad$
研究生院@
https://www.harvard.edu/admissions-aid#grad$
国际学生本科申请@
https://college.harvard.edu/admissions/application-process/international-applicants$
国际学生本科申请截止日期@
https://college.harvard.edu/admissions/apply/application-timeline$
英语能力要求@
https://college.harvard.edu/admissions/application-process/international-applicants$
本科学费@
https://registrar.fas.harvard.edu/registration-enrollment-degrees/tuition-assistance$",2.png,综合大学,,2,
5,3,University of Chicago ,芝加哥大学,,,,Chicago,IL,,,http://www.uchicago.edu/,"学院列表@
https://www.uchicago.edu/academics/$
本科专业列表@
https://collegeadmissions.uchicago.edu/academics/majors-minors$
研究生专业@
https://grad.uchicago.edu/admissions/programs/program-list$
研究生院@
https://grad.uchicago.edu/admissions/apply/$
国际学生本科申请@
https://internationalaffairs.uchicago.edu/page/students/admitted$
国际学生本科申请截止日期@
http://collegeadmissions.uchicago.edu/apply/applicants/firstyear$
英语能力要求@
http://collegeadmissions.uchicago.edu/apply/application/englishproficiencytest$
本科学费@
https://collegeadmissions.uchicago.edu/costs/affording-education$",3.png,综合大学,,3,
6,3,Yale University ,耶鲁大学,,,,New Haven,CT,,,https://www.yale.edu/,"学院列表@
https://www.yale.edu/academics/departments-programs$
本科专业列表@
http://catalog.yale.edu/ycps/majors-in-yale-college/$
研究生专业@
https://www.yale.edu/academics/departments-programs$
研究生院@
https://www.yale.edu/academics/departments-programs$
国际学生本科申请@
https://admissions.yale.edu/applying-yale-international-student$
国际学生本科申请截止日期@
https://admissions.yale.edu/international-students-application-timetable$
英语能力要求@
https://admissions.yale.edu/applying-yale-international-student$
本科学费@
https://admissions.yale.edu/financial-aid$",4.png,综合大学,,4,
7,5,Columbia University ,哥伦比亚大学,,,,New York,NY,,,http://www.columbia.edu/,"学院列表@
http://www.columbia.edu/content/schools.html$
本科专业列表@
http://www.columbia.edu/node/1846.html$
研究生专业@
http://www.columbia.edu/node/1846.html$
研究生院@
http://www.columbia.edu/content/departments-and-divisions.html$
国际学生本科申请@
N/A$
国际学生本科申请截止日期@
N/A$
英语能力要求@
N/A$
本科学费@
N/A$",5.png,综合大学,,5,
8,5,Massachusetts Institute of Technology,麻省理工学院,,,,Cambridge,MA,,,www.mit.edu/,"学院列表@
http://gradadmissions.mit.edu/$
本科专业列表@
http://mitadmissions.org/discover/majors$
研究生专业@
http://mitadmissions.org/discover/majors$
研究生院@
http://gradadmissions.mit.edu/$
国际学生本科申请@
http://mitadmissions.org/apply/international/howto$
国际学生本科申请截止日期@
http://mitadmissions.org/apply/international/mitapp$
英语能力要求@
http://mitadmissions.org/apply/international/intltests$
本科学费@
http://mitadmissions.org/afford/basics$",6.png,综合大学,,6,
9,5,Stanford University ,斯坦福大学,,,,Stanford,CA,,,https://www.stanford.edu/,"学院列表@
https://www.stanford.edu/list/academic/$
本科专业列表@
https://majors.stanford.edu/$
研究生专业@
https://www.stanford.edu/list/interdisc/$
研究生院@
https://www.stanford.edu/list/academic/$
国际学生本科申请@
https://admission.stanford.edu/apply/international/index.html$
国际学生本科申请截止日期@
https://admission.stanford.edu/apply/deadlines/index.html$
英语能力要求@
https://language.stanford.edu/academics/language-requirement/language-requirement-policies$
本科学费@
https://admission.stanford.edu/afford/$",7.png,综合大学,,7,
10,8,University of Pennsylvania ,宾夕法尼亚大学,,,,Philadelphia,PA,,,https://www.upenn.edu/,"学院列表@
https://www.upenn.edu/programs/academics-schools$
本科专业列表@
https://www.upenn.edu/programs/academics-degrees-and-programs?schoolID=0&degreeID=2$
研究生专业@
https://www.upenn.edu/programs/academics-schools$
研究生院@
https://www.upenn.edu/programs/academics-schools$
国际学生本科申请@
http://www.admissions.upenn.edu/apply/international-applicants$
国际学生本科申请截止日期@
http://www.sfs.upenn.edu/paying/cost-of-attendance.htm$
英语能力要求@
https://www.upenn.edu/programs/academics-schools$
本科学费@
http://www.sfs.upenn.edu/paying/cost-of-attendance.htm$",8.png,综合大学,,8,
11,9,Duke University ,杜克大学,,,,Durham,NC,,,https://duke.edu/,"学院列表@
http://admissions.duke.edu/education/majors$
本科专业列表@
http://admissions.duke.edu/education/majors$
研究生专业@
https://gradschool.duke.edu/academics/programs-degrees$
研究生院@
https://gradschool.duke.edu/academics/programs-degrees$
国际学生本科申请@
http://admissions.duke.edu/application/instructions#general-instructions-international$
国际学生本科申请截止日期@
http://admissions.duke.edu/images/uploads/16-17_Duke_University_Application_Components_and_Deadlines.pdf$
英语能力要求@
http://admissions.duke.edu/application/instructions#testing-english-proficiency-tests$
本科学费@
http://admissions.duke.edu/application/aid$",9.png,综合大学,,9,
12,10,California Institute of Technology,加州理工学院,,,,Pasadena,CA,,,http://www.caltech.edu/,"学院列表@
http://www.caltech.edu/content/academic-divisions-overview$
本科专业列表@
http://www.admissions.caltech.edu/content/options-majors$
研究生专业@
http://www.gradoffice.caltech.edu/admissions$
研究生院@
http://www.caltech.edu/content/academic-divisions-overview$
国际学生本科申请@
http://international.caltech.edu/admissions$
国际学生本科申请截止日期@
http://www.admissions.caltech.edu/content/application-deadlines$
英语能力要求@
http://www.admissions.caltech.edu/content/international-citizens$
本科学费@
http://www.finaid.caltech.edu/Costs$",10.png,综合大学,,10,
13,11,Dartmouth College ,达特茅斯学院,,,,Hanover,NH,,,http://home.dartmouth.edu/,"学院列表@
http://home.dartmouth.edu/education/degrees$
本科专业列表@
http://home.dartmouth.edu/education/degrees$
研究生专业@
http://home.dartmouth.edu/education/degrees$
研究生院@
http://home.dartmouth.edu/education/graduate-schools$
国际学生本科申请@
http://admissions.dartmouth.edu/apply/choose-your-path/global-dartmouth$
国际学生本科申请截止日期@
http://admissions.dartmouth.edu/apply/choose-your-path/early-decision/checklist$
英语能力要求@
http://admissions.dartmouth.edu/apply/choose-your-path/early-decision/checklist$
本科学费@
http://admissions.dartmouth.edu/financial-aid/cost-attendance/cost-attendance$",11.png,综合大学,,11,
14,11,Johns Hopkins University ,约翰霍普金斯大学,,,,Baltimore,MD,,,https://www.jhu.edu/,"学院列表@
http://admissions.dartmouth.edu/apply/choose-your-path/early-decision/checklist$
本科专业列表@
https://www.jhu.edu/academics/#!/programlevel=bachelors$
研究生专业@
https://www.jhu.edu/academics/#!/programlevel=doctoral,masters$
研究生院@
https://www.jhu.edu/academics/graduate-studies/$
国际学生本科申请@
https://apply.jhu.edu/application-process/deadlines-and-requirements/$
国际学生本科申请截止日期@
https://apply.jhu.edu/application-process/deadlines-and-requirements/$
英语能力要求@
https://apply.jhu.edu/standardized-test-information/$
本科学费@
https://apply.jhu.edu/affording-hopkins/tuition-costs/$",12.png,综合大学,,12,
15,11,Northwestern University,西北大学,,,,Evanston,IL,,,http://www.northwestern.edu/,"学院列表@
http://www.northwestern.edu/academics/index.html$
本科专业列表@
http://www.northwestern.edu/academics/undergraduate-a-to-z.html$
研究生专业@
http://www.northwestern.edu/academics/graduate-a-to-z.html$
研究生院@
http://www.northwestern.edu/academics/colleges-and-schools.html$
国际学生本科申请@
http://admissions.northwestern.edu/apply/requirements.html$
国际学生本科申请截止日期@
http://admissions.northwestern.edu/apply/application-options.html#early-decision$
英语能力要求@
http://admissions.northwestern.edu/faqs/international-applicants/index.html$
本科学费@
http://admissions.northwestern.edu/tuition-aid/index.html$",13.png,综合大学,,13,
16,14,Brown University ,布朗大学,,,,"Providence, RI ",RI,,,https://www.brown.edu/,"学院列表@
https://www.brown.edu/academics$
本科专业列表@
https://www.brown.edu/academics/degree-granting$
研究生专业@
https://www.brown.edu/academics/gradschool/academics-research$
研究生院@
https://www.brown.edu/academics/gradschool/$
国际学生本科申请@
https://www.brown.edu/admission/undergraduate/apply/international-applicants$
国际学生本科申请截止日期@
https://www.brown.edu/admission/undergraduate/apply/how-apply$
英语能力要求@
https://www.brown.edu/admission/undergraduate/apply/international-applicants$
本科学费@
https://www.brown.edu/admission/undergraduate/apply/tuition-fees-and-financial-aid-filing-deadlines$",14.png,综合大学,,14,
17,14,Cornell University ,康奈尔大学,,,,"Ithaca, NY ",NY,,,http://www.cornell.edu/,"学院列表@
http://www.cornell.edu/academics/colleges.cfm$
本科专业列表@
http://www.cornell.edu/academics/fields.cfm$
研究生专业@
http://www.cornell.edu/academics/fields.cfm$
研究生院@
https://gradschool.cornell.edu/academics$
国际学生本科申请@
https://admissions.cornell.edu/apply/international-students$
国际学生本科申请截止日期@
https://admissions.cornell.edu/apply/application-timelines$
英语能力要求@
https://admissions.cornell.edu/apply/international-students$
本科学费@
http://finaid.cornell.edu/cost-attend$",15.png,综合大学,,15,
18,14,Rice University ,莱斯大学,,,,"Houston, TX ",TX,,,http://www.rice.edu/,"学院列表@
http://www.rice.edu/academics.shtml$
本科专业列表@
http://futureowls.rice.edu/futureowls/Majors_Minors_Programs.asp$
研究生专业@
https://graduate.rice.edu/programsofstudy$
研究生院@
https://graduate.rice.edu/programsofstudy$
国际学生本科申请@
http://futureowls.rice.edu/futureowls/International_Students.asp$
国际学生本科申请截止日期@
http://futureowls.rice.edu/futureowls/Calendars_and_Deadlines1.asp$
英语能力要求@
http://futureowls.rice.edu/futureowls/International_Students.asp$
本科学费@
http://financialaid.rice.edu/COA.aspx$",16.png,综合大学,,16,
19,14,Vanderbilt University ,范德堡大学,,,,"Nashville, TN ",TN,,,https://www.vanderbilt.edu/,"学院列表@
https://www.vanderbilt.edu/academics/$
本科专业列表@
https://www.vanderbilt.edu/academics/disciplines/degree/bachelor$
研究生专业@
https://www.vanderbilt.edu/academics/disciplines/degree/masters$
研究生院@
https://www.vanderbilt.edu/academics/disciplines/degree/masters$
国际学生本科申请@
https://admissions.vanderbilt.edu/apply/international.php$
国际学生本科申请截止日期@
https://admissions.vanderbilt.edu/dates/$
英语能力要求@
https://admissions.vanderbilt.edu/apply/international.php$
本科学费@
https://admissions.vanderbilt.edu/financial-aid/facts.php#Cost$",17.png,综合大学,,17,
20,18,University of Notre Dame,圣母大学,,,,"Notre Dame, IN",IN,,,https://www.nd.edu/,"学院列表@
https://www.nd.edu/academics/departments-colleges-schools/$
本科专业列表@
https://www.nd.edu/academics/undergraduate-majors/$
研究生专业@
https://www.nd.edu/academics/graduate-programs/$
研究生院@
http://graduateschool.nd.edu/$
国际学生本科申请@
http://admissions.nd.edu/information-for/international-students/international-admission-information/$
国际学生本科申请截止日期@
https://admissions.nd.edu/apply/checklist-deadlines/$
英语能力要求@
http://admissions.nd.edu/information-for/international-students/international-admission-information/$
本科学费@
http://admissions.nd.edu/discover/cost-financial-aid/$",18.png,综合大学,,18,
21,18,Washington University in St. Louis,圣路易斯华盛顿大学,,,,"St. Louis, MO ",MO,,,https://wustl.edu/,"学院列表@
https://wustl.edu/academics/$
本科专业列表@
https://wustl.edu/academics/academic-departments-programs/$
研究生专业@
https://wustl.edu/academics/graduate-professional-advanced-learning/$
研究生院@
https://wustl.edu/academics/graduate-professional-advanced-learning/$
国际学生本科申请@
https://admissions.wustl.edu/apply#international$
国际学生本科申请截止日期@
https://admissions.wustl.edu/apply_site/Pages/International-Application-Calendar.aspx$
英语能力要求@
https://admissions.wustl.edu/apply_site/Pages/English-Testing-Requirements.aspx$
本科学费@
https://wustl.edu/about/university-facts/$",19.png,综合大学,,19,
22,20,Georgetown University ,乔治城大学,,,,"Washington, DC ",DC,,,https://www.georgetown.edu/,"学院列表@
https://www.georgetown.edu/academics$
本科专业列表@
https://www.georgetown.edu/academics/our-schools$
研究生专业@
https://www.georgetown.edu/admissions/graduate-admissions$
研究生院@
https://www.georgetown.edu/admissions/graduate-admissions$
国际学生本科申请@
https://uadmissions.georgetown.edu/first-year$
国际学生本科申请截止日期@
https://uadmissions.georgetown.edu/first-year$
英语能力要求@
https://uadmissions.georgetown.edu/first-year$
本科学费@
https://studentaccounts.georgetown.edu/tuition/undergraduate$",20.png,综合大学,,20,
23,21,Emory University ,埃默里大学,,,,"Atlanta, GA ",GA,,,https://www.emory.edu/home/index.html,"学院列表@
https://www.emory.edu/home/academics/index.html$
本科专业列表@
https://www.emory.edu/home/academics/programs/college.html$
研究生专业@
https://www.emory.edu/home/academics/programs/graduate.html$
研究生院@
https://www.emory.edu/home/academics/programs/graduate.html$
国际学生本科申请@
http://apply.emory.edu/apply/international.php$
国际学生本科申请截止日期@
http://apply.emory.edu/apply/plans.php$
英语能力要求@
http://apply.emory.edu/apply/international.php$
本科学费@
http://apply.emory.edu/apply/tuition.php$",21.png,综合大学,,21,
24,21,"University of California, Berkeley",加州大学伯克利分校,,,,"Berkeley, CA ",CA,,,http://admissions.berkeley.edu/,"学院列表@
http://admissions.berkeley.edu/academics$
本科专业列表@
http://admissions.berkeley.edu/colleges$
研究生专业@
http://admissions.berkeley.edu/majors$
研究生院@
http://www.berkeley.edu/academics/schools-colleges$
国际学生本科申请@
http://admission.universityofcalifornia.edu/international/applying-for-admission/index.html$
国际学生本科申请截止日期@
http://admission.universityofcalifornia.edu/how-to-apply/dates-deadlines/index.html$
英语能力要求@
http://admission.universityofcalifornia.edu/international/toefl-ielts-exams/index.html$
本科学费@
http://financialaid.berkeley.edu/cost-attendance$",22.png,综合大学,,22,
25,21,"University of California, Los Angeles",加州大学洛杉矶分校,,,,"Los Angeles, CA ",CA,,,http://www.ucla.edu/,"学院列表@
http://www.ucla.edu/academics/undergraduate-education$
本科专业列表@
http://www.admission.ucla.edu/prospect/coll_sch.htm$
研究生专业@
https://grad.ucla.edu/schools/$
研究生院@
https://grad.ucla.edu/schools/$
国际学生本科申请@
https://grad.ucla.edu/admissions/international-applicants/$
国际学生本科申请截止日期@
http://admission.universityofcalifornia.edu/how-to-apply/dates-deadlines/index.html$
英语能力要求@
https://grad.ucla.edu/admissions/english-requirements/$
本科学费@
http://www.admission.ucla.edu/prospect/budget.htm#budget$",23.png,综合大学,,23,
26,21,University of Southern California ,南加州大学,,,,"Los Angeles, CA ",CA,,,https://www.usc.edu/,"学院列表@
https://academics.usc.edu/$
本科专业列表@
http://catalogue.usc.edu/content.php?catoid=2&navoid=472$
研究生专业@
http://catalogue.usc.edu/content.php?catoid=2&navoid=472$
研究生院@
http://graduateschool.usc.edu/$
国际学生本科申请@
https://admission.usc.edu/firstyear/prospective/$
国际学生本科申请截止日期@
https://admission.usc.edu/firstyear/prospective/datesdeadlines.html$
英语能力要求@
https://admission.usc.edu/firstyear/prospective/international.html$
本科学费@
https://financialaid.usc.edu/undergraduates/prospective/how-much-wil-my-education-cost.html$",24.png,综合大学,,24,
27,25,Carnegie Mellon University ,卡内基梅隆大学,,,,"Pittsburgh, PA ",PA,,,https://www.cmu.edu/,"学院列表@
https://admission.enrollment.cmu.edu/pages/majors-programs$
本科专业列表@
https://admission.enrollment.cmu.edu/pages/majors-programs$
研究生专业@
https://www.cmu.edu/graduate/academics/guide-to-graduate-degrees-and-programs/index.html$
研究生院@
https://www.cmu.edu/academics/$
国际学生本科申请@
https://admission.enrollment.cmu.edu/pages/international-admission-requirements$
国际学生本科申请截止日期@
https://admission.enrollment.cmu.edu/pages/application-plans-deadlines$
英语能力要求@
https://admission.enrollment.cmu.edu/pages/standardized-test-requirements$
本科学费@
https://admission.enrollment.cmu.edu/pages/cost-payment$",25.png,综合大学,,25,
28,25,University of Virginia ,弗吉尼亚大学,,,,"Charlottesville, VA ",VA,,,http://www.virginia.edu/,"学院列表@
http://www.virginia.edu/academics/majors/$
本科专业列表@
http://www.virginia.edu/academics/majors/$
研究生专业@
http://www.virginia.edu/schools$
研究生院@
http://www.virginia.edu/academics/graduate$
国际学生本科申请@
http://admission.virginia.edu/international$
国际学生本科申请截止日期@
http://admission.virginia.edu/admission/instructions$
英语能力要求@
http://admission.virginia.edu/admission/testing$
本科学费@
http://admission.virginia.edu/international$",26.png,综合大学,,26,
29,27,Wake Forest University ,维克森林大学,,,,"Winston-Salem, NC ",NC,,,http://www.wfu.edu/,"学院列表@
http://college.wfu.edu/$
本科专业列表@
http://about.wfu.edu/academics/majors/$
研究生专业@
http://about.wfu.edu/academics/majors/$
研究生院@
http://graduate.wfu.edu/$
国际学生本科申请@
http://admissions.wfu.edu/apply/international/$
国际学生本科申请截止日期@
http://admissions.wfu.edu/apply/applynow/$
英语能力要求@
http://admissions.wfu.edu/apply/test-optional/$
本科学费@
http://financialaid.wfu.edu/cost-of-attendance/$",27.png,综合大学,,27,
30,28,"University of Michigan, Ann Arbor",密歇根大学安娜堡分校,,,,"Ann Arbor, MI ",MI,,,http://www.umich.edu/,"学院列表@
http://umich.edu/academics/$
本科专业列表@
https://admissions.umich.edu/academics-majors/majors-degrees$
研究生专业@
http://www.rackham.umich.edu/programs-of-study$
研究生院@
http://umich.edu/academics/$
国际学生本科申请@
https://admissions.umich.edu/apply/international-students$
国际学生本科申请截止日期@
https://admissions.umich.edu/apply/international-students/requirements-deadlines$
英语能力要求@
https://admissions.umich.edu/apply/international-students/requirements-deadlines$
本科学费@
https://admissions.umich.edu/costs-aid/costs$",28.png,综合大学,,28,
31,29,Tufts University ,塔夫斯大学,,,,"Medford, MA ",MA,,,https://www.tufts.edu/,"学院列表@
http://admissions.tufts.edu/academics/$
本科专业列表@
http://admissions.tufts.edu/academics/majors-and-minors/$
研究生专业@
https://www.tufts.edu/graduate-programs$
研究生院@
https://www.tufts.edu/$
国际学生本科申请@
http://admissions.tufts.edu/apply/applying-as-an-international-s/$
国际学生本科申请截止日期@
http://admissions.tufts.edu/apply/first-year-students/$
英语能力要求@
http://admissions.tufts.edu/apply/applying-as-an-international-s/$
本科学费@
http://admissions.tufts.edu/tuition-and-aid/tuition-and-fees/$",29.png,综合大学,,29,
32,30,New York University ,纽约大学,,,,"New York, NY ",NY,,,http://www.nyu.edu/,"学院列表@
http://www.nyu.edu/academics/schools-and-colleges.html$
本科专业列表@
http://www.nyu.edu/academics/academic-programs.html$
研究生专业@
http://www.nyu.edu/academics/academic-programs.html$
研究生院@
http://www.nyu.edu/academics/academic-programs.html$
国际学生本科申请@
http://www.nyu.edu/admissions/undergraduate-admissions/how-to-apply/international-applicants.html$
国际学生本科申请截止日期@
http://www.nyu.edu/admissions/undergraduate-admissions/how-to-apply/all-freshmen-applicants.html$
英语能力要求@
http://www.nyu.edu/admissions/undergraduate-admissions/how-to-apply/standardized-tests/english-language-testing.html$
本科学费@
http://www.nyu.edu/students/student-information-and-resources/bills-payments-and-refunds/tuition-and-fee-rates.html$",30.png,综合大学,,30,
33,30,"University of North Carolina, Chapel Hill",北卡罗来纳大学教堂山分校,,,,"Chapel Hill, NC ",NC,,,http://www.unc.edu/,"学院列表@
http://admissions.unc.edu/explore/academics/$
本科专业列表@
http://admissions.unc.edu/explore/academics/majors-minors-and-concentrations/$
研究生专业@
http://gradschool.unc.edu/academics/degreeprograms/$
研究生院@
http://gradschool.unc.edu/$
国际学生本科申请@
http://admissions.unc.edu/apply/international-students/$
国际学生本科申请截止日期@
http://admissions.unc.edu/apply/deadlines/$
英语能力要求@
http://admissions.unc.edu/apply/how-we-review-test-scores/$
本科学费@
http://admissions.unc.edu/afford/cost-of-attendance/$",31.png,综合大学,,31,
34,32,Boston College ,波士顿学院,,,,"Chestnut Hill, MA ",MA,,,https://www.bc.edu/content/bc-web.html,"学院列表@
https://www.bc.edu/bc-web/academics/schools-fields-of-study.html$
本科专业列表@
https://www.bc.edu/bc-web/academics/majors-minors.html$
研究生专业@
https://www.bc.edu/content/bc-web/admission/apply-to-boston-college.html#gradadmin.html$
研究生院@
https://www.bc.edu/content/bc-web/admission/apply-to-boston-college.html#gradadmin.html$
国际学生本科申请@
https://www.bc.edu/admission/undergrad/process/international.html$
国际学生本科申请截止日期@
https://www.bc.edu/admission/undergrad/process/freshman/deadlines.html$
英语能力要求@
https://www.bc.edu/admission/undergrad/process/international.html$
本科学费@
https://www.bc.edu/admission/undergrad/tuition-and-aid/international.html$",32.png,综合大学,,32,
35,32,College of William and Mary,威廉玛丽学院,,,,"Williamsburg, VA ",VA,,,http://www.wm.edu/,"学院列表@
http://www.wm.edu/academics/departmentsandschools/index.php$
本科专业列表@
http://www.wm.edu/academics/undergraduateprograms/index.php$
研究生专业@
http://www.wm.edu/academics/graduateprograms/index.php$
研究生院@
http://www.wm.edu/academics/index.php$
国际学生本科申请@
http://www.wm.edu/admission/undergraduateadmission/how-to-apply/freshmanapplicants/internationalstudent/index.php$
国际学生本科申请截止日期@
http://www.wm.edu/admission/undergraduateadmission/how-to-apply/freshmanapplicants/internationalstudent/languagetesting/index.php$
英语能力要求@
http://www.wm.edu/admission/undergraduateadmission/how-to-apply/freshmanapplicants/internationalstudent/languagetesting/index.php$
本科学费@
http://www.wm.edu/admission/undergraduateadmission/costs-aid/index.php$",33.png,综合大学,,33,
36,34,Brandeis University ,布兰迪斯大学,,,,"Waltham, MA ",MA,,,http://www.brandeis.edu,"学院列表@
http://www.brandeis.edu/admissions/academics/index.html$
本科专业列表@
http://www.brandeis.edu/admissions/academics/majors.html$
研究生专业@
http://www.brandeis.edu/admissions/academics/index.html$
研究生院@
http://www.brandeis.edu/admissions/academics/index.html$
国际学生本科申请@
http://www.brandeis.edu/admissions/apply/international.html$
国际学生本科申请截止日期@
http://www.brandeis.edu/admissions/apply/dates.html$
英语能力要求@
http://www.brandeis.edu/admissions/apply/testing.html$
本科学费@
http://www.brandeis.edu/student-financial-services/tuition-calculator/index.html$",34.png,综合大学,,34,
37,34,Georgia Institute of Technology,佐治亚理工学院,,,,"Atlanta, GA ",GA,,,http://www.gatech.edu/,"学院列表@
http://www.gatech.edu/academics/all-degree-programs$
本科专业列表@
http://www.gatech.edu/academics/bachelors-degree-programs$
研究生专业@
http://www.gatech.edu/academics/masters-degree-programs$
研究生院@
http://www.gatech.edu/academics/all-degree-programs$
国际学生本科申请@
http://admission.gatech.edu/international-admission$
国际学生本科申请截止日期@
http://admission.gatech.edu/freshman/freshman-deadlines-fees$
英语能力要求@
http://admission.gatech.edu/international/english-language-requirements$
本科学费@
http://admission.gatech.edu/international/visa-process$",35.png,综合大学,,35,
38,34,University of Rochester ,罗彻斯特大学,,,,"Rochester, NY ",NY,,,https://www.rochester.edu/,"学院列表@
https://www.rochester.edu/academics/$
本科专业列表@
https://www.rochester.edu/academics/schools.html$
研究生专业@
https://www.rochester.edu/gradstudies/$
研究生院@
https://www.rochester.edu/gradstudies/$
国际学生本科申请@
https://www.esm.rochester.edu/admissions/international/$
国际学生本科申请截止日期@
https://www.esm.rochester.edu/admissions/ugrad/process/#deadlines$
英语能力要求@
https://www.esm.rochester.edu/admissions/files/TOEFL-and-Information-for-Non-Native-English-Speakers.pdf$
本科学费@
https://www.esm.rochester.edu/financialaid/cost-of-attendance/undergraduate/$",36.png,综合大学,,36,
39,37,Boston University ,波士顿大学,,,,"Boston, MA ",MA,,,https://www.bu.edu,"学院列表@
http://www.bu.edu/academics/schools-colleges/$
本科专业列表@
https://www.bu.edu/admissions/admitted/academics/$
研究生专业@
http://www.bu.edu/academics/degree-programs/$
研究生院@
http://www.bu.edu/info/admissions-overview/graduate-admissions/$
国际学生本科申请@
https://www.bu.edu/admissions/apply/international/$
国际学生本科申请截止日期@
https://www.bu.edu/admissions/apply/critical-dates/$
英语能力要求@
https://www.bu.edu/admissions/apply/international/$
本科学费@
https://www.bu.edu/admissions/apply/tuition-aid-scholarships/tuition-and-fees/$",37.png,综合大学,,37,
40,37,Case Western Reserve University ,凯斯西储大学,,,,"Cleveland, OH ",OH,,,http://case.edu/,"学院列表@
http://case.edu/schools/$
本科专业列表@
https://case.edu/admission/academics$
研究生专业@
http://case.edu/admission/academics/combined-graduate-study$
研究生院@
http://case.edu/schools/$
国际学生本科申请@
http://case.edu/admission/apply$
国际学生本科申请截止日期@
https://case.edu/admission/apply/dates-deadlines$
英语能力要求@
https://case.edu/admission/apply$
本科学费@
https://case.edu/admission/tuition-aid$",38.png,综合大学,,38,
41,37,"University of California, Santa Barbara",加州大学圣芭芭拉分校,,,,"Santa Barbara, CA ",CA,,,https://www.ucsb.edu/,"学院列表@
https://www.ucsb.edu/$
本科专业列表@
https://my.sa.ucsb.edu/catalog/Current/UndergraduateDegreeList.aspx$
研究生专业@
https://my.sa.ucsb.edu/catalog/Current/GraduateDegrees.aspx$
研究生院@
https://www.ucsb.edu/$
国际学生本科申请@
http://admission.universityofcalifornia.edu/international/applying-for-admission/index.html$
国际学生本科申请截止日期@
http://admission.universityofcalifornia.edu/how-to-apply/dates-deadlines/index.html$
英语能力要求@
http://admission.universityofcalifornia.edu/international/toefl-ielts-exams/index.html$
本科学费@
https://www.finaid.ucsb.edu/cost-of-attendance$",39.png,综合大学,,39,
42,40,Northeastern University,东北大学,,,,"Boston, MA ",MA,,,http://www.northwestern.edu,"学院列表@
http://www.northwestern.edu/admissions/index.html$
本科专业列表@
http://www.northwestern.edu/academics/undergraduate-a-to-z.html#majors$
研究生专业@
http://www.northwestern.edu/admissions/index.html$
研究生院@
http://www.northwestern.edu/admissions/index.html$
国际学生本科申请@
http://admissions.northwestern.edu/apply/application-options.html#international$
国际学生本科申请截止日期@
http://admissions.northwestern.edu/apply/application-options.html#international$
英语能力要求@
http://admissions.northwestern.edu/faqs/international-applicants/index.html$
本科学费@
http://www.northwestern.edu/sfs/tuition/undergraduate/index.html$",40.png,综合大学,,40,
43,40,Tulane University ,杜兰大学,,,,"New Orleans, LA ",LA,,,http://tulane.edu/,"学院列表@
http://tulane.edu/academics/schools-and-college$
本科专业列表@
http://admission.tulane.edu/academics/majors-minors$
研究生专业@
http://tulane.edu/academics/schools-and-college$
研究生院@
http://tulane.edu/academics/schools-and-college$
国际学生本科申请@
http://www.admission.tulane.edu/international$
国际学生本科申请截止日期@
http://www.admission.tulane.edu/apply/deadlines-forms$
英语能力要求@
http://www.admission.tulane.edu/international$
本科学费@
http://admission.tulane.edu/tuition-aid/cost$",41.png,综合大学,,41,
44,42,Rensselaer Polytechnic Institute,伦斯勒理工学院,,,,"Troy, NY ",NY,,,https://rpi.edu/,"学院列表@
http://rpi.edu/academics/index.html$
本科专业列表@
http://rpi.edu/academics/index.html$
研究生专业@
http://rpi.edu/academics/index.html$
研究生院@
http://rpi.edu/academics/index.html$
国际学生本科申请@
https://admissions.rpi.edu/undergraduate/international$
国际学生本科申请截止日期@
https://admissions.rpi.edu/undergraduate/deadlines$
英语能力要求@
https://admissions.rpi.edu/undergraduate/international$
本科学费@
https://admissions.rpi.edu/aid/cost$",42.png,综合大学,,42,
45,42,"University of California, Irvine",加州大学欧文分校,,,,"Irvine, CA ",CA,,,https://uci.edu/,"学院列表@
https://uci.edu/academics/index.php$
本科专业列表@
http://www.admissions.uci.edu/study/programs.php$
研究生专业@
http://www.admissions.uci.edu/study/programs.php$
研究生院@
https://www.grad.uci.edu/$
国际学生本科申请@
http://admission.universityofcalifornia.edu/international/applying-for-admission/index.html$
国际学生本科申请截止日期@
http://admission.universityofcalifornia.edu/international/applying-for-admission/index.html$
英语能力要求@
http://admission.universityofcalifornia.edu/international/applying-for-admission/index.html$
本科学费@
http://www.admissions.uci.edu/afford/cost.php$",43.png,综合大学,,43,
46,42,"University of California, San Diego",加州大学圣地亚哥分校,,,,"La Jolla, CA ",CA,,,http://www.ucsd.edu/,"学院列表@
http://ucsd.edu/academics/$
本科专业列表@
http://ucsd.edu/academics/$
研究生专业@
https://apply.grad.ucsd.edu/departments?_ga=2.102885248.1241882636.1510287736-708110034.1510287736$
研究生院@
https://apply.grad.ucsd.edu/departments$
国际学生本科申请@
http://admission.universityofcalifornia.edu/international/applying-for-admission/index.html$
国际学生本科申请截止日期@
http://admission.universityofcalifornia.edu/international/applying-for-admission/index.html$
英语能力要求@
http://admission.universityofcalifornia.edu/international/applying-for-admission/index.html$
本科学费@
http://admissions.ucsd.edu/cost-aid/index.html$",44.png,综合大学,,44,
47,42,University of Florida ,佛罗里达大学,,,,"Gainesville, FL ",FL,,,http://www.ufl.edu/,"学院列表@
http://www.ufl.edu/academics/colleges/$
本科专业列表@
https://catalog.ufl.edu/ugrad/current/Pages/academic-programs.aspx#1$
研究生专业@
http://gradcatalog.ufl.edu/content.php?catoid=11&navoid=2476$
研究生院@
http://graduateschool.ufl.edu/prospective-students/explore-uf/colleges-schools-and-departments/$
国际学生本科申请@
http://www.admissions.ufl.edu/apply/international/$
国际学生本科申请截止日期@
http://www.admissions.ufl.edu/apply/freshman/deadlines$
英语能力要求@
http://www.admissions.ufl.edu/apply/freshman/$
本科学费@
http://www.sfa.ufl.edu/cost/$",45.png,综合大学,,45,
48,46,Lehigh University ,里海大学,,,,"Bethlehem, PA ",PA,,,https://www1.lehigh.edu/home,"学院列表@
https://www1.lehigh.edu/academics/colleges$
本科专业列表@
https://www1.lehigh.edu/academics/undergraduate/programs$
研究生专业@
https://www1.lehigh.edu/academics/undergraduate/programs$
研究生院@
https://www1.lehigh.edu/academics/graduate$
国际学生本科申请@
https://www1.lehigh.edu/admissions/undergrad/intl$
国际学生本科申请截止日期@
https://www1.lehigh.edu/admissions/undergrad/apply/requirements$
英语能力要求@
https://www1.lehigh.edu/admissions/undergrad/apply/requirements$
本科学费@
https://www1.lehigh.edu/admissions/undergrad/tuition$",46.png,综合大学,,46,
49,46,Pepperdine University ,佩伯代因大学,,,,"Malibu, CA ",CA,,,https://www.pepperdine.edu/,"学院列表@
https://www.pepperdine.edu/academics/schools/$
本科专业列表@
https://www.pepperdine.edu/academics/programs/$
研究生专业@
https://www.pepperdine.edu/academics/programs/$
研究生院@
https://www.pepperdine.edu/academics/schools/$
国际学生本科申请@
https://www.pepperdine.edu/admission/international-students/future-students/undergraduate/firstyear.htm$
国际学生本科申请截止日期@
https://www.pepperdine.edu/admission/international-students/future-students/undergraduate/firstyear.htm$
英语能力要求@
https://www.pepperdine.edu/admission/international-students/future-students/undergraduate/firstyear.htm$
本科学费@
https://www.pepperdine.edu/admission/financialaid/$",47.png,综合大学,,47,
50,46,"University of California, Davis",加州大学戴维斯分校,,,,"Davis, CA ",CA,,,https://www.ucdavis.edu/,"学院列表@
https://www.ucdavis.edu/academics/colleges-schools$
本科专业列表@
https://www.ucdavis.edu/majors$
研究生专业@
https://www.ucdavis.edu/majors$
研究生院@
https://www.ucdavis.edu/academics/graduate-programs$
国际学生本科申请@
http://admission.universityofcalifornia.edu/international/applying-for-admission/index.html$
国际学生本科申请截止日期@
http://admission.universityofcalifornia.edu/international/applying-for-admission/index.html$
英语能力要求@
http://admission.universityofcalifornia.edu/international/applying-for-admission/index.html$
本科学费@
https://www.ucdavis.edu/admissions/cost$",48.png,综合大学,,48,
51,46,University of Miami ,迈阿密大学,,,,"Coral Gables, FL ",FL,,,http://welcome.miami.edu/,"学院列表@
http://welcome.miami.edu/$
本科专业列表@
http://admissions.miami.edu/undergraduate/academics/majors-by-school-or-college/index.html$
研究生专业@
http://grad.miami.edu/graduate-education/a-z-listing-graduate-programs/index.html$
研究生院@
http://grad.miami.edu/$
国际学生本科申请@
http://admissions.miami.edu/undergraduate/application-process/admission-requirements/international-freshman-admission-requirements/index.html$
国际学生本科申请截止日期@
http://admissions.miami.edu/undergraduate/application-process/options-and-deadlines/international-freshman-options-and-deadlines/index.html$
英语能力要求@
http://admissions.miami.edu/undergraduate/application-process/admission-requirements/english-proficiency-requirements/index.html$
本科学费@
http://finaid.miami.edu/cost/index.html$",49.png,综合大学,,49,
52,46,"University of Wisconsin, Madison",威斯康辛大学麦迪逊分校,,,,"Madison, WI ",WI,,,https://www.wisc.edu/,"学院列表@
https://www.wisc.edu/academics/$
本科专业列表@
https://www.wisc.edu/academics/$
研究生专业@
https://www.wisc.edu/academics/$
研究生院@
https://grad.wisc.edu/$
国际学生本科申请@
https://www.admissions.wisc.edu/prepare/international.php$
国际学生本科申请截止日期@
https://www.admissions.wisc.edu/apply/freshman/deadlines.php$
英语能力要求@
https://www.admissions.wisc.edu/prepare/international.php$
本科学费@
https://www.admissions.wisc.edu/prepare/costs.php$",50.png,综合大学,,50,
53,46,Villanova University ,维拉诺瓦大学,,,,"Villanova, PA ",PA,,,http://www1.villanova.edu/main.html,"学院列表@
http://www1.villanova.edu/content/main/vuacademics.html$
本科专业列表@
http://www1.villanova.edu/content/main/vuacademics.html$
研究生专业@
http://www1.villanova.edu/content/main/vuacademics.html$
研究生院@
http://www1.villanova.edu/content/main/vuacademics.html$
国际学生本科申请@
http://www1.villanova.edu/villanova/admission/overview/international.html$
国际学生本科申请截止日期@
http://www1.villanova.edu/villanova/admission/calendar.html$
英语能力要求@
http://www1.villanova.edu/villanova/admission/overview/international.html$
本科学费@
https://www1.villanova.edu/villanova/finance/bursar/tuition/undergrad.html$",51.png,综合大学,,51,
54,52,"Pennsylvania State University, University Park",宾州州立大学帕克分校,,,,"University Park, PA",PA,,,http://www.psu.edu/,"学院列表@
http://bulletins.psu.edu/undergrad$
本科专业列表@
http://bulletins.psu.edu/undergrad$
研究生专业@
http://bulletins.psu.edu/graduate$
研究生院@
http://bulletins.psu.edu/graduate$
国际学生本科申请@
http://admissions.psu.edu/info/future/international/requirements/$
国际学生本科申请截止日期@
http://admissions.psu.edu/info/future/international/deadlines/$
英语能力要求@
http://admissions.psu.edu/info/future/international/requirements/#english$
本科学费@
http://www.psu.edu/tuition-and-financial-aid$",52.png,综合大学,,52,
55,52,"University of Illinois, Urbana-Champaign",伊利诺伊大学香槟分校,,,,"Champaign, IL ",IL,,,http://illinois.edu/,"学院列表@
http://illinois.edu/academics/academics.html$
本科专业列表@
http://catalog.illinois.edu/degree-programs/$
研究生专业@
http://catalog.illinois.edu/graduate/$
研究生院@
http://catalog.illinois.edu/graduate/$
国际学生本科申请@
http://admissions.illinois.edu/Apply/international$
国际学生本科申请截止日期@
http://admissions.illinois.edu/Apply/Freshman/dates$
英语能力要求@
N/A$
本科学费@
http://admissions.illinois.edu/Invest/tuition$",53.png,综合大学,,53,
56,54,"Ohio State University, Columbus",俄亥俄州立大学,,,,"Columbus, OH ",OH,,,https://www.osu.edu/,"学院列表@
https://www.osu.edu/academics/a-z.html$
本科专业列表@
http://undergrad.osu.edu/majors-and-academics/majors$
研究生专业@
https://www.osu.edu/academics/a-z.html$
研究生院@
https://gradsch.osu.edu/$
国际学生本科申请@
http://undergrad.osu.edu/apply/international-freshmen$
国际学生本科申请截止日期@
http://undergrad.osu.edu/welcome/international$
英语能力要求@
http://undergrad.osu.edu/apply/international-freshmen/apply-step-by-step$
本科学费@
http://undergrad.osu.edu/cost-and-aid/basic-costs$",54.png,综合大学,,54,
57,54,University of Georgia ,乔治亚大学,,,,"Athens, GA ",GA,,,http://www.uga.edu/,"学院列表@
http://www.uga.edu/$
本科专业列表@
http://www.uga.edu/#$
研究生专业@
http://grad.uga.edu/index.php/current-students/policies-procedures/academics/degree-programs/degree-category/2masters/$
研究生院@
http://grad.uga.edu/$
国际学生本科申请@
https://www.admissions.uga.edu/prospective-students/international/first-year-international$
国际学生本科申请截止日期@
https://www.admissions.uga.edu/prospective-students/international/first-year-international$
英语能力要求@
https://www.admissions.uga.edu/prospective-students/international/first-year-international$
本科学费@
https://www.admissions.uga.edu/prospective-students/tuition-fees$",55.png,综合大学,,55,
58,56,George Washington University ,乔治华盛顿大学,,,,"Washington, DC ",DC,,,https://www.gwu.edu/,"学院列表@
https://www.gwu.edu/schools-colleges$
本科专业列表@
https://www.programs.gwu.edu/undergraduate$
研究生专业@
https://www.programs.gwu.edu/graduate$
研究生院@
https://www.gwu.edu/schools-colleges$
国际学生本科申请@
https://undergraduate.admissions.gwu.edu/international-application-process$
国际学生本科申请截止日期@
https://undergraduate.admissions.gwu.edu/international-application-process$
英语能力要求@
https://undergraduate.admissions.gwu.edu/international-application-process$
本科学费@
https://financialaid.gwu.edu/cost-of-attendance$",56.png,综合大学,,56,
59,56,"Purdue University, West Lafayette",普渡大学西拉法耶分校,,,,"West Lafayette, IN ",IN,,,https://www.purdue.edu/,"学院列表@
http://www.admissions.purdue.edu/majors/index.php$
本科专业列表@
http://www.admissions.purdue.edu/majors/index.php$
研究生专业@
http://www.admissions.purdue.edu/majors/index.php$
研究生院@
https://www.purdue.edu/gradschool/index.html$
国际学生本科申请@
http://www.iss.purdue.edu/Admission/freshman.cfm$
国际学生本科申请截止日期@
http://www.iss.purdue.edu/admission/ugrad/deadlines.cfm$
英语能力要求@
http://www.iss.purdue.edu/admission/ugrad/tests.cfm$
本科学费@
http://www.purdue.edu/dfa/cost/index.html$",57.png,综合大学,,57,
60,56,University of Connecticut ,康涅狄格大学,,,,"Storrs, CT ",CT,,,https://uconn.edu/,"学院列表@
https://catalog.uconn.edu/majors-by-school/$
本科专业列表@
https://catalog.uconn.edu/academic-degree-programs/$
研究生专业@
https://grad.uconn.edu/programs/$
研究生院@
https://grad.uconn.edu/$
国际学生本科申请@
http://admissions.uconn.edu/apply/international/freshman$
国际学生本科申请截止日期@
http://admissions.uconn.edu/apply/international/freshman$
英语能力要求@
http://admissions.uconn.edu/apply/international/freshman$
本科学费@
http://admissions.uconn.edu/apply/international/freshman$",58.png,综合大学,,58,
61,56,"University of Texas, Austin",德克萨斯大学奥斯汀分校,,,,"Austin, TX ",TX,,,https://www.utexas.edu/,"学院列表@
https://www.utexas.edu/$
本科专业列表@
http://admissions.utexas.edu/explore/academics$
研究生专业@
https://gradschool.utexas.edu/connect$
研究生院@
https://www.utexas.edu/$
国际学生本科申请@
https://admissions.utexas.edu/apply/freshman-admission$
国际学生本科申请截止日期@
https://admissions.utexas.edu/apply/freshman-admission$
英语能力要求@
https://admissions.utexas.edu/apply/freshman-admission#fndtn-freshman-admission-scores-international$
本科学费@
https://tuition.utexas.edu/rates/undergraduate$",59.png,综合大学,,59,
62,56,"University of Washington, Seattle",华盛顿大学西雅图分校,,,,"Seattle, WA ",WA,,,http://www.washington.edu/,"学院列表@
http://www.washington.edu/about/academics/$
本科专业列表@
http://www.washington.edu/about/academics/departments/$
研究生专业@
http://www.washington.edu/about/academics/departments/$
研究生院@
http://www.washington.edu/about/academics/$
国际学生本科申请@
http://admit.washington.edu/apply/freshman$
国际学生本科申请截止日期@
http://admit.washington.edu/apply/freshman/deadlines$
英语能力要求@
http://admit.washington.edu/apply/freshman/how-to-apply/international$
本科学费@
http://opb.washington.edu/content/annual-tuition-and-fees$",60.png,综合大学,,60,
63,61,"Brigham Young University, Provo",杨百翰大学,,,,"Provo, UT ",UT,,,https://www.byu.edu/,"学院列表@
https://www.byu.edu/collegesdepts$
本科专业列表@
https://catalog.byu.edu/programs$
研究生专业@
https://catalog.byu.edu/programs$
研究生院@
https://www.byu.edu/collegesdepts$
国际学生本科申请@
https://admissions.byu.edu/section/international$
国际学生本科申请截止日期@
https://admissions.byu.edu/international-application-deadlines$
英语能力要求@
https://admissions.byu.edu/english-proficiency-requirement$
本科学费@
https://admissions.byu.edu/tuition-charges$",61.png,综合大学,,61,
64,61,Fordham University ,福特汉姆大学,,,,"New York, NY ",NY,,,https://www.fordham.edu/,"学院列表@
https://www.fordham.edu/info/20012/colleges_and_schools$
本科专业列表@
https://www.fordham.edu/info/20526/majors_and_minors$
研究生专业@
https://www.fordham.edu/info/25447/graduate_degree_programs$
研究生院@
https://www.fordham.edu/info/20012/colleges_and_schools$
国际学生本科申请@
https://www.fordham.edu/info/25343/admitted_international_students$
国际学生本科申请截止日期@
https://www.fordham.edu/info/25342/international_students/2463/visiting_international_students$
英语能力要求@
https://www.fordham.edu/info/25342/international_students/2463/visiting_international_students$
本科学费@
https://www.fordham.edu/info/21259/tuition_and_fees$",62.png,综合大学,,62,
65,61,Southern Methodist University,南卫理公会大学,,,,"Dallas, TX ",TX,,,http://www.smu.edu/,"学院列表@
http://www.smu.edu/$
本科专业列表@
http://www.smu.edu/Admission/Academics/Majors/MajorsGrid$
研究生专业@
http://www.smu.edu/Admission/Academics/Majors/MajorsGrid$
研究生院@
http://www.smu.edu/$
国际学生本科申请@
http://www.smu.edu/Admission/Apply/FirstYearInternational$
国际学生本科申请截止日期@
http://www.smu.edu/Admission/Apply/FirstYearInternational$
英语能力要求@
http://www.smu.edu/Admission/Apply/FirstYearInternational/AdmissionRequirements$
本科学费@
http://www.smu.edu/Admission/FinancialAid/Costs$",63.png,综合大学,,63,
66,61,Syracuse University ,雪城大学,,,,"Syracuse, NY ",NY,,,https://www.syracuse.edu/,"学院列表@
https://www.syracuse.edu/academics/schools-colleges/$
本科专业列表@
https://www.syracuse.edu/academics/undergraduate-majors-minors/$
研究生专业@
https://www.syracuse.edu/academics/graduate-programs/$
研究生院@
https://www.syracuse.edu/academics/schools-colleges/$
国际学生本科申请@
https://www.syracuse.edu/admissions/undergraduate/international/$
国际学生本科申请截止日期@
https://www.syracuse.edu/admissions/undergraduate/international/enrollment-options/$
英语能力要求@
https://www.syracuse.edu/admissions/undergraduate/international/requirements/$
本科学费@
https://www.syracuse.edu/admissions/cost-and-aid/cost-of-attendance/international/$",64.png,综合大学,,64,
67,61,"University of Maryland, College Park",马里兰大学公园分校,,,,"College Park, MD ",MD,,,N/A,"学院列表@
N/A$
本科专业列表@
N/A$
研究生专业@
N/A$
研究生院@
N/A$
国际学生本科申请@
N/A$
国际学生本科申请截止日期@
N/A$
英语能力要求@
N/A$
本科学费@
N/A$",65.png,综合大学,,65,
68,61,Worcester Polytechnic Institute,伍斯特理工学院,,,,"Worcester, MA ",MA,,,https://www.wpi.edu/,"学院列表@
https://www.wpi.edu/academics/departments$
本科专业列表@
https://www.wpi.edu/academics/study?bachelor$
研究生专业@
https://www.wpi.edu/academics/study?master$
研究生院@
https://www.wpi.edu/academics/departments$
国际学生本科申请@
https://www.wpi.edu/admissions/undergraduate/apply/how-to/application-deadlines#InternationalStudents$
国际学生本科申请截止日期@
https://www.wpi.edu/admissions/undergraduate/apply/how-to/application-deadlines#InternationalStudents$
英语能力要求@
https://www.wpi.edu/admissions/undergraduate/apply/how-to/application-deadlines/international-students$
本科学费@
https://www.wpi.edu/admissions/tuition-aid$",66.png,综合大学,,66,
69,67,Clemson University ,克莱姆森大学,,,,"Clemson, SC ",SC,,,http://www.clemson.edu/,"学院列表@
http://www.clemson.edu/degrees/index.html
$
本科专业列表@
http://www.clemson.edu/degrees/index.html$
研究生专业@
http://www.clemson.edu/degrees/index.html$
研究生院@
https://www.clemson.edu/graduate/$
国际学生本科申请@
N/A$
国际学生本科申请截止日期@
N/A$
英语能力要求@
N/A$
本科学费@
http://www.clemson.edu/admissions/undergraduate/costs-financial-aid.html$",67.png,综合大学,,67,
70,68,University of Pittsburgh ,匹兹堡大学,,,,"Pittsburgh, PA ",PA,,,http://www.pitt.edu/,"学院列表@
http://www.pitt.edu/academics/schools-colleges$
本科专业列表@
http://www.pitt.edu/academics#programtab$
研究生专业@
http://www.pitt.edu/academics#programtab$
研究生院@
http://www.pitt.edu/admissions/graduate-professional$
国际学生本科申请@
https://oafa.pitt.edu/apply/admissions-process/international-students/$
国际学生本科申请截止日期@
https://oafa.pitt.edu/apply/admissions-process/international-students/$
英语能力要求@
https://oafa.pitt.edu/apply/admissions-process/freshmen/$
本科学费@
http://ir.pitt.edu/undergraduate-tuition/$",68.png,综合大学,,68,
71,69,American University ,美利坚大学,,,,"Washington, DC ",DC,,,http://www.american.edu,"学院列表@
http://www.american.edu$
本科专业列表@
http://www.american.edu$
研究生专业@
http://www.american.edu$
研究生院@
http://www.american.edu$
国际学生本科申请@
http://www.american.edu/admissions/international/$
国际学生本科申请截止日期@
http://www.american.edu/admissions/international/$
英语能力要求@
http://www.american.edu/admissions/international/$
本科学费@
http://www.american.edu/admissions/international/$",69.png,综合大学,,69,
72,69,"Rutgers University, New Brunswick",罗格斯大学,,,,"Piscataway, NJ",NJ,,,https://www.rutgers.edu/,"学院列表@
https://www.rutgers.edu/academics/schools-colleges$
本科专业列表@
https://admissions.rutgers.edu/academics/find-your-major$
研究生专业@
https://www.rutgers.edu/academics/graduate-academics$
研究生院@
https://www.rutgers.edu/academics/schools-colleges$
国际学生本科申请@
https://admissions.rutgers.edu/applying/more-for-international-applicants$
国际学生本科申请截止日期@
https://admissions.rutgers.edu/applying/more-for-international-applicants$
英语能力要求@
https://admissions.rutgers.edu/applying/more-for-international-applicants$
本科学费@
https://www.rutgers.edu/admissions/financial-aid-tuition$",70.png,综合大学,,70,
73,69,Stevens Institute of Technology,斯蒂文斯理工学院,,,,"Hoboken, NJ ",NJ,,,https://www.stevens.edu/,"学院列表@
https://www.stevens.edu/academics/undergraduate-studies$
本科专业列表@
https://www.stevens.edu/academics/undergraduate-studies$
研究生专业@
https://www.stevens.edu/academics/graduate-studies$
研究生院@
https://www.stevens.edu/academics/colleges-schools$
国际学生本科申请@
https://www.stevens.edu/admissions/undergraduate-admissions/how-apply/international-students$
国际学生本科申请截止日期@
N/A$
英语能力要求@
N/A$
本科学费@
N/A$",71.png,综合大学,,71,
74,69,"Texas A&M University, College Station",德州农工大学,,,,"College Station, TX ",TX,,,http://www.tamu.edu/,"学院列表@
http://www.tamu.edu/about/departments.html$
本科专业列表@
http://majors.tamu.edu/?_ga=2.178075493.1156904183.1510197897-890510169.1510197897$
研究生专业@
http://catalog.tamu.edu/graduate/degrees-programs/$
研究生院@
http://ogaps.tamu.edu/Prospective-Students/Programs-and-Degrees?_ga=2.148189943.1156904183.1510197897-890510169.1510197897$
国际学生本科申请@
http://admissions.tamu.edu/international/freshman$
国际学生本科申请截止日期@
http://admissions.tamu.edu/international/freshman?_ga=2.214825943.1156904183.1510197897-890510169.1510197897#collapse-collapse2$
英语能力要求@
http://admissions.tamu.edu/international/freshman?_ga=2.214825943.1156904183.1510197897-890510169.1510197897#collapse-collapse2$
本科学费@
https://sbs.tamu.edu/?_ga=2.248830023.1156904183.1510197897-890510169.1510197897$",72.png,综合大学,,72,
75,69,"University of Minnesota, Twin Cities",明尼苏达大学双城分校,,,,"Minneapolis, MN ",MN,,,https://twin-cities.umn.edu/,"学院列表@
https://twin-cities.umn.edu/academics#anchor-colleges-schools$
本科专业列表@
https://twin-cities.umn.edu/academics#programs-table-undergraduate$
研究生专业@
https://twin-cities.umn.edu/academics#anchor-graduate-professional-programs$
研究生院@
https://twin-cities.umn.edu/academics#anchor-colleges-schools$
国际学生本科申请@
http://admissions.tc.umn.edu/international/index.html$
国际学生本科申请截止日期@
http://admissions.tc.umn.edu/freshman/deadlines.html$
英语能力要求@
http://admissions.tc.umn.edu/international/apply.html$
本科学费@
https://twin-cities.umn.edu/admissions-aid$",73.png,综合大学,,73,
76,69,Virginia Tech,弗吉尼亚理工学院,,,,"Blacksburg, VA ",VA,,,https://vt.edu/,"学院列表@
https://vt.edu/academics/academic-departments.html$
本科专业列表@
https://vt.edu/academics/majors.html$
研究生专业@
https://vt.edu/academics/majors.html$
研究生院@
https://vt.edu/academics/academic-departments.html$
国际学生本科申请@
https://vt.edu/admissions/international.html$
国际学生本科申请截止日期@
https://vt.edu/admissions/undergraduate/apply/dates.html#select=3$
英语能力要求@
https://vt.edu/admissions/undergraduate/apply/requirements.html#select=3$
本科学费@
https://vt.edu/admissions/undergraduate/cost.html$",74.png,综合大学,,74,
77,75,Baylor University ,贝勒大学,,,,"Waco, TX ",TX,,,https://www.baylor.edu/,"学院列表@
https://www.baylor.edu/academics/?_buref=1172-91940$
本科专业列表@
https://www.baylor.edu/graduate/index.php?id=97433$
研究生专业@
https://www.baylor.edu/graduate/index.php?id=97433$
研究生院@
https://www.baylor.edu/graduate/?_buref=1172-91940$
国际学生本科申请@
https://www.baylor.edu/admissions/index.php?id=872023$
国际学生本科申请截止日期@
https://www.baylor.edu/admissions/index.php?id=872024$
英语能力要求@
https://www.baylor.edu/admissions/index.php?id=872024$
本科学费@
https://www.baylor.edu/admissions/index.php?id=872111$",75.png,综合大学,,75,
78,75,Colorado School of Mines,科罗拉多矿业大学,,,,"Golden, CO",CO,,,https://www.mines.edu/,"学院列表@
https://www.mines.edu/contact/#academic$
本科专业列表@
https://www.mines.edu/academics/#undergrad$
研究生专业@
https://www.mines.edu/academics/#grad$
研究生院@
https://www.mines.edu/contact/#academic$
国际学生本科申请@
https://www.mines.edu/undergraduate-admissions/international-students/$
国际学生本科申请截止日期@
https://www.mines.edu/undergraduate-admissions/international-students/$
英语能力要求@
https://www.mines.edu/undergraduate-admissions/international-students/$
本科学费@
https://finaid.mines.edu/cost-of-attendance-undergraduate/$",76.png,综合大学,,76,
79,75,"University of Massachusetts, Amherst",马萨诸塞大学阿姆赫斯特分校,,,,"Amherst, MA ",MA,,,http://www.umass.edu/,"学院列表@
http://www.umass.edu/gateway/academics/schools-and-colleges$
本科专业列表@
http://www.umass.edu/gateway/academics/undergraduate$
研究生专业@
http://www.umass.edu/gradschool/programs$
研究生院@
http://www.umass.edu/gateway/academics/schools-and-colleges$
国际学生本科申请@
https://www.umass.edu/admissions/international-freshman$
国际学生本科申请截止日期@
https://www.umass.edu/admissions/apply/dates-and-deadlines$
英语能力要求@
https://www.umass.edu/admissions/international-freshman$
本科学费@
http://www.umass.edu/admissions/facts-and-figures/tuition-and-fees$",77.png,综合大学,,77,
80,78,"Miami University, Oxford",迈阿密大学牛津校区,,,,"Oxford, OH ",OH,,,http://miamioh.edu/,"学院列表@
http://miamioh.edu/academics/divisions/index.html$
本科专业列表@
http://miamioh.edu/academics/majors-minors/majors-by-alpha.html$
研究生专业@
http://miamioh.edu/academics/majors-minors/majors-by-alpha.html$
研究生院@
http://miamioh.edu/academics/divisions/index.html$
国际学生本科申请@
http://miamioh.edu/admission/international/application/index.html$
国际学生本科申请截止日期@
http://miamioh.edu/admission/international/application/index.html$
英语能力要求@
http://miamioh.edu/admission/international/english-proficiency/index.html$
本科学费@
https://miamioh.edu/onestop/your-money/tuition-fees/index.html$",78.png,综合大学,,78,
81,78,Texas Christian University ,德克萨斯基督教大学,,,,"Fort Worth, TX ",TX,,,http://www.tcu.edu/,"学院列表@
http://www.tcu.edu/academics.asp$
本科专业列表@
https://admissions.tcu.edu/Academics/Areas-of-Study/$
研究生专业@
https://graduate.tcu.edu/admissions/degrees-and-programs/$
研究生院@
http://www.tcu.edu/academics.asp$
国际学生本科申请@
https://admissions.tcu.edu/apply/international/$
国际学生本科申请截止日期@
https://admissions.tcu.edu/apply/international/$
英语能力要求@
https://admissions.tcu.edu/apply/international/$
本科学费@
https://admissions.tcu.edu/cost-aid/cost-estimate/#cost_estimate_international$",79.png,综合大学,,79,
82,78,University of Iowa ,爱荷华大学,,,,"Iowa City, IA ",IA,,,https://uiowa.edu/,"学院列表@
https://www.grad.uiowa.edu/departments-and-programs$
本科专业列表@
https://admissions.uiowa.edu/academics/undergraduate-areas-of-study#$
研究生专业@
https://www.grad.uiowa.edu/programs/alphabetically$
研究生院@
https://www.grad.uiowa.edu/departments-and-programs$
国际学生本科申请@
https://admissions.uiowa.edu/apply/international-application-process$
国际学生本科申请截止日期@
https://admissions.uiowa.edu/undergraduate-programs/international-undergraduate-application-deadlines$
英语能力要求@
https://www.grad.uiowa.edu/departments-and-programs$
本科学费@
https://admissions.uiowa.edu/finances/estimated-costs-attendance$",80.png,综合大学,,80,
83,81,Clark University ,克拉克大学,,,,"Worcester, MA ",MA,,,http://www.clarku.edu/,"学院列表@
http://www2.clarku.edu/departmentsandschools.cfm?_ga=2.209566036.715519039.1510137055-1654415529.1510137055$
本科专业列表@
http://www.clarku.edu/academics/undergraduate/majors-minors-and-accelerated-degrees$
研究生专业@
http://www.clarku.edu/academics/graduate/masters-doctorates-and-certificates$
研究生院@
http://www.clarku.edu/academics/undergraduate/majors-minors-and-accelerated-degrees$
国际学生本科申请@
http://www.clarku.edu/international-first-year-application-early-decision-early-action-and-regular$
国际学生本科申请截止日期@
http://www.clarku.edu/international-first-year-application-early-decision-early-action-and-regular$
英语能力要求@
http://www.clarku.edu/international-first-year-application-early-decision-early-action-and-regular$
本科学费@
http://www.clarku.edu/tuition-and-fees$",81.png,综合大学,,81,
84,81,Florida State University ,佛罗里达州立大学,,,,"Tallahassee, FL ",FL,,,http://www.fsu.edu/,"学院列表@
http://admissions.fsu.edu/majors/$
本科专业列表@
http://admissions.fsu.edu/majors/#collapseSix$
研究生专业@
http://gradschool.fsu.edu/academics-research/degree-programs/masters-degree-programs$
研究生院@
http://gradschool.fsu.edu/academics-research/degree-programs/masters-degree-programs$
国际学生本科申请@
http://admissions.fsu.edu/international/$
国际学生本科申请截止日期@
http://admissions.fsu.edu/international/$
英语能力要求@
http://admissions.fsu.edu/international/$
本科学费@
http://admissions.fsu.edu/international/$",82.png,综合大学,,82,
85,81,Michigan State University ,密歇根州立大学,,,,"East Lansing, MI ",MI,,,https://msu.edu/,"学院列表@
https://msu.edu/academics/colleges.html#pri-id-1-sub-id-1$
本科专业列表@
https://admissions.msu.edu/academics/majors-degrees-programs/default.aspx$
研究生专业@
https://admissions.msu.edu/academics/majors-degrees-programs/default.aspx$
研究生院@
https://msu.edu/academics/colleges.html#pri-id-1-sub-id-1$
国际学生本科申请@
https://admissions.msu.edu/apply/international/default.aspx$
国际学生本科申请截止日期@
https://admissions.msu.edu/apply/freshman/before-you-apply/dates-and-deadlines.aspx$
英语能力要求@
https://admissions.msu.edu/apply/freshman/before-you-apply/dates-and-deadlines.aspx$
本科学费@
https://admissions.msu.edu/cost-aid/$",83.png,综合大学,,83,
86,81,"North Carolina State University, Raleigh",北卡罗来纳州立大学,,,,"Raleigh, NC ",NC,,,https://www.ncsu.edu/,"学院列表@
https://www.ncsu.edu/academics/departments-a-z/$
本科专业列表@
https://www.ncsu.edu/academics/departments-a-z/$
研究生专业@
https://www.ncsu.edu/academics/departments-a-z/$
研究生院@
https://www.ncsu.edu/academics/departments-a-z/$
国际学生本科申请@
https://admissions.ncsu.edu/apply/dates-and-deadlines/$
国际学生本科申请截止日期@
https://admissions.ncsu.edu/apply/dates-and-deadlines/$
英语能力要求@
https://admissions.ncsu.edu/apply/dates-and-deadlines/$
本科学费@
https://studentservices.ncsu.edu/your-money/financial-aid/estimated-cost-of-attendance/undergraduate-student/$",84.png,综合大学,,84,
87,81,"University of California, Santa Cruz",加州大学圣克鲁兹分校,,,,"Santa Cruz, CA ",CA,,,https://www.ucsc.edu/index.html,"学院列表@
https://graddiv.ucsc.edu/prospective-students/Programs.html$
本科专业列表@
http://www.udel.edu/apply/undergraduate-admissions/financing-your-degree/$
研究生专业@
https://graddiv.ucsc.edu/prospective-students/Programs.html$
研究生院@
https://graddiv.ucsc.edu/prospective-students/Programs.html$
国际学生本科申请@
https://admissions.ucsc.edu/apply/international-students/intl-frosh.html$
国际学生本科申请截止日期@
https://admissions.ucsc.edu/apply/international-students/index.html$
英语能力要求@
https://admissions.ucsc.edu/apply/international-students/english-proficiency.html$
本科学费@
https://financialaid.ucsc.edu/costs/undergraduate-costs.html$",85.png,综合大学,,85,
88,81,University of Delaware ,特拉华大学,,,,"Newark, DE ",DE,,,http://www.udel.edu/,"学院列表@
http://www.udel.edu/academics/colleges/$
本科专业列表@
http://www.udel.edu/apply/undergraduate-admissions/major-finder/$
研究生专业@
http://grad.udel.edu/graduate-programs/$
研究生院@
http://www.udel.edu/academics/colleges/$
国际学生本科申请@
http://www.udel.edu/apply/undergraduate-admissions/international-students/international-admissions-requirements/$
国际学生本科申请截止日期@
http://www.udel.edu/apply/undergraduate-admissions/international-students/international-admissions-requirements/$
英语能力要求@
http://www.udel.edu/apply/undergraduate-admissions/international-students/international-admissions-requirements/$
本科学费@
http://www.udel.edu/apply/undergraduate-admissions/financing-your-degree/$",86.png,综合大学,,86,
89,87,"Binghamton University, SUNY",纽约州立大学宾汉姆顿大学,,,,"Binghamton, NY ",NY,,,https://www.binghamton.edu/,"学院列表@
https://www.binghamton.edu/$
本科专业列表@
https://www.binghamton.edu/admissions/academics/programs.html$
研究生专业@
https://www.binghamton.edu/grad-school/academic-programs/$
研究生院@
https://www.binghamton.edu/grad-school/$
国际学生本科申请@
https://www.binghamton.edu/admissions/apply/international/freshman.html$
国际学生本科申请截止日期@
https://www.binghamton.edu/admissions/apply/international/freshman.html$
英语能力要求@
https://www.binghamton.edu/admissions/apply/international/freshman.html$
本科学费@
https://www.binghamton.edu/admissions/cost/$",87.png,综合大学,,87,
90,87,University of Denver ,丹佛大学,,,,"Denver, CO ",CO,,,https://www.du.edu/,"学院列表@
https://www.du.edu/academics/schools-and-colleges.html$
本科专业列表@
https://www.du.edu/academics/undergraduate-programs.html$
研究生专业@
https://www.du.edu/academics/graduate-programs.html$
研究生院@
https://www.du.edu/academics/schools-and-colleges.html$
国际学生本科申请@
https://www.du.edu/admission-aid/undergraduate/international-applicants/index.html$
国际学生本科申请截止日期@
https://www.du.edu/admission-aid/undergraduate/international-applicants/first-year-applicants.html$
英语能力要求@
https://www.du.edu/admission-aid/undergraduate/international-applicants/english-proficiency-requirements.html$
本科学费@
https://www.du.edu/admission-aid/undergraduate/international-applicants/english-proficiency-requirements.html$",88.png,综合大学,,88,
91,87,University of Tulsa ,塔尔萨大学,,,,"Tulsa, OK ",OK,,,www.utulsa.edu/,"学院列表@
https://utulsa.edu/academics/$
本科专业列表@
https://utulsa.edu/degrees/$
研究生专业@
https://utulsa.edu/degrees/$
研究生院@
https://utulsa.edu/academics/$
国际学生本科申请@
https://utulsa.edu/international-students/international-student-services/$
国际学生本科申请截止日期@
https://utulsa.edu/academics/$
英语能力要求@
https://utulsa.edu/academics/$
本科学费@
https://utulsa.edu/academics/$",89.png,综合大学,,89,
92,90,"Indiana University, Bloomington",印第安纳大学伯明顿分校,,,,"Bloomington, IN ",IN,,,https://www.indiana.edu/,"学院列表@
https://www.indiana.edu/academics/schools.html$
本科专业列表@
https://www.indiana.edu/academics/degrees-majors/index.html?program=4$
研究生专业@
https://www.indiana.edu/academics/degrees-majors/index.html?program=7$
研究生院@
https://www.indiana.edu/academics/schools.html$
国际学生本科申请@
https://ois.iu.edu/admissions/apply/freshmen/standards.html$
国际学生本科申请截止日期@
https://ois.iu.edu/admissions/apply/freshmen/deadlines.html$
英语能力要求@
https://ois.iu.edu/admissions/apply/freshmen/standards.html$
本科学费@
https://ois.iu.edu/admissions/cost-finances/tuition-fees.html$",90.png,综合大学,,90,
93,90,Marquette University ,马凯特大学,,,,"Milwaukee, WI ",WI,,,http://www.marquette.edu/,"学院列表@
http://www.marquette.edu/academics/$
本科专业列表@
http://www.marquette.edu/explore/majors.php$
研究生专业@
http://www.marquette.edu/grad/programs.php$
研究生院@
http://www.marquette.edu/academics/$
国际学生本科申请@
http://www.marquette.edu/oie/prospective-students/apply.php$
国际学生本科申请截止日期@
http://www.marquette.edu/oie/prospective-students/apply.php$
英语能力要求@
http://www.marquette.edu/oie/prospective-students/application-requirements.php$
本科学费@
http://www.marquette.edu/oie/prospective-students/tuition.php$",91.png,综合大学,,91,
94,90,"University of Colorado, Boulder",科罗拉多大学波尔得分校,,,,"Boulder, CO ",CO,,,https://www.colorado.edu/,"学院列表@
https://www.colorado.edu/academics/colleges-schools$
本科专业列表@
https://catalog.colorado.edu/programs-a-z/#filter=.filter_19$
研究生专业@
https://catalog.colorado.edu/programs-a-z/#filter=.filter_22$
研究生院@
https://www.colorado.edu/academics/colleges-schools$
国际学生本科申请@
https://www.colorado.edu/admissions/apply$
国际学生本科申请截止日期@
https://www.colorado.edu/admissions/apply$
英语能力要求@
https://www.colorado.edu/admissions/selection/englishproficiency$
本科学费@
https://bursar.colorado.edu/tuition-fees/annual-cost-estimate/undergraduate-international/$",92.png,综合大学,,92,
95,90,University of San Diego ,圣地亚哥大学,,,,"San Diego, CA ",CA,,,http://www.sandiego.edu/,"学院列表@
http://www.sandiego.edu/academics/colleges-and-schools/$
本科专业列表@
http://www.sandiego.edu/academics/academic-programs/majors.php$
研究生专业@
http://catalogs.sandiego.edu/graduate/$
研究生院@
http://www.sandiego.edu/academics/colleges-and-schools/$
国际学生本科申请@
http://www.sandiego.edu/admissions/undergraduate/apply/application-requirements/#international$
国际学生本科申请截止日期@
http://www.sandiego.edu/admissions/undergraduate/apply/$
英语能力要求@
http://www.sandiego.edu/admissions/undergraduate/apply/application-requirements/#international$
本科学费@
http://www.sandiego.edu/admissions/undergraduate/tuition-financial-aid/$",93.png,综合大学,,93,
96,94,Drexel University ,德雷塞尔大学,,,,"Philadelphia, PA ",PA,,,http://drexel.edu/,"学院列表@
http://drexel.edu/academics/schools/$
本科专业列表@
http://drexel.edu/undergrad/academics/majors/$
研究生专业@
http://drexel.edu/grad/programs/list/$
研究生院@
http://drexel.edu/academics/schools/$
国际学生本科申请@
http://drexel.edu/undergrad/apply/deadlines/$
国际学生本科申请截止日期@
http://drexel.edu/undergrad/apply/deadlines/$
英语能力要求@
http://drexel.edu/undergrad/apply/deadlines/$
本科学费@
http://drexel.edu/undergrad/apply/deadlines/$",94.png,综合大学,,94,
97,94,St. Louis University ,圣路易斯大学,,,,"St. Louis, MO ",MO,,,http://www.slu.edu/,"学院列表@
http://www.slu.edu/academics/index.php$
本科专业列表@
http://www.slu.edu/programs/undergraduate/index.php$
研究生专业@
http://www.slu.edu/programs/graduate/index.php$
研究生院@
http://www.slu.edu/academics/index.php$
国际学生本科申请@
http://www.slu.edu/admission/international/contact.php$
国际学生本科申请截止日期@
N/A$
英语能力要求@
http://www.slu.edu/admission/international/english-proficiency.php$
本科学费@
http://www.slu.edu/financial-aid/tuition-and-costs/index.php$",95.png,综合大学,,95,
98,94,Yeshiva University ,叶史瓦大学,,,,"New York, NY ",NY,,,https://www.yu.edu/,"学院列表@
https://www.yu.edu/academics$
本科专业列表@
https://www.yu.edu/academics$
研究生专业@
https://www.yu.edu/academics$
研究生院@
https://www.yu.edu/academics/Graduate-Schools$
国际学生本科申请@
https://www.yu.edu/admissions/apply/intl$
国际学生本科申请截止日期@
https://www.yu.edu/admissions/apply/intl$
英语能力要求@
https://www.yu.edu/admissions/apply/intl$
本科学费@
https://www.yu.edu/osf/tuition-fees/undergraduate$",96.png,综合大学,,96,
99,97,Rochester Institute of Technology,罗彻斯特理工学院,,,,"Rochester, NY",NY,,,http://www.rit.edu/,"学院列表@
N/A$
本科专业列表@
N/A$
研究生专业@
N/A$
研究生院@
N/A$
国际学生本科申请@
N/A$
国际学生本科申请截止日期@
N/A$
英语能力要求@
N/A$
本科学费@
N/A$",97.png,综合大学,,97,
100,97,"Stony Brook University, SUNY",纽约州立大学石溪分校,,,,"Stony Brook, NY",NY,,,http://www.stonybrook.edu/,"学院列表@
http://www.stonybrook.edu/academics/colleges-and-schools/$
本科专业列表@
http://www.stonybrook.edu/academics/majors-minors-and-programs/#UndergraduatePrograms$
研究生专业@
http://grad.stonybrook.edu/academics/academic_programs.php$
研究生院@
http://www.stonybrook.edu/academics/colleges-and-schools/$
国际学生本科申请@
http://www.stonybrook.edu/undergraduate-admissions/apply/international/application-procedures/$
国际学生本科申请截止日期@
http://www.stonybrook.edu/undergraduate-admissions/apply/international/application-procedures/$
英语能力要求@
http://www.stonybrook.edu/undergraduate-admissions/apply/international/admission-criteria/#english-proficiencyé?$
本科学费@
http://www.stonybrook.edu/undergraduate-admissions/cost-and-financial-aid/$",98.png,综合大学,,98,
101,97,SUNY College of Environmental Science and Forestry,纽约州立环境科学与森林学院,,,,"Syracuse, NY",NY,,,http://www.esf.edu/,"学院列表@
http://www.esf.edu/academics/$
本科专业列表@
http://www.esf.edu/admissions/programs.htm$
研究生专业@
http://www.esf.edu/graduate/acadprog.htm$
研究生院@
http://www.esf.edu/graduate/acadprog.htm$
国际学生本科申请@
http://www.esf.edu/international/admissions.htm#IntlAdmitRequirements$
国际学生本科申请截止日期@
http://www.esf.edu/admissions/international.htm$
英语能力要求@
http://www.esf.edu/international/admissions.htm$
本科学费@
http://www.esf.edu/financialaid/costs/default.htm$",99.png,综合大学,,99,
102,97,"University of Buffalo, SUNY",纽约州立大学水牛城分校,,,,"Buffalo, NY",NY,,,http://www.buffalo.edu/,"学院列表@
http://www.buffalo.edu/academics/schools_and_colleges.html$
本科专业列表@
https://admissions.buffalo.edu/academics/areasofstudy.php$
研究生专业@
http://www.buffalo.edu/academics/degree_programs.graduate-programs.html$
研究生院@
http://www.buffalo.edu/academics/schools_and_colleges.html$
国际学生本科申请@
http://www.buffalo.edu/internationaladmissions/get-ready-to-apply/apply/check-my-application-status.html$
国际学生本科申请截止日期@
http://grad.buffalo.edu/apply/admissions/requirements.html#deadlines$
英语能力要求@
http://grad.buffalo.edu/apply/admissions/requirements.html#englishrequirements$
本科学费@
http://www.buffalo.edu/internationaladmissions/get-ready-to-apply/apply/check-my-application-status.html$",100.png,综合大学,,100,
103,97,University of Oklahoma,俄克拉荷马大学,,,,"Norman, OK",OK,,,http://www.ou.edu/,"学院列表@
http://www.ou.edu/content/web/resources_offices/content/academic_departments.html$
本科专业列表@
http://www.ou.edu/content/admissions/academics/find-your-major.html$
研究生专业@
http://www.ou.edu/content/gradweb/academic_programs/norman_campus.html$
研究生院@
http://www.ou.edu/content/gradweb/academic_programs/norman_campus.html$
国际学生本科申请@
http://www.ou.edu/content/admissions/apply/international/undergraduate-admission.html$
国际学生本科申请截止日期@
http://www.ou.edu/content/admissions/apply/international/undergraduate-admission.html$
英语能力要求@
http://www.ou.edu/content/admissions/affordability/cost.html$
本科学费@
http://www.ou.edu/content/admissions/affordability/cost.html$",101.png,综合大学,,101,
104,97,University of Vermont ,佛蒙特大学,,,,"Burlington, VT ",VT,,,https://www.uvm.edu/,"学院列表@
https://www.uvm.edu/admissions/undergraduate/why_uvm#academicprograms$
本科专业列表@
https://www.uvm.edu/admissions/undergraduate/why_uvm#academicprograms$
研究生专业@
https://www.uvm.edu/academics/majors_minors_and_graduate_programs$
研究生院@
https://www.uvm.edu/academics/majors_minors_and_graduate_programs$
国际学生本科申请@
https://www.uvm.edu/admissions/undergraduate/apply/international_applicants$
国际学生本科申请截止日期@
https://www.uvm.edu/admissions/undergraduate/dates_and_deadlines$
英语能力要求@
https://www.uvm.edu/admissions/undergraduate/apply/international_applicants$
本科学费@
https://www.uvm.edu/admissions/undergraduate/costs_financial_aid_and_scholarships$",102.png,综合大学,,102,
105,103,Auburn University,奥本大学,,,,Auburn,AL,,,http://www.auburn.edu/,"学院列表@
http://www.auburn.edu/admissions/majors.html$
本科专业列表@
https://admissions.iit.edu/undergraduate/programs/$
研究生专业@
http://graduate.auburn.edu/$
研究生院@
http://www.auburn.edu/admissions/majors.html$
国际学生本科申请@
not found$
国际学生本科申请截止日期@
http://www.auburn.edu/admissions/#RequirementsDeadlines$
英语能力要求@
http://www.auburn.edu/admissions/prospectivestudents.html#Transfer2$
本科学费@
http://www.auburn.edu/admissions/tuition/$",103.png,综合大学,,103,
106,103,Illinois Institute of Technology,伊利诺伊理工学院,,,,Chicago,IL,,,https://web.iit.edu/,"学院列表@
https://web.iit.edu/$
本科专业列表@
https://admissions.iit.edu/undergraduate/programs/$
研究生专业@
https://admissions.iit.edu/graduate/programs/$
研究生院@
https://admissions.iit.edu/graduate/programs/$
国际学生本科申请@
https://admissions.iit.edu/undergraduate/apply/apply-international-first-year-freshman-student$
国际学生本科申请截止日期@
https://admissions.iit.edu/undergraduate/apply/deadlines$
英语能力要求@
https://admissions.iit.edu/undergraduate/apply/international-student-english-proficiency-requirement$
本科学费@
https://admissions.iit.edu/undergraduate/finances/tuition-and-fees$",104.png,综合大学,,104,
107,103,Loyola University Chicago,芝加哥洛约拉大学,,,,Chicago,IL,,,https://www.luc.edu/,"学院列表@
https://luc.edu/gpem/index.html$
本科专业列表@
https://luc.edu/undergrad/academics/majors/#majors$
研究生专业@
https://luc.edu/gpem/index.html$
研究生院@
https://luc.edu/gpem/index.html$
国际学生本科申请@
https://luc.edu/undergrad/letsgetstarted/international/$
国际学生本科申请截止日期@
https://luc.edu/undergrad/letsgetstarted/international/$
英语能力要求@
https://luc.edu/undergrad/letsgetstarted/international/$
本科学费@
https://luc.edu/undergrad/tuitionandfinancialaid/tuitionandfees/$",105.png,综合大学,,105,
108,103,University of New Hampshire,新罕布什尔大学,,,,Durham,NH,,,https://www.unh.edu/,"学院列表@
https://www.unh.edu/main/colleges-schools$
本科专业列表@
https://www.unh.edu/main/degree-programs$
研究生专业@
https://catalog.unh.edu/graduate/$
研究生院@
http://gradschool.unh.edu/$
国际学生本科申请@
https://admissions.unh.edu/apply/international-students$
国际学生本科申请截止日期@
https://admissions.unh.edu/apply/international-students/admissions-deadlines$
英语能力要求@
https://admissions.unh.edu/apply/international-students$
本科学费@
https://admissions.unh.edu/tuitionfees$",106.png,综合大学,,106,
109,103,University of Oregon,俄勒冈大学,,,,Eugene,OR,,,http://uoregon.edu/,"学院列表@
http://uoregon.edu/academics$
本科专业列表@
http://admissions.uoregon.edu/explore/majors$
研究生专业@
http://gradschool.uoregon.edu/academic-programs$
研究生院@
http://uoregon.edu/academics$
国际学生本科申请@
http://admissions.uoregon.edu/freshmen$
国际学生本科申请截止日期@
http://admissions.uoregon.edu/freshmen$
英语能力要求@
http://admissions.uoregon.edu/apply/freshmen/requirements$
本科学费@
http://financialaid.uoregon.edu/cost_of_attendance$",107.png,综合大学,,107,
110,103,University of South Carolina,南卡罗来纳大学,,,,Columbia,SC,,,http://www.sc.edu/,"学院列表@
http://www.sc.edu/study/colleges_schools/index.php$
本科专业列表@
http://www.sc.edu/study/majors_and_degrees/$
研究生专业@
http://www.sc.edu/study/majors_and_degrees/$
研究生院@
http://www.sc.edu/study/colleges_schools/index.php$
国际学生本科申请@
http://www.sc.edu/apply/apply_for_undergraduate_admission/index.php$
国际学生本科申请截止日期@
http://www.sc.edu/about/offices_and_divisions/undergraduate_admissions/deadlines/index.php$
英语能力要求@
http://www.sc.edu/about/offices_and_divisions/undergraduate_admissions/requirements/for_freshmen/index.php$
本科学费@
http://www.sc.edu/about/offices_and_divisions/undergraduate_admissions/tuition_scholarships/index.php$",108.png,综合大学,,108,
111,103,University of Tennessee,田纳西大学,,,,Knoxville,TN,,,http://www.utk.edu/,"学院列表@
http://www.utk.edu/academics/$
本科专业列表@
https://advising.utk.edu/your-advisor-2/majors/$
研究生专业@
https://advising.utk.edu/your-advisor-2/majors/$
研究生院@
https://advising.utk.edu/your-advisor-2/majors/$
国际学生本科申请@
https://admissions.utk.edu/$
国际学生本科申请截止日期@
https://admissions.utk.edu/international/$
英语能力要求@
https://admissions.utk.edu/international/$
本科学费@
https://admissions.utk.edu/cost/$",109.png,综合大学,,109,
112,110,Howard University,霍华德大学,,,,"Washington, DC",DC,,,http://www.howard.edu/,"学院列表@
网页打不开$
本科专业列表@
$
研究生专业@
$
研究生院@
$
国际学生本科申请@
$
国际学生本科申请截止日期@
$
英语能力要求@
$
本科学费@
$",110.png,综合大学,,110,
113,110,University of Alabama,阿拉巴马大学,,,,Tuscaloosa,AL,,,https://www.ua.edu/,"学院列表@
https://graduate.ua.edu/academic-programs/$
本科专业列表@
https://www.ua.edu/academics/majors/$
研究生专业@
https://graduate.ua.edu/academic-programs/$
研究生院@
https://graduate.ua.edu/academic-programs/$
国际学生本科申请@
https://catalog.ua.edu/undergraduate/arts-sciences/#requirementstext$
国际学生本科申请截止日期@
https://catalog.ua.edu/undergraduate/arts-sciences/#requirementstext$
英语能力要求@
https://catalog.ua.edu/undergraduate/arts-sciences/#requirementstext$
本科学费@
https://catalog.ua.edu/undergraduate/arts-sciences/#requirementstext$",111.png,综合大学,,111,
114,110,University of San Francisco,旧金山大学,,,,San Francisco,CA,,,https://www.usfca.edu/,"学院列表@
https://www.usfca.edu/$
本科专业列表@
https://www.usfca.edu/academics/undergraduate/majors-minors$
研究生专业@
https://www.usfca.edu/academics/graduate-professional/graduate-programs$
研究生院@
https://www.usfca.edu/academics/graduate-professional/graduate-programs$
国际学生本科申请@
https://www.usfca.edu/admission/international/undergraduate/freshman-applicants$
国际学生本科申请截止日期@
https://www.usfca.edu/admission/international/undergraduate$
英语能力要求@
https://www.usfca.edu/admission/international/undergraduate/freshman-applicants$
本科学费@
https://www.usfca.edu/billing-tuition/tuition-fees-undergraduate$",112.png,综合大学,,112,
115,110,University of the Pacific,太平洋大学,,,,Stockton,CA,,,http://www.pacific.edu/,"学院列表@
http://www.pacific.edu/Academics/Schools-and-Colleges.html$
本科专业列表@
http://www.pacific.edu/Academics/Majors-and-Programs/Undergraduate-Majors-and-Minors.html$
研究生专业@
http://www.pacific.edu/Admission/Graduate-Professional/Program-Deadlines-and-Details.html$
研究生院@
http://www.pacific.edu/Academics/Schools-and-Colleges.html$
国际学生本科申请@
http://www.pacific.edu/Admission/Undergraduate.html$
国际学生本科申请截止日期@
http://www.pacific.edu/Admission/Important-Dates.html$
英语能力要求@
http://www.pacific.edu/Admission/International.html$
本科学费@
http://www.pacific.edu/Admission/International/Estimated-Cost-of-Attendance---International.html$",113.png,综合大学,,113,
116,110,University of Utah,犹他大学,,,,Salt Lake City,UT,,,http://www.utah.edu/,"学院列表@
http://www.utah.edu/academics/colleges.php$
本科专业列表@
https://advising.utah.edu/majors/quick-look/index.php$
研究生专业@
https://advising.utah.edu/majors/quick-look/index.php$
研究生院@
http://gradschool.utah.edu/$
国际学生本科申请@
http://admissions.utah.edu/international/$
国际学生本科申请截止日期@
http://admissions.utah.edu/international/freshman/freshman_deadlines.php$
英语能力要求@
http://admissions.utah.edu/international/freshman/freshman_english_proficiency.php$
本科学费@
http://admissions.utah.edu/international/freshman/cost.php$",114.png,综合大学,,114,
117,115,"Arizona State University, Tempe",亚利桑那州立大学,,,,Tempe,AZ,,,https://www.asu.edu/,"学院列表@
https://students.asu.edu/colleges$
本科专业列表@
https://students.asu.edu/programs$
研究生专业@
https://graduate.asu.edu/$
研究生院@
https://graduate.asu.edu/$
国际学生本科申请@
https://students.asu.edu/freshman/requirements$
国际学生本科申请截止日期@
https://students.asu.edu/freshman/requirements$
英语能力要求@
https://students.asu.edu/freshman/requirements$
本科学费@
https://students.asu.edu/tuition$",115.png,综合大学,,115,
118,115,Iowa State University,爱荷华大学,,,,Ames,IA,,,https://www.iastate.edu/,"学院列表@
https://web.iastate.edu/academics/depts$
本科专业列表@
https://web.iastate.edu/academics/depts$
研究生专业@
https://web.iastate.edu/academics/depts$
研究生院@
https://web.iastate.edu/academics/depts$
国际学生本科申请@
https://www.admissions.iastate.edu/freshman/requirements.php$
国际学生本科申请截止日期@
http://financialaid.iastate.edu/cost/cost-of-attendance.php$
英语能力要求@
https://www.admissions.iastate.edu/freshman/requirements.php$
本科学费@
http://financialaid.iastate.edu/cost/cost-of-attendance.php$",116.png,综合大学,,116,
119,115,Temple University,天普大学,,,,Philadelphia,PA,,,https://www.temple.edu/,"学院列表@
https://www.temple.edu/academics/schools-and-colleges$
本科专业列表@
https://www.temple.edu/academics/degree-programs$
研究生专业@
https://www.temple.edu/academics/degree-programs$
研究生院@
https://www.temple.edu/academics/degree-programs$
国际学生本科申请@
https://www.temple.edu/admissions/undergraduate$
国际学生本科申请截止日期@
http://admissions.temple.edu/apply/international-applicant$
英语能力要求@
http://admissions.temple.edu/apply/international-applicant$
本科学费@
http://www.temple.edu/bursar/about/tuitionrates.htm$",117.png,综合大学,,117,
120,115,University of Kansas,堪萨斯大学,,,,Lawrence,KS,,,https://www.ku.edu/,"学院列表@
http://catalog.ku.edu/$
本科专业列表@
http://catalog.ku.edu/$
研究生专业@
http://catalog.ku.edu/$
研究生院@
http://catalog.ku.edu/$
国际学生本科申请@
http://irua.ku.edu/requirements$
国际学生本科申请截止日期@
http://irua.ku.edu/deadlines$
英语能力要求@
http://irua.ku.edu/requirements$
本科学费@
http://irua.ku.edu/costs$",118.png,综合大学,,118,
121,115,University of St. Thomas,圣托马斯大学,,,,St. Paul,MN,,,http://www.stthomas.edu/,"学院列表@
http://www.stthomas.edu/academics/schools/$
本科专业列表@
http://www.stthomas.edu/catalog/general/majorsandminors/$
研究生专业@
http://www.stthomas.edu/catalog/general/majorsandminors/$
研究生院@
http://www.stthomas.edu/admissions/graduate/programfinder/$
国际学生本科申请@
https://www.stthomas.edu/fr/apply/spring2018/$
国际学生本科申请截止日期@
https://www.stthomas.edu/fr/apply/spring2018/$
英语能力要求@
https://www.stthomas.edu/fr/apply/spring2018/$
本科学费@
https://www.stthomas.edu/financialaid/undergraduate/$",119.png,综合大学,,119,
122,120,The Catholic University of America,美国天主教大学,,,,"Washington, DC",DC,,,https://www.catholic.edu/index.html,"学院列表@
https://www.catholic.edu/academics/schools/index.html$
本科专业列表@
https://www.catholic.edu/academics/undergraduate/index.html$
研究生专业@
https://www.catholic.edu/academics/graduate/index.html$
研究生院@
https://www.catholic.edu/academics/graduate/index.html$
国际学生本科申请@
https://www.catholic.edu/admission/undergraduate/international-students/index.html$
国际学生本科申请截止日期@
https://www.catholic.edu/admission/undergraduate/first-year-students/application-process/first-year-application-options.html$
英语能力要求@
https://www.catholic.edu/admission/undergraduate/international-students/language-proficiency/index.html$
本科学费@
https://www.catholic.edu/admission/undergraduate/first-year-students/tuition-and-fees/index.html$",120.png,综合大学,,120,
123,120,DePaul University,德保罗大学,,,,Chicago,IL,,,https://www.depaul.edu/Pages/default.aspx,"学院列表@
https://www.depaul.edu/academics/Pages/default.aspx#colleges-and-schools$
本科专业列表@
https://www.depaul.edu/academics/undergraduate/Pages/default.aspx$
研究生专业@
https://www.depaul.edu/academics/graduate/Pages/default.aspx$
研究生院@
https://www.depaul.edu/academics/graduate/Pages/default.aspx$
国际学生本科申请@
https://offices.depaul.edu/international-admission/how-to-apply/Pages/freshman-admission.aspx$
国际学生本科申请截止日期@
https://offices.depaul.edu/international-admission/how-to-apply/Pages/freshman-admission.aspx$
英语能力要求@
https://offices.depaul.edu/international-admission/how-to-apply/Pages/freshman-admission.aspx$
本科学费@
https://www.depaul.edu/admission-and-aid/Pages/tuition.aspx$",121.png,综合大学,,121,
124,120,Duquesne University,杜肯大学,,,,Pittsburgh,PA,,,http://www.duq.edu/,"学院列表@
http://www.duq.edu/academics$
本科专业列表@
http://www.duq.edu/academics/degrees-and-programs$
研究生专业@
http://www.duq.edu/academics/degrees-and-programs$
研究生院@
http://www.duq.edu/academics$
国际学生本科申请@
http://www.duq.edu/admissions-and-aid/international/how-to-apply-x146719$
国际学生本科申请截止日期@
http://www.duq.edu/admissions-and-aid/international/how-to-apply/english-proficiency-requirements$
英语能力要求@
http://www.duq.edu/admissions-and-aid/international/how-to-apply-x146719$
本科学费@
http://www.duq.edu/admissions-and-aid/international/costs-and-scholarships$",122.png,综合大学,,122,
125,120,University of Missouri,密苏里大学,,,,Columbia,MO,,,http://missouri.edu/,"学院列表@
http://missouri.edu/colleges-schools/index.php$
本科专业列表@
http://missouri.edu/colleges-schools/$
研究生专业@
http://missouri.edu/colleges-schools/$
研究生院@
http://missouri.edu/colleges-schools/index.php$
国际学生本科申请@
https://admissions.missouri.edu/apply-international/$
国际学生本科申请截止日期@
https://admissions.missouri.edu/dates-deadlines/$
英语能力要求@
https://admissions.missouri.edu/apply-international/admission-requirements/$
本科学费@
https://international.missouri.edu/come-to-mu/students/estimated-expenses/$",123.png,综合大学,,123,
126,124,Clarkson University,克拉克森大学,,,,Potsdam,NY,,,http://www.clarkson.edu/,"学院列表@
http://www.clarkson.edu/academics/undergraduate-programs$
本科专业列表@
http://www.clarkson.edu/academics/undergraduate-programs$
研究生专业@
http://www.clarkson.edu/graduate-admissions/graduate-professional-programs$
研究生院@
http://www.clarkson.edu/academics/graduate$
国际学生本科申请@
http://www.clarkson.edu/undergraduate-admissions/1st-year-students-applying-financial-aid$
国际学生本科申请截止日期@
http://www.clarkson.edu/undergraduate-admissions/1st-year-students-applying-financial-aid$
英语能力要求@
http://www.clarkson.edu/undergraduate-admissions/1st-year-students-applying-financial-aid$
本科学费@
http://www.clarkson.edu/undergraduate-admissions/1st-year-students-applying-financial-aid$",124.png,综合大学,,124,
127,124,Colorado State University,科罗拉多州立大学,,,,Fort Collins,CO,,,https://www.colostate.edu/,"学院列表@
https://www.colostate.edu/$
本科专业列表@
http://admissions.colostate.edu/academics/$
研究生专业@
http://graduateschool.colostate.edu/$
研究生院@
http://graduateschool.colostate.edu/$
国际学生本科申请@
http://admissions.colostate.edu/apply/international-freshmen/#1438790373699-99d97355-f6d9$
国际学生本科申请截止日期@
http://admissions.colostate.edu/apply/freshmen/$
英语能力要求@
http://admissions.colostate.edu/apply/freshmen/$
本科学费@
$",125.png,综合大学,,125,
128,124,Michigan Technological University,密歇根理工大学,,,,Houghton,MI,,,http://www.mtu.edu/,"学院列表@
http://www.mtu.edu/colleges-schools/$
本科专业列表@
http://www.mtu.edu/majors/$
研究生专业@
http://www.mtu.edu/gradschool/programs/degrees/$
研究生院@
http://www.mtu.edu/colleges-schools/$
国际学生本科申请@
http://www.mtu.edu/international/$
国际学生本科申请截止日期@
http://www.mtu.edu/admissions/apply/requirements/$
英语能力要求@
http://www.mtu.edu/admissions/apply/requirements/$
本科学费@
http://www.mtu.edu/admissions/tuition/cost/$",126.png,综合大学,,126,
129,124,Seton Hall University,塞顿霍尔大学,,,,South Orange,NJ,,,http://www.shu.edu/,"学院列表@
http://www.shu.edu/#$
本科专业列表@
https://www.shu.edu/academics/undergraduate-programs.cfm$
研究生专业@
http://www.shu.edu/academics/graduate-programs.cfm$
研究生院@
http://www.shu.edu/#$
国际学生本科申请@
http://admissions.shu.edu/$
国际学生本科申请截止日期@
https://www.shu.edu/undergraduate-admissions/application-checklist.cfm$
英语能力要求@
https://www.shu.edu/undergraduate-admissions/application-checklist.cfm$
本科学费@
https://www13.shu.edu/offices/bursar/tuition-and-fees.cfm$",127.png,综合大学,,127,
130,124,University of Arizona,亚利桑那大学,,,,Tucson,AZ,,,http://www.arizona.edu/,"学院列表@
http://www.arizona.edu/topics/colleges$
本科专业列表@
http://www.arizona.edu/topics/colleges$
研究生专业@
http://www.arizona.edu/topics/colleges$
研究生院@
http://www.arizona.edu/topics/colleges$
国际学生本科申请@
http://admissions.arizona.edu/how-to-apply/freshmen$
国际学生本科申请截止日期@
http://admissions.arizona.edu/deadlines/freshmen$
英语能力要求@
http://admissions.arizona.edu/how-to-apply/freshmen$
本科学费@
http://admissions.arizona.edu/cost-aid/international$",128.png,综合大学,,128,
131,124,"University of California, Riverside",加州大学河滨分校,,,,Riverside,CA,,,http://www.ucr.edu/,"学院列表@
http://www.ucr.edu/academics/colleges.html$
本科专业列表@
http://www.ucr.edu/academics/undergradmajors.html$
研究生专业@
http://www.ucr.edu/academics/gradprograms.html$
研究生院@
http://www.ucr.edu/academics/gradprograms.html$
国际学生本科申请@
http://admissions.ucr.edu/admissions/international/index.html/$
国际学生本科申请截止日期@
http://www.iep.ucr.edu/program/70447/AdmissionPreparationProgramAPP$
英语能力要求@
http://admissions.ucr.edu/admissions/international/index.html/$
本科学费@
http://financialaid.ucr.edu/ucr-cost/index.html$",129.png,综合大学,,129,
132,124,University of Dayton,戴顿大学,,,,Dayton,OH,,,https://www.udayton.edu/,"学院列表@
https://www.udayton.edu/academics/index.php$
本科专业列表@
https://www.udayton.edu/academics/undergraduate/index.php$
研究生专业@
https://www.udayton.edu/academics/graduate/index.php$
研究生院@
https://www.udayton.edu/academics/graduate/index.php$
国际学生本科申请@
https://www.udayton.edu/apply/international/index.php$
国际学生本科申请截止日期@
https://www.udayton.edu/apply/international/undergraduate/index.php$
英语能力要求@
https://www.udayton.edu/apply/international/undergraduate/index.php$
本科学费@
https://www.udayton.edu/apply/undergraduate/cost/index.php$",130.png,综合大学,,130,
133,124,"University of Nebraska, Lincoln",内布拉斯加大学林肯分校,,,,Lincoln,NE,,,https://www.unl.edu/,"学院列表@
https://www.unl.edu/$
本科专业列表@
https://www.unl.edu/depts/$
研究生专业@
http://www.unl.edu/gradstudies/$
研究生院@
http://www.unl.edu/gradstudies/$
国际学生本科申请@
http://admissions.unl.edu/$
国际学生本科申请截止日期@
https://admissions.unl.edu/apply/#admission-requirements/first-year$
英语能力要求@
https://global.unl.edu/apply/#admission-requirements$
本科学费@
https://admissions.unl.edu/cost/#tuition-fees$",131.png,综合大学,,131,
134,132,Hofstra University,霍夫斯特拉大学,,,,Hempstead,NY,,,https://www.hofstra.edu/home/index.html,"学院列表@
https://www.hofstra.edu/academics/academics-schools.html$
本科专业列表@
https://www.hofstra.edu/academics/academics-departments.html$
研究生专业@
https://www.hofstra.edu/academics/academics-departments.html$
研究生院@
https://www.hofstra.edu/academics/academics-schools.html$
国际学生本科申请@
https://www.hofstra.edu/admission/index.html$
国际学生本科申请截止日期@
https://www.hofstra.edu/admission/adm_apply_firstyear.html$
英语能力要求@
https://www.hofstra.edu/admission/adm_apply_firstyear.html$
本科学费@
https://www.hofstra.edu/admission/adm_costofattendance.html$",132.png,综合大学,,132,
135,133,"Louisiana State University, Baton Rouge",路易斯安那州立大学,,,,Baton Rouge,LA,,,http://www.lsu.edu/,"学院列表@
https://sites01.lsu.edu/wp/admissions/academics-2/majors-colleges/$
本科专业列表@
http://www.lsu.edu/majors/a-z.php$
研究生专业@
http://www.lsu.edu/majors/a-z.php$
研究生院@
https://sites01.lsu.edu/wp/admissions/academics-2/majors-colleges/$
国际学生本科申请@
https://sites01.lsu.edu/wp/admissions/become-a-tiger-2/international-students/$
国际学生本科申请截止日期@
https://sites01.lsu.edu/wp/admissions/become-a-tiger-2/international-students/$
英语能力要求@
https://sites01.lsu.edu/wp/admissions/become-a-tiger-2/international-students/$
本科学费@
http://www.lsu.edu/financialaid/index.php$",133.png,综合大学,,133,
136,133,Mercer University,莫瑟尔大学,,,,Macon,GA,,,http://www.mercer.edu/,"学院列表@
http://academics.mercer.edu/$
本科专业列表@
http://academics.mercer.edu/www/mu-academics/undergraduate-programs/index.cfm$
研究生专业@
http://academics.mercer.edu/www/mu-academics/graduate-programs/index.cfm$
研究生院@
http://academics.mercer.edu/$
国际学生本科申请@
http://www.bethebear.com/freshman-admissions.cfm$
国际学生本科申请截止日期@
http://www.bethebear.com/freshman-admissions.cfm$
英语能力要求@
http://www.bethebear.com/freshman-admissions.cfm$
本科学费@
http://www.bethebear.com/financial-planning.cfm$",134.png,综合大学,,134,
137,133,The New School,新学院大学,,,,New York,NY,,,https://www.newschool.edu/,"学院列表@
https://www.newschool.edu/academics/$
本科专业列表@
https://www.newschool.edu/academics/undergraduate/$
研究生专业@
https://www.newschool.edu/academics/graduate/$
研究生院@
https://www.newschool.edu/academics/graduate/$
国际学生本科申请@
https://www.newschool.edu/admission/$
国际学生本科申请截止日期@
https://www.newschool.edu/admission/prospective-undergraduate-students/international-students/$
英语能力要求@
https://www.newschool.edu/admission/prospective-undergraduate-students/dates-deadlines/$
本科学费@
https://www.newschool.edu/registrar/tuition-and-fees/$",135.png,综合大学,,135,
138,133,"Rutgers University, Newark",罗格斯大学纽瓦克分校,,,,Newark,NJ,,,https://www.newark.rutgers.edu/,"学院列表@
https://www.newark.rutgers.edu/schools-and-colleges$
本科专业列表@
https://www.newark.rutgers.edu/academics/areas-of-study-departments$
研究生专业@
https://www.newark.rutgers.edu/GRADUATE-EDUCATION$
研究生院@
https://www.newark.rutgers.edu/GRADUATE-EDUCATION$
国际学生本科申请@
https://admissions.rutgers.edu/applying$
国际学生本科申请截止日期@
https://admissions.newark.rutgers.edu/applying/application-dates?_ga=2.80374096.616917353.1510104997-1825091187.1510104997$
英语能力要求@
https://admissions.rutgers.edu/applying/more-for-international-applicants$
本科学费@
https://admissions.newark.rutgers.edu/applying/application-dates?_ga=2.80374096.616917353.1510104997-1825091187.1510104997$",136.png,综合大学,,136,
139,133,University of Arkansas,阿肯色大学,,,,Fayetteville,AR,,,https://www.uark.edu/,"学院列表@
https://www.uark.edu/about/index.php#colleges-schools$
本科专业列表@
https://www.uark.edu/academics/majors.php$
研究生专业@
https://www.uark.edu/academics/majors.php$
研究生院@
https://www.uark.edu/academics/majors.php$
国际学生本科申请@
https://international-admissions.uark.edu/undergraduate-studies/index.php$
国际学生本科申请截止日期@
https://international-admissions.uark.edu/undergraduate-studies/index.php$
英语能力要求@
https://international-admissions.uark.edu/undergraduate-studies/index.php$
本科学费@
https://admissions.uark.edu/cost_and_aid/index.php$",137.png,综合大学,,137,
140,133,University of Cincinnati,辛辛那提大学,,,,Cincinnati,OH,,,http://www.uc.edu/,"学院列表@
http://www.uc.edu/academics.html$
本科专业列表@
https://webapps2.uc.edu/ecurriculum/DegreePrograms/Home/UnderGrad$
研究生专业@
https://webapps2.uc.edu/ecurriculum/DegreePrograms/Home/Graduate$
研究生院@
https://webapps2.uc.edu/ecurriculum/DegreePrograms/Home/Graduate$
国际学生本科申请@
http://admissions.uc.edu/information/international.html$
国际学生本科申请截止日期@
http://admissions.uc.edu/information/international/requirements.html$
英语能力要求@
http://admissions.uc.edu/information/international/requirements.html$
本科学费@
http://admissions.uc.edu/information/international/finance.html$",138.png,综合大学,,138,
141,133,University of Kentucky,肯塔基大学,,,,Lexington,KY,,,http://www.uky.edu/UKHome/,"学院列表@
http://www.uky.edu/UKHome/$
本科专业列表@
http://www.uky.edu/UKHome/$
研究生专业@
http://www.uky.edu/UKHome/$
研究生院@
http://www.research.uky.edu/gs/ProspectiveStudents/Admission.html$
国际学生本科申请@
http://www.uky.edu/Admission/$
国际学生本科申请截止日期@
http://www.uky.edu/Admission/$
英语能力要求@
http://www.uky.edu/Admission/$
本科学费@
http://www.uky.edu/financialaid/$",139.png,综合大学,,139,
142,140,George Mason University,乔治梅森大学,,,,Fairfax,VA,,,https://www2.gmu.edu/,"学院列表@
https://www2.gmu.edu/academics#Schools$
本科专业列表@
https://www2.gmu.edu/academics#Majors$
研究生专业@
https://www2.gmu.edu/academics#Studies$
研究生院@
https://www2.gmu.edu/academics#Studies$
国际学生本科申请@
https://www2.gmu.edu/admissions-aid$
国际学生本科申请截止日期@
https://www2.gmu.edu/admissions-aid$
英语能力要求@
https://www2.gmu.edu/admissions-aid$
本科学费@
https://www2.gmu.edu/admissions-aid$",140.png,综合大学,,140,
143,140,New Jersey Institute of Technology,新泽西理工学院,,,,Newark,NJ,,,http://www.njit.edu/,"学院列表@
https://www.njit.edu/academics/$
本科专业列表@
https://www.njit.edu/undergradstudies/welcome/$
研究生专业@
https://www.njit.edu/academics/degreeprograms/$
研究生院@
http://arweb.sdsu.edu/es/admissions/majors.html$
国际学生本科申请@
http://www6.njit.edu/admissions/undergraduate/index.php$
国际学生本科申请截止日期@
http://www6.njit.edu/admissions/undergraduate/applying/internationalstudents.php$
英语能力要求@
http://www6.njit.edu/admissions/undergraduate/index.php$
本科学费@
https://njit.studentaidcalculator.com/$",141.png,综合大学,,141,
144,140,San Diego State University,圣地亚哥州立大学,,,,San Diego,CA,,,https://www.sdsu.edu/,"学院列表@
http://arweb.sdsu.edu/es/admissions/majors.html#colleges$
本科专业列表@
http://arweb.sdsu.edu/es/admissions/majors.html$
研究生专业@
http://arweb.sdsu.edu/es/admissions/majors.html$
研究生院@
http://arweb.sdsu.edu/es/admissions/majors.html$
国际学生本科申请@
https://arweb.sdsu.edu/es/admissions/international/freshmen/international_freshman_welcome_SDSU.html$
国际学生本科申请截止日期@
https://arweb.sdsu.edu/es/admissions/international/freshmen/international_freshman_welcome_SDSU.html$
英语能力要求@
https://arweb.sdsu.edu/es/admissions/international/freshmen/international_freshman_welcome_SDSU.html$
本科学费@
https://arweb.sdsu.edu/es/admissions/international/freshmen/international_freshman_welcome_SDSU.html$",142.png,综合大学,,142,
145,140,University of South Florida,南佛罗里达大学,,,,Tampa,FL,,,http://www.usf.edu/,"学院列表@
http://usfweb.usf.edu/academics/colleges.aspx$
本科专业列表@
http://usfweb.usf.edu/academics/undergraduate-majors.aspx$
研究生专业@
http://usfweb.usf.edu/academics/graduate-programs.aspx$
研究生院@
http://usfweb.usf.edu/academics/graduate-programs.aspx$
国际学生本科申请@
http://www.usf.edu/admission/index.aspx$
国际学生本科申请截止日期@
http://www.usf.edu/admission/index.aspx$
英语能力要求@
http://www.usf.edu/admission/index.aspx$
本科学费@
http://www.usf.edu/admission/cost-to-attend.aspx$",143.png,综合大学,,143,
146,140,Washington State University,华盛顿州立大学,,,,Pullman,WA,,,https://wsu.edu/,"学院列表@
https://wsu.edu/academics/$
本科专业列表@
http://apps.admission.wsu.edu/academics/fos/Public/index.castle$
研究生专业@
https://gradschool.wsu.edu/degrees/$
研究生院@
https://gradschool.wsu.edu/degrees/$
国际学生本科申请@
http://admission.wsu.edu/$
国际学生本科申请截止日期@
https://spokane.wsu.edu/studentaffairs/admissions/$
英语能力要求@
http://admission.wsu.edu/$
本科学费@
https://financialaid.wsu.edu/aid-estimator/$",144.png,综合大学,,144,
147,145,Kansas State University,堪萨斯州立大学,,,,Manhattan,KS,,,http://www.k-state.edu/,"学院列表@
http://courses.k-state.edu/units/$
本科专业列表@
http://courses.k-state.edu/majors/$
研究生专业@
http://courses.k-state.edu/majors/$
研究生院@
http://www.k-state.edu/grad/$
国际学生本科申请@
http://www.k-state.edu/oip/intladmit/$
国际学生本科申请截止日期@
http://www.k-state.edu/admissions/apply/deadlines.html$
英语能力要求@
http://www.k-state.edu/admissions/apply/#open=newFreshmen$
本科学费@
http://www.k-state.edu/admissions/apply/#open=newFreshmen$",145.png,综合大学,,145,
148,145,Oregon State University,俄勒冈州立大学,,,,Corvallis,OR,,,http://www.k-state.edu/,"学院列表@
http://oregonstate.edu/academics$
本科专业列表@
http://oregonstate.edu/academics$
研究生专业@
http://oregonstate.edu/academics$
研究生院@
http://gradschool.oregonstate.edu/$
国际学生本科申请@
http://admissions.oregonstate.edu/apply-choose-application#undergrad$
国际学生本科申请截止日期@
http://admissions.oregonstate.edu/apply-choose-application#undergrad$
英语能力要求@
http://admissions.oregonstate.edu/apply-choose-application#undergrad$
本科学费@
http://financialaid.oregonstate.edu/net-price-calculator$",146.png,综合大学,,146,
149,145,St. John Fisher College,圣约翰费舍尔学院,,,,Rochester,NY,,,https://www.sjfc.edu/,"学院列表@
https://www.sjfc.edu/$
本科专业列表@
https://www.sjfc.edu/$
研究生专业@
https://www.sjfc.edu/$
研究生院@
https://www.sjfc.edu/$
国际学生本科申请@
http://admissions.oregonstate.edu/international/admission-requirements$
国际学生本科申请截止日期@
http://admissions.oregonstate.edu/international/admission-requirements$
英语能力要求@
http://admissions.oregonstate.edu/international/admission-requirements$
本科学费@
http://oregonstate.edu/scholars$",147.png,综合大学,,147,
150,145,"University of Illinois, Chicago",伊利诺伊大学芝加哥分校,,,,Chicago,IL,,,http://www.uic.edu/,"学院列表@
http://www.uic.edu/academics/colleges-schools$
本科专业列表@
http://catalog.uic.edu/ucat/degree-programs/degree-minors/$
研究生专业@
http://gppa.uic.edu/$
研究生院@
http://gppa.uic.edu/$
国际学生本科申请@
http://admissions.uic.edu/undergraduate$
国际学生本科申请截止日期@
http://admissions.uic.edu/undergraduate$
英语能力要求@
http://admissions.uic.edu/undergraduate$
本科学费@
http://admissions.uic.edu/undergraduate$",148.png,综合大学,,148,
151,145,University of Mississippi,密西西比大学,,,,University,MS,,,http://www.olemiss.edu/,"学院列表@
http://olemiss.edu/academics/$
本科专业列表@
http://olemiss.edu/academics/$
研究生专业@
http://olemiss.edu/academics/$
研究生院@
http://olemiss.edu/academics/$
国际学生本科申请@
https://admissions.olemiss.edu/applying-to-ole-miss/freshmen/$
国际学生本科申请截止日期@
https://umap.olemiss.edu/sap/bc/webdynpro/sap/zcm_adm_app_undergraduate$
英语能力要求@
https://umap.olemiss.edu/sap/bc/webdynpro/sap/zcm_adm_app_undergraduate$
本科学费@
https://umap.olemiss.edu/sap/bc/webdynpro/sap/zcm_adm_app_undergraduate$",149.png,综合大学,,149,
152,145,"University of Texas, Dallas",德克萨斯大学达拉斯分校,,,,Richardson,TX,,,http://www.utdallas.edu/,"学院列表@
http://www.utdallas.edu/academics/$
本科专业列表@
http://www.utdallas.edu/academics/$
研究生专业@
http://www.utdallas.edu/academics/$
研究生院@
http://www.utdallas.edu/academics/$
国际学生本科申请@
http://www.utdallas.edu/enroll/$
国际学生本科申请截止日期@
http://www.utdallas.edu/enroll/freshman/admission-timeline/$
英语能力要求@
http://www.utdallas.edu/enroll/freshman/international-freshman/$
本科学费@
http://www.utdallas.edu/enroll/affordability/$",150.png,综合大学,,150,
153,151,Adelphi University,艾德菲大学,,,,Garden City,NY,,,http://www.adelphi.edu/,"学院列表@
http://academics.adelphi.edu/$
本科专业列表@
http://admissions.adelphi.edu/international/#$
研究生专业@
http://admissions.adelphi.edu/international/#$
研究生院@
http://admissions.adelphi.edu/international/#$
国际学生本科申请@
http://admissions.adelphi.edu/freshman/$
国际学生本科申请截止日期@
http://admissions.adelphi.edu/international/$
英语能力要求@
http://admissions.adelphi.edu/international/$
本科学费@
http://financial-aid.adelphi.edu/$",151.png,综合大学,,151,
154,151,Florida Institute of Technology,佛罗里达理工学院,,,,Melbourne,FL,,,https://www.fit.edu/,"学院列表@
https://www.fit.edu/academics-overview/#colleges$
本科专业列表@
https://www.fit.edu/academics-overview/$
研究生专业@
https://www.fit.edu/academics-overview/$
研究生院@
https://www.fit.edu/academics-overview/$
国际学生本科申请@
https://www.fit.edu/admissions-overview/$
国际学生本科申请截止日期@
http://admission.fit.edu/freshman/requirements.php$
英语能力要求@
http://admission.fit.edu/freshman/requirements.php$
本科学费@
http://admission.fit.edu/freshman/cost.php$",152.png,综合大学,,152,
155,151,Ohio University,俄亥俄大学,,,,Athens,OH,,,https://www.ohio.edu/,"学院列表@
https://www.ohio.edu/departments/colleges.cfm$
本科专业列表@
http://www.ohio.edu/majors/undergrad/index.cfm$
研究生专业@
http://www.ohio.edu/graduate/programs/$
研究生院@
https://www.ohio.edu/departments/colleges.cfm$
国际学生本科申请@
https://www.ohio.edu/admissions/index.cfm$
国际学生本科申请截止日期@
https://www.ohio.edu/admissions/requirements/dates.cfm$
英语能力要求@
https://www.ohio.edu/admissions/index.cfm#_$
本科学费@
https://www.ohio.edu/admissions/tuition/index.cfm$",153.png,综合大学,,153,
156,151,Seattle Pacific University,西雅图太平洋大学,,,,Seattle,WA,,,http://spu.edu/,"学院列表@
http://spu.edu/academics$
本科专业列表@
http://spu.edu/UGCatalog$
研究生专业@
http://spu.edu/academics/programs/graduate-programs$
研究生院@
http://spu.edu/academics/programs/graduate-programs$
国际学生本科申请@
http://spu.edu/undergraduate-admissions/apply/international-students/international-students-application-process$
国际学生本科申请截止日期@
http://spu.edu/undergraduate-admissions/apply/international-students/international-students-application-process$
英语能力要求@
http://spu.edu/undergraduate-admissions/apply/international-students/international-students-application-process$
本科学费@
http://spu.edu/depts/sfs/StudentAccounts/Costs/index.asp$",154.png,综合大学,,154,
157,151,"University at Albany, SUNY",纽约州立大学阿尔巴尼分校,,,,Albany,NY,,,http://www.albany.edu/,"学院列表@
http://www.albany.edu/academics/colleges.shtml$
本科专业列表@
http://www.albany.edu/academics/colleges.shtml$
研究生专业@
http://www.albany.edu/graduate/application_deadlines_requirements.php$
研究生院@
http://www.albany.edu/graduate/application_deadlines_requirements.php$
国际学生本科申请@
http://www.albany.edu/admissions/international.php$
国际学生本科申请截止日期@
http://www.albany.edu/admissions/dates.php$
英语能力要求@
http://www.albany.edu/admissions/international.php$
本科学费@
http://www.albany.edu/financialaid/index2.shtml$",155.png,综合大学,,155,
158,156,Oklahoma State University,俄克拉荷马州立大学,,,,Stillwater,OK,,,http://www.ou.edu/,"学院列表@
http://www.ou.edu/content/web/academics/colleges---departments.html$
本科专业列表@
http://www.ou.edu/content/web/academics/majors.html$
研究生专业@
http://www.ou.edu/content/web/academics/graduate.html$
研究生院@
http://www.ou.edu/content/web/academics/colleges---departments.html$
国际学生本科申请@
http://www.ou.edu/content/admissions/apply/freshman.html$
国际学生本科申请截止日期@
http://www.ou.edu/content/admissions/apply/international/undergraduate-admission.html$
英语能力要求@
http://www.ou.edu/content/admissions/apply/international/english-proficiency-requirements.html$
本科学费@
http://www.ou.edu/content/admissions/affordability.html$",156.png,综合大学,,156,
159,156,"University of Massachusetts, Lowell",马萨诸塞大学洛威尔分校,,,,Lowell,MA,,,https://www.uml.edu/,"学院列表@
https://www.uml.edu/Academics/colleges.aspx$
本科专业列表@
https://www.uml.edu/Academics/undergraduate-programs/$
研究生专业@
https://www.uml.edu/Academics/Graduate-programs/$
研究生院@
https://www.uml.edu/Academics/colleges.aspx$
国际学生本科申请@
https://www.uml.edu/International-applicants/Application-Requirements/international-undergrad-admissions.aspx$
国际学生本科申请截止日期@
https://www.uml.edu/International-applicants/Application-Requirements/international-undergrad-admissions.aspx$
英语能力要求@
https://www.uml.edu/International-applicants/Application-Requirements/international-undergrad-admissions.aspx$
本科学费@
https://www.uml.edu/thesolutioncenter/bill/tuition-fees/$",157.png,综合大学,,157,
160,156,University of Rhode Island,罗德岛大学,,,,Kingston,RI,,,http://www.uri.edu/,"学院列表@
http://web.uri.edu/about/departments/$
本科专业列表@
http://web.uri.edu/advising/majors/$
研究生专业@
http://web.uri.edu/advising/majors/$
研究生院@
http://web.uri.edu/graduate-school/$
国际学生本科申请@
http://web.uri.edu/globaluri/admission/$
国际学生本科申请截止日期@
http://web.uri.edu/globaluri/admission/$
英语能力要求@
http://web.uri.edu/globaluri/admission/$
本科学费@
http://web.uri.edu/admission/paying-for-uri/$",158.png,综合大学,,158,
161,159,Biola University,拜欧拉大学,,,,La Mirada,CA,,,https://www.biola.edu/,"学院列表@
https://www.biola.edu/academics$
本科专业列表@
https://www.biola.edu/academics/majors-programs$
研究生专业@
https://www.biola.edu/academics/grad-education$
研究生院@
https://www.biola.edu/academics/grad-education$
国际学生本科申请@
https://www.biola.edu/admissions/undergrad$
国际学生本科申请截止日期@
https://www.biola.edu/admissions/undergrad$
英语能力要求@
https://www.biola.edu/admissions/undergrad$
本科学费@
https://www.biola.edu/tuition-and-aid/undergrad$",159.png,综合大学,,159,
162,159,Illinois State University,伊利诺伊州立大学,,,,Normal,IL,,,http://illinois.edu/,"学院列表@
http://illinois.edu/academics/academics.html$
本科专业列表@
http://admissions.illinois.edu/Discover/Academics/majors$
研究生专业@
http://grad.illinois.edu/program-contacts$
研究生院@
http://catalog.illinois.edu/general-information/$
国际学生本科申请@
http://international.illinois.edu/students/admissions.html$
国际学生本科申请截止日期@
http://admissions.illinois.edu/apply/international$
英语能力要求@
http://admissions.illinois.edu/apply/international$
本科学费@
http://admissions.illinois.edu/Invest/tuition$",160.png,综合大学,,160,
163,159,"University of Alabama, Birmingham",阿拉巴马大学伯明翰分校,,,,Birmingham,AL,,,http://www.uab.edu/home/,"学院列表@
http://www.uab.edu/home/academics/schools$
本科专业列表@
http://www.uab.edu/students/academics/majors-minors$
研究生专业@
http://www.uab.edu/students/academics/majors-minors$
研究生院@
https://www.uab.edu/graduate/$
国际学生本科申请@
http://www.uab.edu/students/admissions/apply#international$
国际学生本科申请截止日期@
http://www.uab.edu/students/admissions/apply#international$
英语能力要求@
http://www.uab.edu/students/admissions/apply#international$
本科学费@
http://www.uab.edu/students/paying-for-college/detailed-tuition-and-fees$",161.png,综合大学,,161,
164,159,"University of Hawaii, Manoa",夏威夷大学马努分校,,,,Honolulu,HI,,,http://manoa.hawaii.edu/,"学院列表@
http://manoa.hawaii.edu/academics/colleges/$
本科专业列表@
http://www.catalog.hawaii.edu/degrees/degrees-cert.htm$
研究生专业@
http://www.manoa.hawaii.edu/graduate/$
研究生院@
http://www.manoa.hawaii.edu/graduate/$
国际学生本科申请@
https://manoa.hawaii.edu/admissions/international.html$
国际学生本科申请截止日期@
https://manoa.hawaii.edu/admissions/international.html$
英语能力要求@
https://manoa.hawaii.edu/admissions/international.html$
本科学费@
http://www.hawaii.edu/fas/$",162.png,综合大学,,162,
165,159,University of La Verne,拉文大学,,,,La Verne,CA,,,laverne.edu,"学院列表@
http://sites.laverne.edu/capa/$
本科专业列表@
http://laverne.edu/catalog/$
研究生专业@
https://laverne.edu/admission/graduate/$
研究生院@
https://laverne.edu/admission/graduate/$
国际学生本科申请@
http://laverne.edu/admission/undergraduate/international-requirements/$
国际学生本科申请截止日期@
http://laverne.edu/admission/undergraduate/international-requirements/$
英语能力要求@
http://laverne.edu/admission/undergraduate/international-requirements/$
本科学费@
http://laverne.edu/admission/undergraduate/international-requirements/$",163.png,综合大学,,163,
166,159,"University of Maryland, Baltimore County",马里兰大学巴尔的摩分校,,,,Baltimore,MD,,,http://www.umbc.edu/,"学院列表@
http://www.umbc.edu/gradschool/programs/all_programs.html$
本科专业列表@
http://undergraduate.umbc.edu/majors.php$
研究生专业@
http://www.umbc.edu/gradschool/programs/all_programs.html$
研究生院@
http://www.umbc.edu/gradschool/programs/all_programs.html$
国际学生本科申请@
http://undergraduate.umbc.edu/apply/index.php$
国际学生本科申请截止日期@
http://undergraduate.umbc.edu/apply/index.php$
英语能力要求@
http://undergraduate.umbc.edu/apply/index.php$
本科学费@
http://undergraduate.umbc.edu/apply/index.php$",164.png,综合大学,,164,
167,165,Immaculata University,伊曼库雷塔大学,,,,Immaculata,PA,,,http://www.immaculata.edu,"学院列表@
http://www.immaculata.edu$
本科专业列表@
http://www.immaculata.edu/cus$
研究生专业@
http://www.immaculata.edu/graduate$
研究生院@
http://www.immaculata.edu/graduate$
国际学生本科申请@
http://www.immaculata.edu/international/freshman$
国际学生本科申请截止日期@
http://www.immaculata.edu/international/prospective$
英语能力要求@
http://www.immaculata.edu/international/additional_information$
本科学费@
http://www.immaculata.edu/international/enroll$",165.png,综合大学,,165,
168,165,Maryville University of St. Louis,圣路易斯玛丽维尔大学,,,,St Louis,MO,,,http://www.maryville.edu/,"学院列表@
http://www.maryville.edu/academics$
本科专业列表@
http://www.maryville.edu/academics$
研究生专业@
http://www.maryville.edu/academics$
研究生院@
http://online.maryville.edu/$
国际学生本科申请@
http://www.maryville.edu/admissions/saints-nation/$
国际学生本科申请截止日期@
http://www.maryville.edu/admissions/saints-nation/$
英语能力要求@
http://www.maryville.edu/admissions/saints-nation/$
本科学费@
https://www.maryville.edu/admissions/undergraduate-tuition-and-fees/$",166.png,综合大学,,166,
169,165,Missouri University of Science & Technology,密苏里科技大学,,,,Rolla,MO,,,http://www.mst.edu/,"学院列表@
http://www.mst.edu/about/academics/$
本科专业列表@
http://ugs.mst.edu/experientiallearning/oure/$
研究生专业@
http://futurestudents.mst.edu/academic-programs/$
研究生院@
http://futurestudents.mst.edu/academic-programs/$
国际学生本科申请@
http://futurestudents.mst.edu/admissions/$
国际学生本科申请截止日期@
https://reslife.mst.edu/calendar/$
英语能力要求@
http://futurestudents.mst.edu/admissions/international/freshmen/$
本科学费@
http://futurestudents.mst.edu/admissions/international/freshmen/$",167.png,综合大学,,167,
170,165,St. John's University,圣约翰大学,,,,Queens,NY,,,http://www.stjohns.edu/home,"学院列表@
http://www.stjohns.edu/academics/schools-and-colleges$
本科专业列表@
http://www.stjohns.edu/academics/programs-and-majors$
研究生专业@
http://www.stjohns.edu/academics/programs-and-majors$
研究生院@
http://www.stjohns.edu/academics/schools-and-colleges$
国际学生本科申请@
http://www.stjohns.edu/admission-aid/international-admission$
国际学生本科申请截止日期@
http://www.stjohns.edu/admission-aid/international-admission$
英语能力要求@
http://www.stjohns.edu/admission-aid/international-admission$
本科学费@
http://www.stjohns.edu/admission-aid/tuition-and-financial-aid$",168.png,综合大学,,168,
171,165,"University of California, Merced",加州大学默塞德分校,,,,Merced,CA,,,http://www.ucmerced.edu/,"学院列表@
http://www.ucmerced.edu/academics$
本科专业列表@
http://www.ucmerced.edu/admissions-majors-and-minors$
研究生专业@
http://www.ucmerced.edu/graduate-academic-studies$
研究生院@
http://graduatedivision.ucmerced.edu/$
国际学生本科申请@
http://admissions.ucmerced.edu/how-apply/first-year-students-freshmen$
国际学生本科申请截止日期@
http://www.ucmerced.edu/dates-and-deadlines$
英语能力要求@
http://admissions.ucmerced.edu/how-apply/first-year-students-freshmen$
本科学费@
http://www.ucmerced.edu/dates-and-deadlines$",169.png,综合大学,,169,
172,165,University of Louisville,路易斯维尔大学,,,,Louisville,KY,,,http://louisville.edu/,"学院列表@
http://louisville.edu/academics/home/schools-departments$
本科专业列表@
https://louisville.edu/academics/majors-and-programs$
研究生专业@
https://louisville.edu/academics/majors-and-programs$
研究生院@
http://louisville.edu/academics/home/schools-departments$
国际学生本科申请@
http://louisville.edu/admissions/apply/international/app-requirements-internation-students$
国际学生本科申请截止日期@
http://louisville.edu/admissions/apply/international/app-requirements-internation-students$
英语能力要求@
http://louisville.edu/admissions/apply/international/app-requirements-internation-students$
本科学费@
http://louisville.edu/admissions/apply/international/app-requirements-internation-students$",170.png,综合大学,,170,
173,171,Mississippi State University,密西西比州立大学,,,,Mississippi State,MS,,,https://www.msstate.edu/,"学院列表@
http://www.provost.msstate.edu/academicunits/$
本科专业列表@
http://www.provost.msstate.edu/academicunits/$
研究生专业@
http://www.grad.msstate.edu/prospective/programs/$
研究生院@
http://www.grad.msstate.edu/$
国际学生本科申请@
http://admissions.msstate.edu/$
国际学生本科申请截止日期@
https://www.admissions.msstate.edu/faq/$
英语能力要求@
https://www.admissions.msstate.edu/faq/$
本科学费@
http://www.sfa.msstate.edu/cost/$",171.png,综合大学,,171,
174,171,Rowan University,罗文大学,,,,Glassboro,NJ,,,http://www.rowan.edu/home/,"学院列表@
http://www.rowan.edu/home/academics/colleges-schools$
本科专业列表@
http://www.rowan.edu/home/academics/courses-schedules-registration$
研究生专业@
http://www.rowan.edu/home/academics/degrees-programs$
研究生院@
http://www.rowan.edu/som/gsbs/$
国际学生本科申请@
http://www.rowan.edu/home/undergraduate-admissions/international/international-freshman-admissions-instructions$
国际学生本科申请截止日期@
http://www.rowan.edu/home/undergraduate-admissions/international/international-freshman-admissions-instructions$
英语能力要求@
http://www.rowan.edu/home/undergraduate-admissions/international/international-freshman-admissions-instructions$
本科学费@
http://www.rowan.edu/home/admissions-aid/cost-value$",172.png,综合大学,,172,
175,171,University of Central Florida,中佛罗里达大学,,,,Orlando,FL,,,https://www.ucf.edu/,"学院列表@
https://www.ucf.edu/academics/$
本科专业列表@
https://www.ucf.edu/academics/$
研究生专业@
https://www.ucf.edu/academics/$
研究生院@
https://www.ucf.edu/academics/$
国际学生本科申请@
http://global.ucf.edu/international-students-scholars-and-professionals/international-admissions/undergraduate/$
国际学生本科申请截止日期@
http://global.ucf.edu/international-students-scholars-and-professionals/international-admissions/undergraduate/$
英语能力要求@
http://global.ucf.edu/international-students-scholars-and-professionals/international-admissions/undergraduate/$
本科学费@
http://global.ucf.edu/international-students-scholars-and-professionals/international-admissions/undergraduate/#1499950015564-7dfa9007-45a4$",173.png,综合大学,,173,
176,171,University of Idaho,爱达荷大学,,,,Moscow,ID,,,http://www.uidaho.edu/,"学院列表@
http://www.uidaho.edu/academics$
本科专业列表@
http://www.uidaho.edu/academics$
研究生专业@
http://www.uidaho.edu/admissions/why-ui/academics.aspx$
研究生院@
http://www.uidaho.edu/admissions/why-ui/academics.aspx$
国际学生本科申请@
http://www.uidaho.edu/admissions/international/admissions-requirements/undergraduate-admission.aspx$
国际学生本科申请截止日期@
http://www.uidaho.edu/admissions/international/admissions-requirements/undergraduate-admission.aspx$
英语能力要求@
http://www.uidaho.edu/admissions/international/admissions-requirements/undergraduate-admission.aspx$
本科学费@
http://www.uidaho.edu/admissions/why-ui/scholarships-and-costs.aspx$",174.png,综合大学,,174,
177,171,Virginia Commonwealth University,弗吉尼亚联邦大学,,,,Richmond,VA,,,https://www.vcu.edu/,"学院列表@
http://bulletin.vcu.edu/graduate/$
本科专业列表@
https://atoz.vcu.edu/programs$
研究生专业@
https://atoz.vcu.edu/programs$
研究生院@
https://atoz.vcu.edu/programs$
国际学生本科申请@
https://international.admissions.vcu.edu/$
国际学生本科申请截止日期@
https://international.admissions.vcu.edu/$
英语能力要求@
https://international.admissions.vcu.edu/$
本科学费@
https://accounting.vcu.edu/tuition/$",175.png,综合大学,,175,
178,176,Kent State University,肯特州立大学,,,,Kent,OH,,,https://www.kent.edu/,"学院列表@
https://www.kent.edu/node/7681$
本科专业列表@
https://www.kent.edu/academics_internal/explore-programs-degrees$
研究生专业@
https://www.kent.edu/academics_internal/graduate-studies$
研究生院@
https://www.kent.edu/node/58821$
国际学生本科申请@
https://www.kent.edu/globaleducation/international-freshman-application-guide$
国际学生本科申请截止日期@
https://www.kent.edu/globaleducation/international-freshman-application-guide$
英语能力要求@
https://www.kent.edu/node/60886$
本科学费@
https://www.kent.edu/tuition$",176.png,综合大学,,176,
179,176,Robert Morris University,罗伯特莫里斯大学,,,,Moon Township,PA,,,http://www.rmu.edu/,"学院列表@
http://www.rmu.edu/Academics/Schools$
本科专业列表@
http://www.rmu.edu/Academics/DegreesandMajors/Undergraduate$
研究生专业@
http://www.rmu.edu/Academics/DegreesandMajors/Graduate$
研究生院@
http://www.rmu.edu/Academics/Schools$
国际学生本科申请@
http://www.rmu.edu/Undergraduate/Admissions/International/admissionsrequirements$
国际学生本科申请截止日期@
http://www.rmu.edu/Undergraduate/Admissions/International/admissionsrequirements$
英语能力要求@
http://www.rmu.edu/Undergraduate/Admissions/International/admissionsrequirements$
本科学费@
http://www.rmu.edu/Undergraduate/Admissions/TuitionFees$",177.png,综合大学,,177,
180,176,Texas Tech University,德州理工大学,,,,Lubbock,TX,,,http://www.ttu.edu/,"学院列表@
http://www.ttu.edu/majors-and-colleges/#colleges$
本科专业列表@
http://www.ttu.edu/majors-and-colleges/undergraduate-majors/$
研究生专业@
http://www.gradschool.ttu.edu/$
研究生院@
http://www.gradschool.ttu.edu/$
国际学生本科申请@
http://www.depts.ttu.edu/international/attachments/ieem/freshman-flyers/Freshman_Flyer_Chinese.pdf$
国际学生本科申请截止日期@
http://www.depts.ttu.edu/international/attachments/ieem/freshman-flyers/Freshman_Flyer_Chinese.pdf$
英语能力要求@
http://www.international.ttu.edu/freshman-checklist/$
本科学费@
http://www.depts.ttu.edu/international/ieem/prosfirst.php$",178.png,综合大学,,178,
181,176,Union University,联合大学,,,,Jackson,TN,,,http://www.uu.edu/,"学院列表@
http://www.uu.edu/academics/$
本科专业列表@
http://www.uu.edu/academics/undergraduate/$
研究生专业@
http://www.uu.edu/academics/graduate/$
研究生院@
http://www.uu.edu/academics/$
国际学生本科申请@
http://www.uu.edu/admissions/undergraduate/requirements.cfm$
国际学生本科申请截止日期@
http://www.uu.edu/admissions/undergraduate/requirements.cfm$
英语能力要求@
http://www.uu.edu/admissions/undergraduate/requirements.cfm$
本科学费@
http://www.uu.edu/admissions/undergraduate/financial.cfm$",179.png,综合大学,,179,
182,176,University of Hartford,哈特福德大学,,,,West Hartford,CT,,,http://www.hartford.edu/,"学院列表@
http://www.hartford.edu/academics/schools_colleges.aspx$
本科专业列表@
http://www.hartford.edu/academics/schools_colleges.aspx$
研究生专业@
http://www.hartford.edu/academics/schools_colleges.aspx$
研究生院@
http://www.hartford.edu/academics/schools_colleges.aspx$
国际学生本科申请@
http://www.hartford.edu/admission/international-admission/request-information-form.aspx$
国际学生本科申请截止日期@
http://www.hartford.edu/admission/international-admission/international_center/default.aspx$
英语能力要求@
http://www.hartford.edu/admission/international-admission/request-information-form.aspx$
本科学费@
http://www.hartford.edu/admission/international-admission/tuition_fees_and_scholarship/default.aspx$",180.png,综合大学,,180,
183,181,Edgewood College,埃奇伍德学院,,,,Madison,WI,,,https://www.edgewood.edu/,"学院列表@
https://www.edgewood.edu/$
本科专业列表@
https://www.edgewood.edu/academics/programs$
研究生专业@
https://www.edgewood.edu/academics/programs/degree-level/-in-category/categories/programs/degree-levels/graduate$
研究生院@
https://www.edgewood.edu/admissions/graduate-students$
国际学生本科申请@
https://www.edgewood.edu/admissions/freshman$
国际学生本科申请截止日期@
https://www.edgewood.edu/admissions/admission-requirements$
英语能力要求@
https://www.edgewood.edu/admissions/admission-requirements$
本科学费@
https://www.edgewood.edu/admissions/tuition-and-financial-aid$",181.png,综合大学,,181,
184,181,Lesley University,莱斯利大学,,,,Cambridge,MA,,,http://www.lesley.edu/,"学院列表@
http://www.lesley.edu/$
本科专业列表@
http://www.lesley.edu/academics?field_degree_level_target_id=36$
研究生专业@
http://www.lesley.edu/academics?field_degree_level_target_id=41$
研究生院@
http://www.lesley.edu/$
国际学生本科申请@
http://www.lesley.edu/admissions-aid/how-to-apply/international-students$
国际学生本科申请截止日期@
http://www.lesley.edu/admissions-aid/how-to-apply/undergraduate-programs$
英语能力要求@
http://www.lesley.edu/admissions-aid/how-to-apply/undergraduate-programs$
本科学费@
http://www.lesley.edu/admissions-aid/costs-financial-aid$",182.png,综合大学,,182,
185,181,Lipscomb University,利普斯科姆大学,,,,Nashville,TN,,,https://www.lipscomb.edu/,"学院列表@
https://www.lipscomb.edu/academics/colleges-institutes$
本科专业列表@
https://www.lipscomb.edu/academics/programs$
研究生专业@
https://www.lipscomb.edu/academics/programs$
研究生院@
https://www.lipscomb.edu/academics/colleges-institutes$
国际学生本科申请@
https://www.lipscomb.edu/admissions/undergraduate$
国际学生本科申请截止日期@
https://www.lipscomb.edu/admissions/undergraduate/apply-now$
英语能力要求@
https://www.lipscomb.edu/admissions/undergraduate/apply-now$
本科学费@
https://www.lipscomb.edu/financialaid$",183.png,综合大学,,183,
186,181,Suffolk University,萨福克大学,,,,Boston,MA,,,http://www.suffolk.edu/,"学院列表@
http://www.suffolk.edu/admission/grad/17574.php$
本科专业列表@
http://www.suffolk.edu/admission/undergraduate/29428.php$
研究生专业@
http://www.suffolk.edu/admission/grad/17574.php$
研究生院@
http://www.suffolk.edu/academics.php$
国际学生本科申请@
http://www.suffolk.edu/admission/undergraduate/67412.php$
国际学生本科申请截止日期@
http://www.suffolk.edu/admission/undergraduate/29447.php$
英语能力要求@
http://www.suffolk.edu/admission/undergraduate/29448.php$
本科学费@
http://www.suffolk.edu/explore/27378.php$",184.png,综合大学,,184,
187,181,University of Maine,缅因大学,,,,Orono,ME,,,https://umaine.edu/,"学院列表@
https://umaine.edu/colleges/$
本科专业列表@
http://catalog.umaine.edu/$
研究生专业@
http://gradcatalog.umaine.edu/$
研究生院@
https://umaine.edu/graduate/$
国际学生本科申请@
https://umaine.edu/international/international-admissions/undergraduate-admissions/$
国际学生本科申请截止日期@
https://umaine.edu/international/international-admissions/undergraduate-admissions/#2$
英语能力要求@
https://umaine.edu/international/international-admissions/undergraduate-admissions/$
本科学费@
https://umaine.edu/international/international-admissions/expenses/$",185.png,综合大学,,185,
188,181,University of Wyoming,怀俄明大学,,,,Laramie,WY,,,http://www.uwyo.edu/,"学院列表@
http://www.uwyo.edu/uw/academics/colleges-departments.html$
本科专业列表@
http://www.uwyo.edu/uw/webdirectory/c.html$
研究生专业@
http://www.uwyo.edu/uw/webdirectory/c.html$
研究生院@
http://www.uwyo.edu/uw/webdirectory/c.html$
国际学生本科申请@
http://www.uwyo.edu/admissions/international/requirements-first-year.html$
国际学生本科申请截止日期@
http://www.uwyo.edu/admissions/international/requirements-first-year.html$
英语能力要求@
http://www.uwyo.edu/admissions/international/requirements-first-year.html$
本科学费@
http://www.uwyo.edu/admissions/scholarships/cost-of-attendance.html$",186.png,综合大学,,186,
189,187,Azusa Pacific University,阿兹塞太平洋大学,,,,Azusa,CA,,,https://www.apu.edu/,"学院列表@
https://www.apu.edu/academics/$
本科专业列表@
https://www.apu.edu/programs/bachelors/$
研究生专业@
https://www.apu.edu/programs/masters/$
研究生院@
https://www.apu.edu/academics/$
国际学生本科申请@
https://www.apu.edu/international/enrollment/apply/$
国际学生本科申请截止日期@
https://www.apu.edu/international/enrollment/requirements/deadlines/$
英语能力要求@
https://www.apu.edu/international/enrollment/requirements/proficiency/$
本科学费@
https://www.apu.edu/international/enrollment/tuition/$",187.png,综合大学,,187,
190,187,Ball State University,波尔州立大学,,,,Muncie,IN,,,http://cms.bsu.edu/,"学院列表@
http://cms.bsu.edu/academics/collegesanddepartments$
本科专业列表@
http://cms.bsu.edu/academics/undergraduatestudy/catalog$
研究生专业@
http://cms.bsu.edu/academics/collegesanddepartments/gradschool/graduate-catalog$
研究生院@
http://cms.bsu.edu/academics/collegesanddepartments/gradschool$
国际学生本科申请@
http://cms.bsu.edu/admissions/international/undergraduate/application-requirements-and-procedures$
国际学生本科申请截止日期@
http://cms.bsu.edu/admissions/international/undergraduate/application-requirements-and-procedures$
英语能力要求@
http://cms.bsu.edu/admissions/international/undergraduate/application-requirements-and-procedures$
本科学费@
http://cms.bsu.edu/admissions/tuition-and-fees$",188.png,综合大学,,188,
191,187,Montclair State University,蒙特克莱尔州立大学,,,,Montclair,NJ,,,http://www.montclair.edu/,"学院列表@
http://www.montclair.edu/academics/colleges-and-schools/$
本科专业列表@
http://www.montclair.edu/academics/$
研究生专业@
http://www.montclair.edu/academics/$
研究生院@
https://www.montclair.edu/graduate/$
国际学生本科申请@
http://www.montclair.edu/admissions/apply-and-check-status/admissions-requirements/$
国际学生本科申请截止日期@
http://www.montclair.edu/admissions/apply-and-check-status/admissions-deadlines/$
英语能力要求@
http://www.montclair.edu/admissions/apply-and-check-status/admissions-requirements/$
本科学费@
http://www.montclair.edu/about-montclair/tuition-and-fees/$",189.png,综合大学,,189,
192,187,Pace University,佩斯大学,,,,New York,NY,,,http://www.pace.edu/,"学院列表@
http://www.pace.edu/academics$
本科专业列表@
http://www.pace.edu/academics/undergraduate-students/majors$
研究生专业@
http://www.pace.edu/academics/graduate-students/programs-opportunities$
研究生院@
http://www.pace.edu/academics/graduate-students/programs-opportunities$
国际学生本科申请@
http://www.pace.edu/admissions-aid/undergraduate-admissions/international/application-toefl-requirements$
国际学生本科申请截止日期@
http://www.pace.edu/admissions-aid/undergraduate-admissions/international/application-toefl-requirements$
英语能力要求@
http://www.pace.edu/admissions-aid/undergraduate-admissions/international/application-toefl-requirements$
本科学费@
http://www.pace.edu/admissions-aid/undergraduate-admissions/international/tuition-and-costs$",190.png,综合大学,,190,
193,187,West Virginia University,西弗吉尼亚大学,,,,Morgantown,WV,,,https://www.wvu.edu/,"学院列表@
https://admissions.wvu.edu/academics/majors$
本科专业列表@
https://admissions.wvu.edu/academics/majors$
研究生专业@
https://admissions.wvu.edu/academics/majors$
研究生院@
https://admissions.wvu.edu/academics/majors$
国际学生本科申请@
https://admissions.wvu.edu/how-to-apply/international-students#anchor-intlreqs$
国际学生本科申请截止日期@
https://admissions.wvu.edu/how-to-apply/international-students#anchor-intlreqs$
英语能力要求@
https://admissions.wvu.edu/how-to-apply/international-students#anchor-intlreqs$
本科学费@
https://admissions.wvu.edu/cost-and-aid#tuition-fees$",191.png,综合大学,,191,
194,192,Andrews University,安德鲁大学,,,,Berrien Springs,MI,,,https://www.andrews.edu/,"学院列表@
https://www.andrews.edu/academics/$
本科专业列表@
https://www.andrews.edu/academics/$
研究生专业@
https://www.andrews.edu/academics/$
研究生院@
https://www.andrews.edu/academics/$
国际学生本科申请@
https://www.andrews.edu/undergrad/apply/$
国际学生本科申请截止日期@
https://www.andrews.edu/undergrad/apply/$
英语能力要求@
https://www.andrews.edu/undergrad/apply/$
本科学费@
https://www.andrews.edu/undergrad/finances/costs/tuition.html$",192.png,综合大学,,192,
195,192,"Indiana University-Purdue University, Indianapolis",印第安纳普渡大学,,,,Indianapolis,IN,,,https://www.iupui.edu/,"学院列表@
https://www.iupui.edu/academics/schools.html$
本科专业列表@
https://www.iupui.edu/academics/degrees-majors/index.html$
研究生专业@
https://www.iupui.edu/academics/degrees-majors/index.html$
研究生院@
https://www.iupui.edu/academics/schools.html$
国际学生本科申请@
http://international.iupui.edu/admissions/index.html$
国际学生本科申请截止日期@
http://international.iupui.edu/admissions/how-apply/freshman/FAQs.html$
英语能力要求@
http://international.iupui.edu/admissions/how-apply/freshman/english.html$
本科学费@
http://international.iupui.edu/admissions/tuition-fees.html$",193.png,综合大学,,193,
196,192,University of Houston,休斯顿大学,,,,Houston,TX,,,http://www.uh.edu/,"学院列表@
http://www.uh.edu/academics/colleges-departments/$
本科专业列表@
http://publications.uh.edu/content.php?catoid=21&navoid=5494$
研究生专业@
http://uh.edu/graduate-school/admissions/contacts-and-deadlines/index.php$
研究生院@
http://uh.edu/graduate-school/$
国际学生本科申请@
http://www.uh.edu/admissions/apply/international/admissions-criteria/$
国际学生本科申请截止日期@
http://www.uh.edu/admissions/apply/international/deadlines/$
英语能力要求@
http://www.uh.edu/admissions/apply/international/admissions-criteria/$
本科学费@
http://www.uh.edu/financial/undergraduate/tuition-fees/$",194.png,综合大学,,194,
197,192,University of New Mexico,新墨西哥大学,,,,Albuquerque,NM,,,http://www.unm.edu/,"学院列表@
http://www.unm.edu/academics/index.html$
本科专业列表@
http://catalog.unm.edu/catalogs/2017-2018/undergrad-program.html$
研究生专业@
http://grad.unm.edu/resources/gs-forms/index.html$
研究生院@
http://grad.unm.edu/home/$
国际学生本科申请@
http://geo.unm.edu/admission/undergraduate/requirements/index.html$
国际学生本科申请截止日期@
http://grad.unm.edu/degree-completion/deadline.html$
英语能力要求@
http://geo.unm.edu/admission/undergraduate/requirements/eng_language.html$
本科学费@
http://admissions.unm.edu/costs-financial-aid/index.html$",195.png,综合大学,,195,
198,192,University of North Dakota,北达科塔大学,,,,Grand Forks,ND,,,http://und.edu/,"学院列表@
http://und.edu/academics/$
本科专业列表@
http://und.edu/academics/registrar/fields-of-study.cfm$
研究生专业@
http://und.edu/academics/registrar/fields-of-study.cfm$
研究生院@
http://und.edu/academics/$
国际学生本科申请@
http://und.edu/academics/international-center/prospective-students/apply.cfm$
国际学生本科申请截止日期@
http://und.edu/academics/international-center/prospective-students/apply.cfm$
英语能力要求@
http://und.edu/academics/international-center/prospective-students/apply.cfm$
本科学费@
http://und.edu/admissions/student-account-services/tuition-rates.cfm$",196.png,综合大学,,196,
199,192,Widener University,韦德恩大学,,,,Chester,PA,,,http://www.widener.edu/,"学院列表@
http://www.widener.edu/academics/schools/default.aspx$
本科专业列表@
http://www.widener.edu/academics/undergraduate/majors.aspx$
研究生专业@
http://www.widener.edu/academics/graduate/grad/default.aspx$
研究生院@
http://www.widener.edu/academics/schools/default.aspx$
国际学生本科申请@
http://www.widener.edu/admissions/undergraduate/how_to_apply/international.aspx$
国际学生本科申请截止日期@
http://www.widener.edu/admissions/undergraduate/how_to_apply/international.aspx$
英语能力要求@
http://www.widener.edu/admissions/undergraduate/how_to_apply/international.aspx$
本科学费@
http://www.widener.edu/admissions/undergraduate/tuition_fees/default.aspx$",197.png,综合大学,,197,
200,198,New Mexico State University,新墨西哥州立大学,,,,Las Cruces,NM,,,https://www.nmsu.edu/,"学院列表@
https://www.nmsu.edu/colleges.html$
本科专业列表@
http://admissions.nmsu.edu/academics/$
研究生专业@
http://gradschool.nmsu.edu/graduate-programs/$
研究生院@
http://admissions.nmsu.edu/academics/$
国际学生本科申请@
https://isss.nmsu.edu/$
国际学生本科申请截止日期@
http://isss.nmsu.edu/steps-for-undergraduate-admission/$
英语能力要求@
https://isss.nmsu.edu/faqs/#details-0-5$
本科学费@
https://admissions.nmsu.edu/pay-for-school/$",198.png,综合大学,,198,
201,198,North Dakota State University,北达科塔州立大学,,,,Fargo,ND,,,https://www.ndsu.edu/,"学院列表@
https://www.ndsu.edu/admission/academic/$
本科专业列表@
https://www.ndsu.edu/majors/$
研究生专业@
https://www.ndsu.edu/majors/$
研究生院@
https://www.ndsu.edu/gradschool/programs/$
国际学生本科申请@
https://www.ndsu.edu/admission/international/firstyear/$
国际学生本科申请截止日期@
https://www.ndsu.edu/admission/international/firstyear/$
英语能力要求@
https://www.ndsu.edu/admission/international/firstyear/$
本科学费@
https://www.ndsu.edu/admission/cost_tuition/cost/$",199.png,综合大学,,199,
202,198,Nova Southeastern University,诺瓦东南大学,,,,Ft. Lauderdale,FL,,,http://www.nova.edu/,"学院列表@
http://www.nova.edu/academics/colleges-schools.html$
本科专业列表@
http://www.nova.edu/undergraduate/academics/college-majors.html$
研究生专业@
http://www.nova.edu/graduate/masters.html$
研究生院@
http://www.nova.edu/academics/colleges-schools.html$
国际学生本科申请@
http://www.nova.edu/undergraduate/admissions/international-students.html$
国际学生本科申请截止日期@
http://www.nova.edu/undergraduate/admissions/international-students.html$
英语能力要求@
http://www.nova.edu/undergraduate/admissions/international-students.html$
本科学费@
http://www.nova.edu/undergraduate/university-tuition-and-fees.html$",200.png,综合大学,,200,
203,198,"University of North Carolina, Charlotte",北卡罗来纳大学夏洛特分校,,,,Charlotte,NC,,,https://www.uncc.edu/,"学院列表@
https://www.uncc.edu/landing/academics$
本科专业列表@
http://academics.uncc.edu/undergraduate-majors$
研究生专业@
https://gradadmissions.uncc.edu/programs/$
研究生院@
https://graduateschool.uncc.edu/$
国际学生本科申请@
https://admissions.uncc.edu/international$
国际学生本科申请截止日期@
https://admissions.uncc.edu/$
英语能力要求@
https://gradadmissions.uncc.edu/admissions-info/international-applicants/english-language-proficiency/$
本科学费@
https://admissions.uncc.edu/admissions/financials/tuition-and-fees$",201.png,综合大学,,201,
204,,,ck12.org,,"CK12是一个免费的提供STEAM资源的网站。
用户可以创建一个群组给学生来学习。也可以自己在网上创造素材。",,,,,,http://www.ck12.org,,202.png,好好学习>K12,K12,202,
205,,,hippocampus.org,,主要面向中学生。,,,,,,http://www.hippocampus.org,,203.png,好好学习>K12,K12,203,
206,,,schooltube.com,,面向中小学生，称有50万视频。,,,,,,http://www.schooltube.com,,204.png,好好学习>K12,K12,204,
207,,,watchknowlearn.org,,"Watchknowlearn认为每个人都应该有学习机会。实现这一目标的最好办法，莫过于用一个超级目录将当前互联网上成千上万个优秀视频整合起来。
为实现这个目标，Watchknowlearn邀请教师、教员和教育工作者推荐能被收录至目录的视频，然后采用维基框架和理念，对那些视频进行审核和批准，并对其进行恰当分类。这些视频是从万维网上找到的最优质视频，涵盖小学到中学（或 1-18 岁）的所有主要教育主题，而且儿童观看绝对安全！",,,,,,http://www.watchknowlearn.org,,205.png,好好学习>K12,K12,205,
208,,,cty.jhu.edu,,由马里兰州的约翰霍普金斯大学1972年引入，主旨在于确认、聘雇全国乃至世界的天赋儿童，并对其提供帮助。它要求孩子的成绩在全国水平的前5%，并且在学术上有优异表现。,,,,,,http://www.cty.jhu.edu,,206.png,好好学习>K12,K12,206,
209,,,mathway.com,,Mathway.com是一个在线的数学计算应用工具，可以帮助你轻松解决代数、三角和微积分等数学难题。Mathway的使用很简单，点击进入相应的数学问题类别，利用提供的各种数学符号和数字在文本框里输写出数学题，最后点击Answer得到答案。,,,,,,http://www.mathway.com,,207.png,好好学习>K12,K12,207,
210,,,ets.org/tofel,,TOEFL,,,,,,http://www.ets.org/tofel,,208.png,好好学习>考试,考试,208,
211,,,chinaielts.org,,IELTS,,,,,,http://www.chinaielts.org,,209.png,好好学习>考试,考试,209,
212,,,pearsonpte.com,,PTE,,,,,,http://www.pearsonpte.com,,210.png,好好学习>考试,考试,210,
213,,,sat.collegeboard.org,,SAT,,,,,,http://www.sat.collegeboard.org,,211.png,好好学习>考试,考试,211,
214,,,actstudent.org,,ACT,,,,,,http://www.actstudent.org,,212.png,好好学习>考试,考试,212,
215,,,ets.org/gre,,GRE,,,,,,http://www.ets.org/gre,,213.png,好好学习>考试,考试,213,
216,,,mba.com/the-gmat,,GMAT,,,,,,http://www.mba.com/the-gmat,,214.png,好好学习>考试,考试,214,
217,,,lsac.org,,LSAT,,,,,,http://www.lsac.org,,215.png,好好学习>考试,考试,215,
218,,,bbs.gter.net,,提供最有用的出国留学资讯和最热心的留学交流论坛。,,,,,,http://www.bbs.gter.net,,216.png,好好学习>留学论坛,留学论坛,216,
219,,,chasedream.com,,"ChaseDream是国际商学院申请与职业发展交流平台。包括:MBA申请,商科Master/PhD申请,GMAT/TOEFL考试,商学院学习与生活,职业发展等。",,,,,,http://www.chasedream.com,,217.png,好好学习>留学论坛,留学论坛,217,
220,,,cuus.info,,全称Chinese Undergraduates in the United States，是中国最知名的美国留学论坛之一，同时也是中国为数不多的公益性留学论坛之一。,,,,,,http://www.cuus.info,,218.png,好好学习>留学论坛,留学论坛,218,
221,,,1point3acres.com/bbs,,"一亩三分地是美国加拿大留学申请和求职就业论坛,提供找工作和学习生活信息。",,,,,,http://www.1point3acres.com/bbs,,219.png,好好学习>留学论坛,留学论坛,219,
222,,,gradschools.com,,专门用来查找美国大学研究生院的，按具体的研究专业、学科类别和专业目录三种分类方式进行搜索。,,,,,,http://www.gradschools.com,,220.png,好好学习>搜学校,搜学校,220,
223,,,unigo.com,,该网站学校分类清晰，有学校在读学生的评价和评分，还有学生拍摄的学校视频，从而可以直接了解学校的环境、日常生活状况。根据学生人数、地理位置、录取难度、费用、所在州进行筛选，网站还有学生评选出的众多特别选项，例如学生最开心的学校、位置最佳学校、wifi覆盖最广学校等等，也会提供预测你录取的概率的算法。,,,,,,http://www.unigo.com,,221.png,好好学习>搜学校,搜学校,221,
224,,,studyusa.com,,该网站专为留学生提供服务的站点，可以按字母或地理位置两种分类方法对学校进行搜索。同时，该网站还有美国大学的专题报道，介绍各大学的情况。,,,,,,http://www.studyusa.com,,222.png,好好学习>搜学校,搜学校,222,
225,,,petersons.com,,教育服务公司网站，主要内容包括美国大学的清单、校园新闻、专题讨论、条件查询等。,,,,,,http://www.petersons.com,,223.png,好好学习>搜学校,搜学校,223,
226,,,collegeboard.org,,这家网站是美国大学理事会的官方网站，用来提供SAT的注册和成绩单寄送，因此申请美国本科的学生都会注册这一网站。同时，学校的地理位置，住宿条件，学费水平等信息都非常全面的汇集到这一网站上。,,,,,,http://www.collegeboard.org,,224.png,好好学习>搜学校,搜学校,224,
227,,,find-mba.com,,顾名思义，专门找MBA项目。,,,,,,http://www.find-mba.com,,225.png,好好学习>搜学校,搜学校,225,
228,,,usnews.com/education,,大名鼎鼎的USNews，不仅包含学校排名，还有专业排名；同时，各所院校的申请要求及学术情况也都涵盖在该网站中，但查看完整排名都要付费。,,,,,,http://www.usnews.com/education,,226.png,好好学习>搜学校,搜学校,226,
229,,,collegeconfidential.com,,College Confidential其实是一家成立于2001年的大学录取咨询公司，其中最有名的就是它的论坛，可以帮你解答关于申请的诸多问题。,,,,,,http://www.collegeconfidential.com,,227.png,好好学习>搜学校,搜学校,227,
230,,,colleges.niche.com,,按学制、地理位置、专业、标化、开销等五方面进行filter，并按等级制为学校评分。高中和本科学校。,,,,,,http://www.colleges.niche.com,,228.png,好好学习>搜学校,搜学校,228,
231,,,youniversitytv.com/category/college,,网站中有大量学校视频，包括校园一览、校园生活、学校的优势以及文化，信息很全。,,,,,,http://www.youniversitytv.com/category/college,,229.png,好好学习>搜学校,搜学校,229,
232,,,schoolsintheusa.com,,院校搜索及项目搜索。,,,,,,http://www.schoolsintheusa.com,,230.png,好好学习>搜学校,搜学校,230,
233,,,topuniversities.com,,QS排名，这一网站可以按照院校排名、课程指南等不同的类别进行挑选，适合优先考虑课程及专业设置的伙伴。,,,,,,http://www.topuniversities.com,,231.png,好好学习>搜学校,搜学校,231,
234,,,timeshighereducation.com/world-university-rankings,,泰晤士排名,,,,,,http://www.timeshighereducation.com/world-university-rankings,,232.png,好好学习>搜学校,搜学校,232,
235,,,princetonreview.com,,排名的依据重视学生本身，排名分类繁多：如综合最好的大学，管理最好的大学，资助最好的大学，学术最好的大学，校园最漂亮的大学，最重视体育的大学，学生最快乐的大学，最偏民主党的大学，最偏共和党的大学等。,,,,,,http://www.princetonreview.com,,233.png,好好学习>搜学校,搜学校,233,
236,,,payscale.com,,payscale排名，可以用它查到美国的各专业本科、研究生毕业薪水排名。,,,,,,http://www.payscale.com,,234.png,好好学习>搜学校,搜学校,234,
237,,,cappex.com,,"和其他几个网站相比，这个网站最大的优点是更新超快，奖学金信息超多，还提供各种大学申请相关的消息。
不仅可以搜索到相关的奖学金信息，还可以帮助你择校！网站标榜有3000多家大学信息。网站数据清晰详细，包括去年的录取情况、今年录取要求、专业情况、校园及周边生活。在Cappex上，你可以直接把心仪的学校列入对比，查看录取率、学费信息、男女比例、学校人数、地理位置等等。",,,,,,http://www.cappex.com,,235.png,好好学习>搜学校,搜学校,235,
238,,,bestcolleges.com,,Best Colleges,,,,,,http://www.bestcolleges.com,,236.png,好好学习>搜学校,搜学校,236,
239,,,aacc.nche.edu/pages/ccfinder.aspx,,社区学院专用搜索,,,,,,http://www.aacc.nche.edu/pages/ccfinder.aspx,,237.png,好好学习>搜学校,搜学校,237,
240,,,phds.org,,"PHD项目搜索,相关专业的院校、排名、项目数据。",,,,,,http://www.phds.org,,238.png,好好学习>搜学校,搜学校,238,
241,,,colleges.startclass.com,,该网站按专业和学校性质分类，详列美国各州大学名单，并以链接到各校主页的方式，提供查找各大学的信息服务。,,,,,,http://www.colleges.startclass.com,,239.png,好好学习>搜学校,搜学校,239,
242,,,thegradcafe.com/survey,,北美录取数据,,,,,,http://www.thegradcafe.com/survey,,240.png,好好学习>搜学校,搜学校,240,
243,,,college-insight.org,,该网站是美国大学入学与学生成功协会的精心之作，上面收集了很多院校的详细信息。任何学校的相关数据都能找得到，如大学负担能力、毕业率和大学多元化，其中大学多元化都是按照学生和教授的种族所分类的。,,,,,,http://www.college-insight.org,,241.png,好好学习>搜学校,搜学校,241,
244,,,unplugthetv.com,,"在线知识视频网是一个可以提供你的智力和拓展知识面的视频网站,基于Youtube视频资源而创办,该网站整理了若干教育视频。",,,,,,http://www.unplugthetv.com,,242.png,好好学习>在线教育,在线教育,242,
245,,,coursera.com,,各种名校的Open Course，自学成才好帮手,,,,,,http://www.coursera.com,,243.png,好好学习>在线教育,在线教育,243,
246,,,sparknotes.com,,资料权威，信息囊括范围广而全，这个网站网罗了众多全面规定阅读的书籍的资料，它犹如一款去糟粕留精华的百度，如果你有什么不懂得资料，或者需要查询的信息，都可以来这里细心的逛一逛，保证你收获颇丰。,,,,,,http://www.sparknotes.com,,244.png,好好学习>在线教育,在线教育,244,
247,,,studyblue.com,,一个提供规模最大、数据库更新最快的在线学习材料的网站，目前，网站已包含350多万由用户生成笔记卡片(Notecards)，还有学习指南，小测试和复习表格等，所覆盖的话题从代数到动物学，从历史到文学……而且，用户还可以与同自己有相同学习经历的人沟通、交流，集聚每个人的智慧，使自己的学习变得更容易、轻松。已经推出了教师身份认证功能，方便学生快速找到自己的老师分享的资料。,,,,,,http://www.studyblue.com,,245.png,好好学习>在线教育,在线教育,245,
248,,,edx.org,,免费学习来自全球顶尖大学(包括MIT和哈佛大学)的课程，提供付费的认证证书。,,,,,,http://www.edx.org,,246.png,好好学习>在线教育,在线教育,246,
249,,,coursera.org,,免费学习来自全球20多个国家100多所顶尖大学的课程，有提供认证证书的专项课程，由浅入深系统学习一个领域。,,,,,,http://www.coursera.org,,247.png,好好学习>在线教育,在线教育,247,
250,,,ocw.mit.edu,,创建于2002年，免费提供几乎所有MIT课程的完整材料。,,,,,,http://www.ocw.mit.edu,,248.png,好好学习>在线教育,在线教育,248,
251,,,oyc.yale.edu,,提供耶鲁大学的课程，既有传统的网络公开课，也有MOOC。,,,,,,http://www.oyc.yale.edu,,249.png,好好学习>在线教育,在线教育,249,
252,,,oli.cmu.edu,,卡耐基梅隆大学的一个开放学习计划。,,,,,,http://www.oli.cmu.edu,,250.png,好好学习>在线教育,在线教育,250,
253,,,khanacademy.org,,可汗学院，最早的线上学习网站之一，内容丰富，适合任何年纪的学习者。,,,,,,http://www.khanacademy.org,,251.png,好好学习>在线教育,在线教育,251,
254,,,video.mit.edu,,"提供超过12,000 个讲座/视频，涵盖数学、建筑、艺术、化学、生物、人文社科、物理等领域。",,,,,,http://www.video.mit.edu,,252.png,好好学习>在线教育,在线教育,252,
255,,,online.stanford.edu,,斯坦福大学的线上学习平台。,,,,,,http://www.online.stanford.edu,,253.png,好好学习>在线教育,在线教育,253,
256,,,extension.harvard.edu/open-learning-initiative,,哈佛大学的线上课程视频精选。,,,,,,http://www.extension.harvard.edu/open-learning-initiative,,254.png,好好学习>在线教育,在线教育,254,
257,,,canvas.net,,一个MOOC平台。,,,,,,http://www.canvas.net,,255.png,好好学习>在线教育,在线教育,255,
258,,,bethe.cornell.edu,,理论物理学家Hans Bethe向你介绍量子物理学。,,,,,,http://www.bethe.cornell.edu,,256.png,好好学习>在线教育,在线教育,256,
259,,,pce.uw.edu/online/free-online-courses,,华盛顿大学的线上课程资源。,,,,,,http://www.pce.uw.edu/online/free-online-courses,,257.png,好好学习>在线教育,在线教育,257,
260,,,podcast.ucsd.edu,,圣地亚哥大学的视频、音频资源。,,,,,,http://www.podcast.ucsd.edu,,258.png,好好学习>在线教育,在线教育,258,
261,,,uopeople.edu,,这是一间免学费的线上大学。,,,,,,http://www.uopeople.edu,,259.png,好好学习>在线教育,在线教育,259,
262,,,novoed.com,,是由出身斯坦福的教授创建的一个在线提供各大学公开课的平台。,,,,,,http://www.novoed.com,,260.png,好好学习>在线教育,在线教育,260,
263,,,ureddit.com,,大量的免费视频课程，按照科目分类。,,,,,,http://www.ureddit.com,,261.png,好好学习>在线教育,在线教育,261,
264,,,benchprep.com,,交互式电子课程服务平台是一个帮助任何学生在任何移动设备上都能学习任何电子课程的互动服务，为用户提供包括中学课程、法学、医学、军事和一些专业证书互动式电子课程。iPhone、iPad和Android应用均可下载。,,,,,,http://www.benchprep.com,,262.png,好好学习>在线教育,在线教育,262,
265,,,duolingo.com,,语言学习工具，从听，读，拼，义四个方面进行多元化的单词和语句训练。,,,,,,http://www.duolingo.com,,263.png,好好学习>外语学习,外语学习,263,
266,,,memrise.com,,由许多简短的课程组成，比如日语五十音、德语基础、SAT备考等。用游戏化的概念学习语言。,,,,,,http://www.memrise.com,,264.png,好好学习>外语学习,外语学习,264,
267,,,busuu.com,,"在线免费语言学习社区是一个在线免费学习语言社区。免费连接世界各地当地人。增强你的语言,在线学习语言课程。",,,,,,http://www.busuu.com,,265.png,好好学习>外语学习,外语学习,265,
268,,,lernu.net,,在多邻国的世界语课程出来之前，这应该是学习世界语最好的网站了吧。不过，它除了课程以外还有一个挺好玩的社区，和一些阅读材料。,,,,,,http://www.lernu.net,,266.png,好好学习>外语学习,外语学习,266,
269,,,lingvist.io,,"透过数据分析技术,让英文学习得以个人化。坊间多半是同一套教材,吸收多少要学生各凭本事,但Lingvist不同,它根据学生的学习进度,指定复习不熟悉的内容",,,,,,http://www.lingvist.io,,267.png,好好学习>外语学习,外语学习,267,
270,,,vocabulary.com,,用例句和游戏化背单词。(应用商店有对应的APP),,,,,,http://www.vocabulary.com,,268.png,好好学习>外语学习,外语学习,268,
271,,,hinative.com,,"HiNative是一个问与答的平台,您可以在这里向各国的母语者提问关于文化,语言等问题。",,,,,,http://www.hinative.com,,269.png,好好学习>外语学习,外语学习,269,
272,,,books.google.com,,Google books 是世界上最大的电子书店。打开网址输入你想查找的书目名称，你会发现有一教材或者老师要求的一些拓展读物可以免费下载，不能下载的图书可以在线购买。,,,,,,http://www.books.google.com,,270.png,好好学习>书,书,270,
273,,,bigwords.com,,要知道留学不容易，省钱是真谛。Bigwords网站可以帮助学生在买书时货比三家，找到最物美价廉的一本。只要把你需要购买的书名输入进去，这个网站就会告诉你怎么能买到最便宜的书。,,,,,,http://www.bigwords.com,,271.png,好好学习>书,书,271,
274,,,Sparknotes.com,,(被称为当下最受欢迎的学习指南)阅读量和阅读速度是中国孩子的硬伤。这个网站网罗了众多美国学校规定阅读的书籍的诠释资料，如果你对于自己所读的书或文章感到不解，让它来帮你解惑吧。但是特别强调一下，来不及做读书作业的同学们不要老是利用本网站临时抱佛脚哦。,,,,,,http://www.Sparknotes.com,,272.png,好好学习>书,书,272,
275,,,textbooks.com,,"a. 低价，那些低价的课本不一定是因为比较旧，而是因为卖家急于出手，所以很有可能可以在低价的课本中淘到宝贝(出自我校呆子同学经验)
b. 版本，很多课本 新版跟旧版差别价格巨大 但是内容相差无几 可以提前跟教授咨询 旧版是否可行。比如我的经济课本 学校bookstore的旧书也要100+。我的一个同学花了10美分买了一本旧版，很好用。
",,,,,,http://www.textbooks.com,,273.png,好好学习>书,书,273,
276,,,campusi.com,,搜集各个网上书店的价格然后可以比较的一个网站，只是它把ebay上还在bid的价格也拿来用。,,,,,,http://www.campusi.com,,274.png,好好学习>书,书,274,
277,,,half.com,,价钱一般也算是蛮低的。Half应该是Amazon旗下网站吧，反正买旧书似乎还是half比较不错。,,,,,,http://www.half.com,,275.png,好好学习>书,书,275,
278,,,abebooks.com,,这里的书不错，便宜。,,,,,,http://www.abebooks.com,,276.png,好好学习>书,书,276,
279,,,bookfinder.com,,可以比价钱，算邮费。,,,,,,http://www.bookfinder.com,,277.png,好好学习>书,书,277,
280,,,alibris.com,,可以买到很不错的二手书，很多学校推荐的购书的网。还有音乐电影。,,,,,,http://www.alibris.com,,278.png,好好学习>书,书,278,
281,,,booklender.com,,留学生买书不如租书，完成作业为主，喜欢的书不妨再淘。,,,,,,http://www.booklender.com,,279.png,好好学习>书,书,279,
282,,,chegg.com,,"专门从事在线教科书租赁(同时提供纸质与电子版),家庭作业辅导,奖学金帮助,课程复习已及实习岗位匹配工作。",,,,,,http://www.chegg.com,,280.png,好好学习>书,书,280,
283,,,gutenberg.org,,54000多本电子书，免费下载,,,,,,http://www.gutenberg.org,,281.png,好好学习>书,书,281,
284,,,bookoutlet.com,,书籍奥特莱斯,,,,,,http://www.bookoutlet.com,,282.png,好好学习>书,书,282,
285,,,booksamillion.com,,店如其名，巨大的在线书店,,,,,,http://www.booksamillion.com,,283.png,好好学习>书,书,283,
286,,,biggerbooks.com,,高折扣的课本和书,,,,,,http://www.biggerbooks.com,,284.png,好好学习>书,书,284,
287,,,textbookrush.com,,课本租售集散地,,,,,,http://www.textbookrush.com,,285.png,好好学习>书,书,285,
288,,,ecampus.com,,课本租售集散地,,,,,,http://www.ecampus.com,,286.png,好好学习>书,书,286,
289,,,powells.com,,世界最大的独立书店,,,,,,http://www.powells.com,,287.png,好好学习>书,书,287,
290,,,alibris.com,,二手书、唱片、电影,,,,,,http://www.alibris.com,,288.png,好好学习>书,书,288,
291,,,page1book.com,,More than a Bookstore…a Community,,,,,,http://www.page1book.com,,289.png,好好学习>书,书,289,
292,,,bookbyte.com,,课本租买售,,,,,,http://www.bookbyte.com,,290.png,好好学习>书,书,290,
293,,,barnesandnoble.com,,是美国最大的实体书店，全美拥有将近800家店面，公司亦是全球第二大网上书店，仅次于第一名Amazon(亚马逊)。,,,,,,http://www.barnesandnoble.com,,291.png,好好学习>书,书,291,
294,,,booksmatter.com,,专业书籍销售网站，管理书籍，电子书，杂志等。,,,,,,http://www.booksmatter.com,,292.png,好好学习>书,书,292,
295,,,packback.co,,搜书神器,,,,,,http://www.packback.co,,293.png,好好学习>书,书,293,
296,,,freebookspot.es,,FreeBookSpot是一个拥有多达96种不同类别书籍的在线免费电子书下载网站，科学、工程、编程、小说等书籍均可下载，无需注册。,,,,,,http://www.freebookspot.es,,294.png,好好学习>书,书,294,
297,,,bookboon.com/en/textbooks,,免费课本下载，网站上所列教材均来自于世界顶级大学教授编写，涵盖经济、统计、IT、工程和自然科学等多个领域。,,,,,,http://www.bookboon.com/en/textbooks,,295.png,好好学习>书,书,295,
298,,,catalog.flatworldknowledge.com,,有大量知名学者编著的教材，大部分教材都可以免费在线阅读，但是下载电子书可能需要小额花费。,,,,,,http://www.catalog.flatworldknowledge.com,,296.png,好好学习>书,书,296,
299,,,oerconsortium.org/discipline-specific,,网站全名为社区大学开放教育资源联盟，超过250所学校参与到该网站中，为网站提供了不同学科教材,,,,,,http://www.oerconsortium.org/discipline-specific,,297.png,好好学习>书,书,297,
300,,,onlinebooks.library.upenn.edu,,宾大图书馆在线书籍官网上列有两百多万本免费书籍，并在不断保持更新，无需注册，免费下载。,,,,,,http://www.onlinebooks.library.upenn.edu,,298.png,好好学习>书,书,298,
301,,,digitalbookindex.org,,网站上列有超过15万本各大学或者出版社出版的电子书，超过10万本书是免费的。,,,,,,http://www.digitalbookindex.org,,299.png,好好学习>书,书,299,
302,,,digilibraries.com,,最好的在线电子书图书馆，支持ipad/iphone/kindle/PC/MAC多种形式。,,,,,,http://www.digilibraries.com,,300.png,好好学习>书,书,300,
303,,,bartleby.com,,Bartleby是少数几个网络公开资源先锋网站之一。网站上的教材都可以免费下载。,,,,,,http://www.bartleby.com,,301.png,好好学习>书,书,301,
304,,,gettextbooks.com,,网站上所有书籍可以完全合法免费下载。,,,,,,http://www.gettextbooks.com,,302.png,好好学习>书,书,302,
305,,,textbookrevolution.org,,由学生和教授提供的免费大学教材或其他学习资料，可以下载PDF版本。,,,,,,http://www.textbookrevolution.org,,303.png,好好学习>书,书,303,
306,,,archive.org/details/cornell,,康奈尔大学图书馆，七万五千多本书可下载。,,,,,,http://www.archive.org/details/cornell,,304.png,好好学习>书,书,304,
307,,,free-ebooks.net,,免费注册后可下载。,,,,,,http://www.free-ebooks.net,,305.png,好好学习>书,书,305,
308,,,textbooksfree.org,,纯粹的教材下载网站，资源丰富，种类多样。,,,,,,http://www.textbooksfree.org,,306.png,好好学习>书,书,306,
309,,,freetechbooks.com,,网站上主要提供关于科技类的教材。,,,,,,http://www.freetechbooks.com,,307.png,好好学习>书,书,307,
310,,,gutenberg.org,,网站上有超过50000本免费电子书，无需注册，可免费下载。,,,,,,http://www.gutenberg.org,,308.png,好好学习>书,书,308,
311,,,freecomputerbooks.com,,提供关于计算机、编程、数学、科技等教材的阅读和下载。,,,,,,http://www.freecomputerbooks.com,,309.png,好好学习>书,书,309,
312,,,bookyards.com,,BookYards 是一个提供教学相关类免费电子书下载的网络门户。,,,,,,http://www.bookyards.com,,310.png,好好学习>书,书,310,
313,,,manybooks.net,,ManyBooks 是一个专门提供免费电子书下载的网站，它所提供的免费电子书超过2万本。你可以通过分类，作者，书名和语言进行搜索查询，所有电子书含都可以下载保存为Doc，PDF，RTF，JAR，TXT等多种形式。,,,,,,http://www.manybooks.net,,311.png,好好学习>书,书,311,
314,,,gutenberg.org,,"54,000余本免费电子书",,,,,,http://www.gutenberg.org,,312.png,好好学习>书,书,312,
315,,,openculture.com/free_textbooks,,"Open Culture是在线免费学习资源平台是美国史丹福大学于2006年创办的免费线上视频课程资源平台,Open Culture 拥有500部电影、400堂大学课程和免费课本下载。",,,,,,http://www.openculture.com/free_textbooks,,313.png,好好学习>书,书,313,
316,,,ck12.org/flexbook,,免费电子书下载,,,,,,http://www.ck12.org/flexbook,,314.png,好好学习>书,书,314,
317,,,pdfgrab.com,,免费课本和电子书下载,,,,,,http://www.pdfgrab.com,,315.png,好好学习>书,书,315,
318,,,e-library.net/free-ebook,,免费电子书下载,,,,,,http://www.e-library.net/free-ebook,,316.png,好好学习>书,书,316,
319,,,efollet.com,,可以根据你的学校选择相应的教材，买书或者租书,,,,,,http://www.efollet.com,,317.png,好好学习>书,书,317,
320,,,bartleby.com,,Bartleby参考网是美国一个以收藏经典参考书、诗歌、小说为主的网站，提供大量免费的电子图书。用户检索时可整库检索，也可分为参考、诗歌、小说、非小说四个部分,,,,,,http://www.bartleby.com,,318.png,好好学习>书,书,318,
321,,,overdrive.com,,在线电子书籍搜索平台是美国的一家提供电子书、有声读物、音乐与视频等下载资源的数字化内容经销商。,,,,,,http://www.overdrive.com,,319.png,好好学习>书,书,319,
322,,,postyourbook.com,,在线课本交易平台，你可以在这里买卖二手课本教材,,,,,,http://www.postyourbook.com,,320.png,好好学习>书,书,320,
323,,,scholar.gooogle.com,,Google推出的免费学术搜索工具，可以帮助用户快速查找学术资料，包括来自学术著作出版商、专业性社团、预印本、各大学及其他学术组织的经同行评论的文章、论文、图书、摘要和技术报告。,,,,,,http://www.scholar.gooogle.com,,321.png,好好学习>学术搜索,学术搜索,321,
324,,,scirus.com,,"SCIRUS是由爱思唯尔科学公司Elsevier Science 于2001 年4
月推出的迄今为止国际互联网上最全面的科技信息专用搜索引擎。它以自身拥有的资源为主体，对网上具有科学价值的资源进行整合，集聚了带有科学内容的网站及与科学相关的网页上的科学论文、科技报告、会议论文、专业文献、预印本等。其目的是力求在科学领域内做到对信息全面深入的收集，以统一的检索模式面向用户提供检索服务。
",,,,,,http://www.scirus.com,,322.png,好好学习>学术搜索,学术搜索,322,
325,,,citeseer.ist.psu.edu,, Research Index又名CiteSeer ，是NEC 研究院在自动引文索引Autonomous Citation Indexing ，ACI机制基础上建设的一个学术论文数字图书馆，它提供了一种通过引文链接检索文献的方式，目标是从多个方面促进学术文献的传播与反馈。,,,,,,http://www.citeseer.ist.psu.edu,,323.png,好好学习>学术搜索,学术搜索,323,
326,,,infomine.com,,"是为大学教师、学生和研究人员建立的网络学术资源虚拟图书馆。它建于1994
年，由加利福尼亚大学、威克福斯特大学、加利福尼亚州立大学、底特律—麦西大学等多家大学或学院的图书馆联合建立。它拥有电子期刊、电子图书、公告栏、邮件列表、图书馆在线目录、研究人员人名录，以及其他类型的信息资源40000多个。",,,,,,http://www.infomine.com,,324.png,好好学习>学术搜索,学术搜索,324,
327,,,intute.ac.us,,是一个免费、便捷、强劲的搜索工具，由英国高等教育资助理事会下的信息系统联合委员会JISC 和艺术与人文研究委员会AHRC开发建立，专注于教学、研究方面的网络资源。所收录的信息资源都是经过行业专家选择和评审的，从而保证了其质量。目前数据库信息已达120060条。,,,,,,http://www.intute.ac.us,,325.png,好好学习>学术搜索,学术搜索,325,
328,,,oclc.org/en/oaister,,"是密歇根大学开发维护的一个优秀的开放存取搜索引擎，收集了来自536家学术机构的590
万篇文档，包括开放使用期刊的文章、工作论文、讨论文章、会议论文和学位论文。可按关键词、题名、创作者、主题或资源类型进行检索。检索结果含资源描述和该资源链接。",,,,,,http://www.oclc.org/en/oaister,,326.png,好好学习>学术搜索,学术搜索,326,
329,,,sciseek.com,,是一个专注于科学与自然领域的搜索工具，采取人工收集处理的方式，提供农林、工程、化学、物理和环境方面的科技期刊及其他信息。,,,,,,http://www.sciseek.com,,327.png,好好学习>学术搜索,学术搜索,327,
330,,,osti.gov/scitech,,是由美国能源部DOE 下属的科学与技术信息办公室OSTI 开发维护的搜索工具，提供美国能源部1994年以来研究成果的全文文献和目录索引，涉及的学科领域包括物理、化学、材料、生物、环境科学、能源技术、工程、计算机与情报科学和可再生能源等。检索功能有基本检索和高级检索两种。,,,,,,http://www.osti.gov/scitech,,328.png,好好学习>学术搜索,学术搜索,328,
331,,,findarticles.com,,提供多种顶极刊物的上千万篇论文，涵盖艺术与娱乐、汽车、商业与经融、计算机与技术、健康与健身、新闻与社会、科学教育、体育等各个方面的内容，大部分为免费全文资料，检索操作简单。,,,,,,http://www.findarticles.com,,329.png,好好学习>学术搜索,学术搜索,329,
332,,,c.wanfangdata.com.cn,,万方数据ilib 是万方数据股份有限公司旗下的专业学术搜索平台，隶属于万方数据资源系统。它是Google Scholar和Yahoo，奇摩学术搜索重要的内容提供者，平均每周新增文献5 万余篇。,,,,,,http://www.c.wanfangdata.com.cn,,330.png,好好学习>学术搜索,学术搜索,330,
333,,,base-search.net,,BASE是德国比勒费尔德(Bielefeld)大学图书馆开发的一个多学科的学术搜索引擎，提供对全球异构学术资源的集成检索服务。它整合了德国比勒费尔德大学图书馆的图书馆目录和大约160个开放资源（超过200 万个文档）的数据。,,,,,,http://www.base-search.net,,331.png,好好学习>学术搜索,学术搜索,331,
334,,,vascoda.de,,"Vascoda是一个交叉学科门户网站的原型，它注重特定主题的聚合，集成了图书馆的收藏、  
文献数据库和附加的学术内容。  ",,,,,,http://www.vascoda.de,,332.png,好好学习>学术搜索,学术搜索,332,
335,,,ojose.com,,OJOSE (Online Journal Search Engine，在线期刊搜索引擎)是一个强大的免费科学搜索引擎，通过OJOSE，你能查找、下载或购买到近60个数据库的资源。但是感觉操作比较复杂。,,,,,,http://www.ojose.com,,333.png,好好学习>学术搜索,学术搜索,333,
336,,,a9.com,,"Google在同一水平的搜索引擎。是Amazon.com推出的，Web result部分是基于Google的， 
所以保证和Google在同一水平，另外增加了Amazon的在书本内搜索的功能和个性化功能： 
主要是可以记录你的搜索历史。",,,,,,http://www.a9.com,,334.png,好好学习>学术搜索,学术搜索,334,
337,,,findarticles.com,,"一个检索免费paper的好工具。 进入网页以后，可以看到他有三个功能，driectory web 
article ，其中article对我们很有帮助，你可以尝试输入你要找的文章，会有很多发现！ ",,,,,,http://www.findarticles.com,,335.png,好好学习>学术搜索,学术搜索,335,
338,,,emolecules.com,,在此搜索引擎里可以搜索到超过千万种化学品信息或相应的供应商，与Chemblink有点相似，但提供的化学品理化信息没有Chemblink详细，与其不同的是该搜索引擎可提供化学品结构式搜索（主页上有在线绘制化学结构式的搜索框）。  ,,,,,,http://www.emolecules.com,,336.png,好好学习>学术搜索,学术搜索,336,
339,,,turnitin.com,,Turnitin是全球最权威的论文库，90%以上的院校都在使用它，你可以把自己的论文上传到论文库来检测相似度，没有正确引用的部分会被标出并附上文章的正确来源。美国大学对于学术性的文章要求非常严苛，别一个不小心就犯了“抄袭”的罪而被退学。除此之外，大家也可以通过Easybib.com来找到引用的资料来源。,,,,,,http://www.turnitin.com,,337.png,好好学习>论文写作与学术期刊,论文写作与学术期刊,337,
340,,,easybib.com,,引用来源查询，如果你不确定该如何Cite你的资料来源，只要把资料来源的网站，书名或者其他的来源输入网站，就可以得到完整正确的Citation了。,,,,,,http://www.easybib.com,,338.png,好好学习>论文写作与学术期刊,论文写作与学术期刊,338,
341,,,sciencedirect.com,,"Elsevier是荷兰一家全球著名的学术期刊出版商，每年出版大量的学术图书和期刊，大部分期刊被SCI、SSCI、EI收录，是世界上公认的高品位学术期刊。近几年该公司将其出版的2,500多种期刊和11,000图书全部数字化，即ScienceDirect全文数据库，并通过网络提供服务。",,,,,,http://www.sciencedirect.com,,339.png,好好学习>论文写作与学术期刊,论文写作与学术期刊,339,
342,,,scopus.com,,是全世界最大的摘要和引文数据库，涵盖了15000种科学、技术及医学方面的期刊。Scopus不仅为用户提供了其收录文章的引文信息，还直接从简单明了的界面整合了网络和专利检索。直接链接到全文、图书馆资源及其它应用程序如参考文献管理软件，亦使得Scopus比其他任何文献检索工具更为方便、快捷。,,,,,,http://www.scopus.com,,340.png,好好学习>论文写作与学术期刊,论文写作与学术期刊,340,
343,,,scopus.com/freelookup/form/author.uri,,作者履历查询,,,,,,http://www.scopus.com/freelookup/form/author.uri,,341.png,好好学习>论文写作与学术期刊,论文写作与学术期刊,341,
344,,,readcube.com,,Readcube，Mendeley，Endnote，Reference Manager，Refworks，Zotero文献管理网站,,,,,,http://www.readcube.com,,342.png,好好学习>论文写作与学术期刊,论文写作与学术期刊,342,
345,,,cnx.org,,Connexions上有超过1000本免费教材、期刊和文章，并且支持手机下载阅读。,,,,,,http://www.cnx.org,,343.png,好好学习>论文写作与学术期刊,论文写作与学术期刊,343,
346,,,bibme.org,,在线参考书目检索工具是一个文献格式生成网站，非常实用的参考书目在线工具，可帮助用户检索所需要的参考书目，包括文献、书籍、网页等等，自动生成 RTF 格式文档供用户下载，省去了影印的麻烦。,,,,,,http://www.bibme.org,,344.png,好好学习>论文写作与学术期刊,论文写作与学术期刊,344,
347,,,plagtracker.com,,最好的免费剽窃检查。检查你的文件在线和检测抄袭与我们的软件！最准确的结果，容易和实用的报告。,,,,,,http://www.plagtracker.com,,345.png,好好学习>论文写作与学术期刊,论文写作与学术期刊,345,
348,,,Plagiarismcheck.org,,如果从你的文章内容出现在其他在线站点，在该系统注册的书剽窃检查将确定。,,,,,,http://www.Plagiarismcheck.org,,346.png,好好学习>论文写作与学术期刊,论文写作与学术期刊,346,
349,,,iThenticate.com,,了解为什么领先的出版商，编辑，研究人员和作者使用iThenticate剽窃软件检查核实书面作业的原创性。,,,,,,http://www.iThenticate.com,,347.png,好好学习>论文写作与学术期刊,论文写作与学术期刊,347,
350,,,Paperrater.com,,语法，抄袭和拼写检查;免费在线校对;没有下载…帮助您找到那些讨厌的错误并加以改正前，你的老师呢。,,,,,,http://www.Paperrater.com,,348.png,好好学习>论文写作与学术期刊,论文写作与学术期刊,348,
351,,,copyscape.com,,是一款专用搜寻引擎，你只要输入文章网址，Copyscape会试图找出与该文章最接近的网站，若真有垃圾网页抄袭，Copyscape将会把他们一一揪出 。,,,,,,http://www.copyscape.com,,349.png,好好学习>论文写作与学术期刊,论文写作与学术期刊,349,
352,,,searchenginereports.net,,网上免费文章检查。检查剽窃与我们的自由，即时抄袭检测。立竿见影的效果，不需要注册，一切都是免费的。,,,,,,http://www.searchenginereports.net,,350.png,好好学习>论文写作与学术期刊,论文写作与学术期刊,350,
353,,,sourceforge.net/projects/antiplagiarismc,,反剽窃 – 软件，旨在有效地检测，从而防止抄袭。它是一个多功能的工具，以应对来自作者的分配万维网复制粘贴信息。,,,,,,http://www.sourceforge.net/projects/antiplagiarismc,,351.png,好好学习>论文写作与学术期刊,论文写作与学术期刊,351,
354,,,Plagium.com,,在线检查剽窃,,,,,,http://www.Plagium.com,,352.png,好好学习>论文写作与学术期刊,论文写作与学术期刊,352,
355,,,plagiarisma.net,,剽窃会毁掉你的职业生涯。Plagiarisma、论文查重、是学生、教师、学者和专业作家的重要工具。,,,,,,http://www.plagiarisma.net,,353.png,好好学习>论文写作与学术期刊,论文写作与学术期刊,353,
356,,,smallseotools.com/plagiarism-checker/,,检查抄袭要使用此剽窃检查，请复制并粘贴到下面的框中输入内容，然后点击绿色的大按钮，检查是否有剽窃,,,,,,http://www.smallseotools.com/plagiarism-checker/,,354.png,好好学习>论文写作与学术期刊,论文写作与学术期刊,354,
357,,,ninjaessays.com,,网站提供付费修改文章的服务,,,,,,http://www.ninjaessays.com,,355.png,好好学习>论文写作与学术期刊,论文写作与学术期刊,355,
358,,,ideas.repec.org,,RePEc总部在瑞典，拥有全球范围内最为庞大的经济学研究机构和科研工作者样本的数据库。Ideas设在美联储，Ideas与RePEc合作，基于RePEc数据库，提供动态的多分类的机构和个人排名，以及论文摘要、下载、引用信息等服务项目。Ideas&RePEc的排名每月更新一次,,,,,,http://www.ideas.repec.org,,356.png,好好学习>论文写作与学术期刊,论文写作与学术期刊,356,
359,,,ratemyprofessors.com,,教师教授品论网，这里是学生与教授交流之地，尤其是对某个教授资料的曝光是你学哪个教授的课程的重要依据，在这个网站上你可以查到学生对教授的评价，虽然这些评价多少带有个人偏见，你无需全部相信，但是总会得到一些意见用来帮助你选择哪个教授的什么课程。,,,,,,http://www.ratemyprofessors.com,,357.png,好好学习>论文写作与学术期刊,论文写作与学术期刊,357,
360,,,koofers.com,,和rate my professors相似的网站，选课前可以看看。另外就是可以找到就业和实习的机会。,,,,,,http://www.koofers.com,,358.png,好好学习>论文写作与学术期刊,论文写作与学术期刊,358,
361,,,essaytyper.com,,论文打字机是一个结合维基百科帮助学生撰写论文的网站。正如其名，用户只要在网站首页输入条上输入论文题目，即可得到一篇完整的论文。但值得注意的是，网站形成的论文有点剽窃，使用时要慎重。,,,,,,http://www.essaytyper.com,,359.png,好好学习>论文写作与学术期刊,论文写作与学术期刊,359,
362,,,wonder-tonic.com/filmthesis,,是一个有助于学生写论文时确定论点话题的网站。用户只要在搜索框中输入所要写的论文中的关键词，就能轻松收罗到相关关键词的延伸话题。该网站由WONDER-TONIC集团创建运营，以从事与写作、互动和制作有趣的事情等相关方面为主要目标。,,,,,,http://www.wonder-tonic.com/filmthesis,,360.png,好好学习>论文写作与学术期刊,论文写作与学术期刊,360,
363,,,bestessaytips.com,,不知道怎么构思ESSAY的时候，可以到这个网站上找点专业建议和灵感。,,,,,,http://www.bestessaytips.com,,361.png,好好学习>论文写作与学术期刊,论文写作与学术期刊,361,
364,,,bestessaytips.com,,一看这个网址就知道它是干什么的了，不知道怎么构思ESSAY的时候，可以到这个网站上找点专业建议和灵感。,,,,,,http://www.bestessaytips.com,,362.png,好好学习>论文写作与学术期刊,论文写作与学术期刊,362,
365,,,Owl.english.purdue.edu,,普渡大学写作实验室，如果你正在烦心如何写出一篇令人满意的大学论文，来这个网站看一看吧，只要是和论文有关的信息都可以从里面找到宝藏 ,,,,,,http://www.Owl.english.purdue.edu,,363.png,好好学习>论文写作与学术期刊,论文写作与学术期刊,363,
366,,,nounplus.net/grammarcheck,,NOUNPLUS,,,,,,http://www.nounplus.net/grammarcheck,,364.png,好好学习>论文写作与学术期刊,论文写作与学术期刊,364,
367,,,gingersoftware.com/zh/grammarcheck,,Grammar Check Online,,,,,,http://www.gingersoftware.com/zh/grammarcheck,,365.png,好好学习>论文写作与学术期刊,论文写作与学术期刊,365,
368,,,autocrit.com,,AutoCrit Online Editing,,,,,,http://www.autocrit.com,,366.png,好好学习>论文写作与学术期刊,论文写作与学术期刊,366,
369,,,prowritingaid.com,,"免费英文语法检测修正工具是一个帮助语言学习者纠正语法错误,提供写作能力的网站",,,,,,http://www.prowritingaid.com,,367.png,好好学习>论文写作与学术期刊,论文写作与学术期刊,367,
370,,,virtualwritingtutor.com,,Virtual Writing Tutor Grammar Checker,,,,,,http://www.virtualwritingtutor.com,,368.png,好好学习>论文写作与学术期刊,论文写作与学术期刊,368,
371,,,lang-8.com,,用自己的母语帮别人改日志,,,,,,http://www.lang-8.com,,369.png,好好学习>论文写作与学术期刊,论文写作与学术期刊,369,
372,,,hemingwayapp.com,,Hemingway Editor,,,,,,http://www.hemingwayapp.com,,370.png,好好学习>论文写作与学术期刊,论文写作与学术期刊,370,
373,,,grammarbase.com,,GrammarBase,,,,,,http://www.grammarbase.com,,371.png,好好学习>论文写作与学术期刊,论文写作与学术期刊,371,
374,,,1checker.com,,1Checker,,,,,,http://www.1checker.com,,372.png,好好学习>论文写作与学术期刊,论文写作与学术期刊,372,
375,,,grammarly.com,,Grammarly,,,,,,http://www.grammarly.com,,373.png,好好学习>论文写作与学术期刊,论文写作与学术期刊,373,
376,,,gingersoftware.com,,Ginger,,,,,,http://www.gingersoftware.com,,374.png,好好学习>论文写作与学术期刊,论文写作与学术期刊,374,
377,,,aeaweb.org/resources/students/grad-prep,,美国经济学协会,,,,,,http://www.aeaweb.org/resources/students/grad-prep,,375.png,好好学习>专业协会,专业协会,375,
378,,,artsadministration.org/programs,,艺术教育协会,,,,,,http://www.artsadministration.org/programs,,376.png,好好学习>专业协会,专业协会,376,
379,,,aacsb.edu,,国际商学院协会,,,,,,http://www.aacsb.edu,,377.png,好好学习>专业协会,专业协会,377,
380,,,aspb.org,,美国植物生物学家学会,,,,,,http://www.aspb.org,,378.png,好好学习>专业协会,专业协会,378,
381,,,botany.org,,美国植物学协会,,,,,,http://www.botany.org,,379.png,好好学习>专业协会,专业协会,379,
382,,,nassm.com,,北美体育管理协会,,,,,,http://www.nassm.com,,380.png,好好学习>专业协会,专业协会,380,
383,,,naab.org,,美国建筑学认证协会,,,,,,http://www.naab.org,,381.png,好好学习>专业协会,专业协会,381,
384,,,soa.org,,精算师学会,,,,,,http://www.soa.org,,382.png,好好学习>专业协会,专业协会,382,
385,,,tesol.org,,国际外语教育协会,,,,,,http://www.tesol.org,,383.png,好好学习>专业协会,专业协会,383,
386,,,cde.ca.gov/ds/si/ps,,加州私立高中目录,,,,,,http://www.cde.ca.gov/ds/si/ps,,384.png,好好学习>专业协会,专业协会,384,
387,,,tenschools.org,,由一群有着共同目标和传统的著名私立寄宿学校成立，位于美国东部，有超过45年的历史。作为一个招生联盟，他们举办共同的巡回招生大会，使用统一的教师推荐信格式。,,,,,,http://www.tenschools.org,,385.png,好好学习>专业协会,专业协会,385,
388,,,wbsa.net,,西部寄宿学校协会官方网站。包括美国西部8个州32所寄宿学校以及加拿大7所学校联盟。,,,,,,http://www.wbsa.net,,386.png,好好学习>专业协会,专业协会,386,
389,,,daveconservatoire.org,,一个完全免费的音乐学习网站，口号是“让每一个人都可以接受世界级的音乐教育”，有视频，有练习。,,,,,,http://www.daveconservatoire.org,,387.png,好好学习>技能学习,技能学习,387,
390,,,drawspace.com,,如果你想学习绘画，或者提高自己的绘画技能，就来Drawspace吧。,,,,,,http://www.drawspace.com,,388.png,好好学习>技能学习,技能学习,388,
391,,,justinguitar.com,,超过800节免费的吉他课程，有自己的app，还有电子书、DVD等实用内容。,,,,,,http://www.justinguitar.com,,389.png,好好学习>技能学习,技能学习,389,
392,,,codecademy.com,,学编程，来Codeacademy就对了。,,,,,,http://www.codecademy.com,,390.png,好好学习>技能学习,技能学习,390,
393,,,see.stanford.edu,,有很多免费的工程类课程资源。,,,,,,http://www.see.stanford.edu,,391.png,好好学习>技能学习,技能学习,391,
394,,,bigdatauniversity.com,,教你如何做大数据分析。,,,,,,http://www.bigdatauniversity.com,,392.png,好好学习>技能学习,技能学习,392,
395,,,betterexplained.com,,从整体图景着手，通过图像向你解释抽象的数学(还有其他领域)概念。,,,,,,http://www.betterexplained.com,,393.png,好好学习>技能学习,技能学习,393,
396,,,udacity.com,,"优达学城和 Google、Facebook、亚马逊等全球领先企业合作推出的纳米学位认证项目,将学员培养为世界一流的网站开发者、数据分析师和移动开发者。",,,,,,http://www.udacity.com,,394.png,好好学习>技能学习,技能学习,394,
397,,,developer.apple.com,,学习开发 IOS、Mac OS、Safari 环境下的app。,,,,,,http://www.developer.apple.com,,395.png,好好学习>技能学习,技能学习,395,
398,,,code.google.com,,学习开发安卓app。,,,,,,http://www.code.google.com,,396.png,好好学习>技能学习,技能学习,396,
399,,,code.org,,编程一小时活动的大本营。想学编程?就从这里起步吧。,,,,,,http://www.code.org,,397.png,好好学习>技能学习,技能学习,397,
400,,,developer.mozilla.org,,"不要被名字骗了，不是教你开发火狐插件。你可以学习 HTML, CSS 和Java。",,,,,,http://www.developer.mozilla.org,,398.png,好好学习>技能学习,技能学习,398,
401,,,learnable.com,,"在线众包式网络教育平台是一个任何人都可以创建自己的课程的众包式教育平台,可以发文章,课件,视频从而按照自己的步伐和构想来建立自己的标准课程，超过5000个视频。",,,,,,http://www.learnable.com,,399.png,好好学习>技能学习,技能学习,399,
402,,,pluralsight.com,,"在线教育网站。软件开发在线教育平台是美国的一家面向软件开发者的在线教育课程服务商,luralsight成立于2004年;专注在线下开班式的服务,直到2008年才转向在线教育。",,,,,,http://www.pluralsight.com,,400.png,好好学习>技能学习,技能学习,400,
403,,,codehs.com,,培训老师教编程的网站，学生也可以学习。,,,,,,http://www.codehs.com,,401.png,好好学习>技能学习,技能学习,401,
404,,,gymnasium.aquent.com,,学编程,,,,,,http://www.gymnasium.aquent.com,,402.png,好好学习>技能学习,技能学习,402,
405,,,scratch.mit.edu,,Scratch是一款由麻省理工学院（MIT） 设计开发的少儿编程工具。其特点是：使用者可以不认识英文单词，也可以不会使用键盘。构成程序的命令和参数通过积木形状的模块来实现。用鼠标拖动模块到程序编辑栏就可以了。为小孩子设计，通过游戏学编程。,,,,,,http://www.scratch.mit.edu,,403.png,好好学习>技能学习,技能学习,403,
406,,,howdesignuniversity.com,,主要教授图像与交互设计。,,,,,,http://www.howdesignuniversity.com,,404.png,好好学习>技能学习,技能学习,404,
407,,,htmldog.com,,"学习 HTML, CSS 和 Java 编程技能。",,,,,,http://www.htmldog.com,,405.png,好好学习>技能学习,技能学习,405,
408,,,skillcrush.com,,提供职业网页设计与开发课程。,,,,,,http://www.skillcrush.com,,406.png,好好学习>技能学习,技能学习,406,
409,,,hackdesign.com,,全球顶级设计师教你网页/app设计，完全免费。,,,,,,http://www.hackdesign.com,,407.png,好好学习>技能学习,技能学习,407,
410,,,udemy.com,,通过教学视频教你生活和工作中的实用技能，需要付费。,,,,,,http://www.udemy.com,,408.png,好好学习>技能学习,技能学习,408,
411,,,gcflearnfree.org,,由 Goodwill Community Foundation 和 Goodwill Industries 创办，教授实用技能。,,,,,,http://www.gcflearnfree.org,,409.png,好好学习>技能学习,技能学习,409,
412,,,e-learningforkids.org,,向5-12岁的儿童提供小学程度基础课程。,,,,,,http://www.e-learningforkids.org,,410.png,好好学习>技能学习,技能学习,410,
413,,,ed2go.com,,一个学习技能的线上课程网站，主要面向成年人。,,,,,,http://www.ed2go.com,,411.png,好好学习>技能学习,技能学习,411,
414,,,howcast.com,,通过视频学习日常生活小技能。,,,,,,http://www.howcast.com,,412.png,好好学习>技能学习,技能学习,412,
415,,,instructables.com,,一个DIY网站，教你想学的技能。,,,,,,http://www.instructables.com,,413.png,好好学习>技能学习,技能学习,413,
416,,,creativelive.com,,教你摄影、音乐、设计等技能，要付费。,,,,,,http://www.creativelive.com,,414.png,好好学习>技能学习,技能学习,414,
417,,,doityourself.com,,教你成为家居改造达人。,,,,,,http://www.doityourself.com,,415.png,好好学习>技能学习,技能学习,415,
418,,,learn.adafruit.com,,提供免费电子设备DIY教程。,,,,,,http://www.learn.adafruit.com,,416.png,好好学习>技能学习,技能学习,416,
419,,,grovo.com,,"在线短视频学习平台是一款提供短视频教学服务的工具,主推 60秒动画视频,旨在让人们通过简短的视频内容来学习简单的知识",,,,,,http://www.grovo.com,,417.png,好好学习>技能学习,技能学习,417,
420,,,investopedia.com,,"Valueclick Brands旗下的金融教育网站,网站得名于Invest(投资)+encyclopedia(百科)，它是目前最大的国际性金融教育网站之一。",,,,,,http://www.investopedia.com,,418.png,好好学习>技能学习,技能学习,418,
421,,,wallstreetoasis.com,,"美国最大的金融从业者的社区，每日有大量业内人士分享的职业及行业经验。对于留学生来说，华尔街绿洲最吸引人的地方,在于里面有很多已经入职华尔街顶级投行的人分享的面试申请经验以及笔试联系题。建议金融相关领域的同学从大二开始就要持续关注和阅读了。",,,,,,http://www.wallstreetoasis.com,,419.png,好好学习>技能学习,技能学习,419,
422,,,openstudy.com,,"是一个致力于教育领域的网站,给学生提供了一个多人在线互动的学习小组。由乔治亚理工学院和埃默里大学创立，网站可以让用户协同工作，并回答对方各自的问题。",,,,,,http://www.openstudy.com,,420.png,好好学习>技能学习,技能学习,420,
423,,,pixiv.com,,插画作品分享网,,,,,,http://www.pixiv.com,,421.png,好好学习>技能学习,技能学习,421,
424,,,pinterest.com,,Pinterest采用的是瀑布流的形式展现图片内容，无需用户翻页，新的图片不断自动加载在页面底端，让用户不断的发现新的图片。,,,,,,http://www.pinterest.com,,422.png,好好学习>技能学习,技能学习,422,
425,,,ted.com,,TED是美国的一家非盈利性机构，它举办的TED演讲在全球范围内享有盛誉。每年3月份，TED邀请众多科技、娱乐、设计等领域的杰出人物在TED大会上“传播思想、分享生活”。TED演讲的形式多样、生动有趣，每一位演讲者的演讲时间通常控制在18分钟以内。,,,,,,http://www.ted.com,,423.png,好好学习>技能学习,技能学习,423,
426,,,adsoftheworld.com,,广告世界(AdSoftheWorld)是一个全球瞩目的广告作品欣赏网和广告社群网站，集中了来自世界各地的优秀广告作品、平面设计、影像制作、行销设计和广告创意以供用户分享和讨论。当下国内各大小广告类网站上的平面创意作品绝大多数都来自AdSoftheWorld网站。,,,,,,http://www.adsoftheworld.com,,424.png,好好学习>技能学习,技能学习,424,
427,,,nationalgeographic.com,,《美国国家地理》是美国一家非盈利科学教育组织——国家地理学会于1888年创办的官方杂志，主要包括有关社会、历史和世界各地风土人情的高质量文章和图片。其中，该杂志近千分之一的选片率造就了一大批充满理想和浪漫主义的优秀摄影师和记者的诞生，其印刷和图片有灵魂有激情的标准也为世人所称道。,,,,,,http://www.nationalgeographic.com,,425.png,好好学习>技能学习,技能学习,425,
428,,,shmoop.com,,这是一个针对美国中学教育、考前准备推出的教育平台，来自斯坦福大学、哈佛大学、柏克利大学等知名大学的相当博士、硕士及高校的知名老师，将美国中学里数学、文学、科学等每一个科目下的各个知识点，融入流行文化、当下事件，分别写成幽默感十足的剧本，再用动画短片的形式体现出来，并用青少年喜欢声音的配音。,,,,,,http://www.shmoop.com,,426.png,好好学习>趣味学习,趣味学习,426,
429,,,goabroad.com,,GoAbroad 是一个致力于年轻人的留学、国外实习、海外志愿者、国外旅游于一体国际教育和另类旅行资源的网站，填补了国际学生旅游出国市场的额空白，为客户提供最全面的国际教育和替代出行资源。如今该网站已扩展到出国学习、出国志愿、出国实习以及出国教书等事项，以帮助用户学习、了解自己感兴趣的国家。同时网站还提供网上咨询服务，协助用户完成兴趣筛选、申请以及缴费等全过程。,,,,,,http://www.goabroad.com,,427.png,好好学习>趣味学习,趣味学习,427,
430,,,wikihow.com,,How to do anything!诚如网站所言，所有稀奇古怪的事儿你都会在这里看到，图文并茂的文章以及丰富的细节描写让你可以轻松愉快地看完每篇文章，收集口语素材绝佳神器。,,,,,,http://www.wikihow.com,,428.png,好好学习>趣味学习,趣味学习,428,
431,,,lifehack.org,,有很多在课堂上学不到的东西。比如一些有意思或非常激励人的文章，或者有关生活和工作技巧的指导文。在课余时间看看其他小伙伴有什么不一样的生活吧。,,,,,,http://www.lifehack.org,,429.png,好好学习>趣味学习,趣味学习,429,
432,,,habitica.com,,"Habitica 是一个免费的习惯养成及生产力应用,让你“游戏人生”。游戏里的奖惩措施能激励你完成任务,还有一个强大的互动社区给你完成任务的好建议。",,,,,,http://www.habitica.com,,430.png,好好学习>趣味学习,趣味学习,430,
433,,,cheatography.com,,各种类型的小建议，小技巧，学东西想看看捷径？,,,,,,http://www.cheatography.com,,431.png,好好学习>趣味学习,趣味学习,431,
434,,,mentalfloss.com,,是一本致力于逸闻趣事的杂志，内容涉及科学、历史、文学、流行文化等领域，这份双月刊由五位杜克大学毕业生于2001年创办。该刊网页在「关于我们」做自我介绍时强调，该刊是给聪明人读的，但也不能太聪明，因看完之后还得想一下，才会知道好笑的地方在那里。,,,,,,http://www.mentalfloss.com,,432.png,好好学习>趣味学习,趣味学习,432,
435,,,RapGenius.com,,音乐歌词百科全书是歌词界的维基百科，所有用户都可以在Rap Genius的网站上给歌词作注释，写出你对某句歌词的理解。很多人不知道歌词到底有多流行，其实有非常多的人喜欢读歌词，理解歌词。,,,,,,http://www.RapGenius.com,,433.png,好好学习>趣味学习,趣味学习,433,
436,,,hackcollege.com,,找找和你情况相似的学长学姐，看看他们理解的大学生活,,,,,,http://www.hackcollege.com,,434.png,好好学习>趣味学习,趣味学习,434,
437,,,writtenkitten.co,,每写100字随机显示一张小猫的照片，或者小狗，或者兔子。,,,,,,http://www.writtenkitten.co,,435.png,好好学习>趣味学习,趣味学习,435,
438,,,theskimm.com,,是一个新闻订阅平台，用户可以通过产品获得一手消息，可以选择通过邮件订阅，订阅后的新闻将在手机的 “日历” 功能中显示。,,,,,,http://www.theskimm.com,,436.png,好好学习>媒体和新闻,媒体和新闻,436,
439,,,cnn.com,,Cable News Network(CNN，美国有线电视新闻网)是全球新闻组织的翘楚。由特德特纳于1980年6月创办，总部位于美国佐治亚州的亚特兰大。它凭借着全球先进的媒体技术，为有线电视网和卫星电视用户提供全天不间断全球直播新闻报道以及突发事件的第一手资讯。,,,,,,http://www.cnn.com,,437.png,好好学习>媒体和新闻,媒体和新闻,437,
440,,,nytimes.com,,The New YorkTimes(《纽约时报》)是一份在美国纽约出版并在全球范围内发行的日报，有很高的权威性和公信力。该报纸由亨利·贾维斯·雷蒙德和乔治·琼斯于1851年9月18日创办。,,,,,,http://www.nytimes.com,,438.png,好好学习>媒体和新闻,媒体和新闻,438,
441,,,nationalgeographic.com,,大名鼎鼎国家地理,,,,,,http://www.nationalgeographic.com,,439.png,好好学习>媒体和新闻,媒体和新闻,439,
442,,,rd.com,,美国版《读者文摘》,,,,,,http://www.rd.com,,440.png,好好学习>媒体和新闻,媒体和新闻,440,
443,,,newyorker.com,,《纽约客》或者《纽约人》，知识、文艺类的综合杂志。包括对政治、国际事务、大众文化和艺术、科技以及商业的报道和评论，，也会看法一些文学作品，主要是短篇小说和诗歌。,,,,,,http://www.newyorker.com,,441.png,好好学习>媒体和新闻,媒体和新闻,441,
444,,,cbs.com,,哥伦比亚广播公司,,,,,,http://www.cbs.com,,442.png,好好学习>媒体和新闻,媒体和新闻,442,
445,,,hbo.com,,这个不用解释了吧,,,,,,http://www.hbo.com,,443.png,好好学习>媒体和新闻,媒体和新闻,443,
446,,,ap.org,,美联社(美国联合通讯社，TheAssociated Press)是美国最大的通讯社，世界叁大通讯社之一(还有路透社、法新社)。美联社是世界上独立新闻采访量最大的通讯社之一，其新闻稿件被世界众多新闻机构采用。自1846年成立以来，美联社见证了世界各个重大新闻事件。自普利策奖成立以来(1917)，美联社已经51次获得该奖项。,,,,,,http://www.ap.org,,444.png,好好学习>媒体和新闻,媒体和新闻,444,
447,,,time.com,,《时代周刊》(TIME)是美国最具代表性与影响力的新闻杂志，也是美国第一份用叙述体报道时事的期刊，被誉为世界“史库”。它是由亨利?卢斯和布顿?哈登于1923年3月创办，其宗旨是使“忙人”能够充分了解世界大事。目前，时代杂志共包括美国、欧洲、亚洲和南太平洋等四个版本。,,,,,,http://www.time.com,,445.png,好好学习>媒体和新闻,媒体和新闻,445,
448,,,voanews.com,,美国之音(英文：Voice ofAmerica;VOA)是美国国家宣传机构，旗下拥有广播电台和电视台，在全球五大广播机构中位居第二(其余四个是英国广播公司、法国国际广播电台、德国之声、荷兰国际广播电台)。美国之音于1942年2月由战时情报局组建而成，总部设在华盛顿，主要提供新闻时事、英语教学、专题栏目、流行音乐等内容。,,,,,,http://www.voanews.com,,446.png,好好学习>媒体和新闻,媒体和新闻,446,
449,,,people.com,,《人物》(People)是时代华纳(Time Warner)集团旗下的杂志，于1974年创刊，原名为PeopleWeekly，其最初的宗旨是讲述平凡人的不凡故事。自创刊以来，《人物》一直专注于名人和流行文化，同时也讲述很多普通人的故事，已经成为了美国文化的一部分。,,,,,,http://www.people.com,,447.png,好好学习>媒体和新闻,媒体和新闻,447,
450,,,chronicle.com,,教育新闻,,,,,,http://www.chronicle.com,,448.png,好好学习>媒体和新闻,媒体和新闻,448,
451,,,aol.com,,美国在线(Amercan OnlineAOL)是美国著名的互联网服务提供商，于2000年与美国时代华纳(Time Warner)合并，于2009年12月9日正式从时代华纳独立，并将标识改为Aol。,,,,,,http://www.aol.com,,449.png,好好学习>媒体和新闻,媒体和新闻,449,
452,,,warnerbros.com,,华纳兄弟电影公司(Warner BrosPictures)是由四位犹太裔兄弟于1923年4月4日在纽约正式成立的;后于1990年被时代华纳收购;目前是全好莱坞八大影业资金最雄厚的电影公司。华纳兄弟旗下拥有许多“最赚钱”电影和电影系列，其中包括《哈利 波特》系列、《蝙蝠侠》系列、《盗梦空间》等。,,,,,,http://www.warnerbros.com,,450.png,好好学习>媒体和新闻,媒体和新闻,450,
453,,,thedailyshow.com,,囧司徒每日秀(The Daily Showwith Jon Stewart)是美国最具影响力的喜剧脱口秀节目之一，于1996年9月1日首播。该节目的形式类似于传统的新闻节目，“主持人”以恶搞、调侃等方式播报世界热点新闻，解说搞笑、幽默，令人捧腹。囧司徒每日秀官网上可以观看囧司徒的各期节目。,,,,,,http://www.thedailyshow.com,,451.png,好好学习>媒体和新闻,媒体和新闻,451,
454,,,thehuffingtonpost.com,,美国当今最具有影响力的新闻博客网站，英国也有相应的站点，很多外国热度极高或是偏门却真实的消息都可以在这个网站上看到，文章大观点和用词都相当的犀利，观点独到，值得分析和学习。,,,,,,http://www.thehuffingtonpost.com,,452.png,好好学习>媒体和新闻,媒体和新闻,452,
455,,,theskimm.com,,新闻整合网站，每天生成属于你的新闻首页，根据你喜欢的类别。用户可以通过产品获得一手消息，可以选择通过邮件订阅，订阅后的新闻将在手机的 “日历” 功能中显示。,,,,,,http://www.theskimm.com,,453.png,好好学习>媒体和新闻,媒体和新闻,453,
456,,,theodysseyonline.com,,美国大学生自己的媒体平台，为自己发声，和同龄人分享新闻、观点等等。,,,,,,http://www.theodysseyonline.com,,454.png,好好学习>媒体和新闻,媒体和新闻,454,
457,,,Stitcher.com ,,网络收音机在当今这个新媒体时代有点没有得到它该有的地位。Stitcher Radio是一款通过Stitcher Radio用户可以收听世界各地的广播节目手机端的新闻广播类应用。,,,,,,http://www.Stitcher.com ,,455.png,好好学习>媒体和新闻,媒体和新闻,455,
458,,,Dropbox.com,,如国内百度文库、豆丁文库等一样的，可以保存自己所有文章、资料，也可以和其他人共享资源的网站。简易方便，是保障资料共享和不丢失的好帮手呢! 而且里面的文章垃圾信息非常的少，是一个可以成为亦师亦友的网站!,,,,,,http://www.Dropbox.com,,456.png,好好学习>科技和工具,科技和工具,456,
459,,,sugarsync.com,,SugarSync(已有中文版)网络硬盘是备份、访问并共享您的文件的云存储服务。您可以从任何Mac、PC或移动设备上快速安全地获取您的所有文件。,,,,,,http://www.sugarsync.com,,457.png,好好学习>科技和工具,科技和工具,457,
460,,,Quora.com,,知乎的原型,,,,,,http://www.Quora.com,,458.png,好好学习>科技和工具,科技和工具,458,
461,,,thegrizzlylabs.com,,手机变身扫描仪，GeniusScan是一款界面和功能都很简洁的文档扫描工具，可以将文档扫描后以JPG或PDF格式来存储。,,,,,,http://www.thegrizzlylabs.com,,459.png,好好学习>科技和工具,科技和工具,459,
462,,,slack.com,,如果你有自己的社团，想要提高项目效率的话，可以考虑slack，企业协同平台。聊天群组 + 大规模工具集成 + 文件整合 + 统一搜索。,,,,,,http://www.slack.com,,460.png,好好学习>科技和工具,科技和工具,460,
463,,,tomato-timer.com,,蕃茄工作法核心思想就是：工作25分钟，休息5分钟。如果您好了解更多可以自行度娘。,,,,,,http://www.tomato-timer.com,,461.png,好好学习>科技和工具,科技和工具,461,
464,,,selfcontrolapp.com,,Mac app，有点像KeepMeOut，可以定时屏蔽吸引自己的网站，并且呢，即使你重启电脑或者删除app都没用，只能等时间到。,,,,,,http://www.selfcontrolapp.com,,462.png,好好学习>科技和工具,科技和工具,462,
465,,,mint.com,,致力于为人们提供更好的在线理财服务。理财当然越早开始越好！Mint是一款适合大学生使用的财务软件，你可以用它来管理包括储蓄卡、信用卡等所有的金钱账户。另外Mint还可以将你所有的交易进行自动分类，管理起来十分方便。,,,,,,http://www.mint.com,,463.png,好好学习>科技和工具,科技和工具,463,
466,,,quartic-software.co.uk,,"超强科学计算软件，强大准确的计算性能,令其和真正的科学计算器一样。",,,,,,http://www.quartic-software.co.uk,,464.png,好好学习>科技和工具,科技和工具,464,
467,,,collegeruled.com,,旨在帮助学生规划自己的学习安排，像课程表一样精确到日常的分分钟，以此让自己表现的更好。网站创建人认为，如果大学学生有一个系统的、合理的学习规划，任何人都能变得更好，进而成就伟大。,,,,,,http://www.collegeruled.com,,465.png,好好学习>科技和工具,科技和工具,465,
468,,,stackexchange.com,,一个类似果壳问答的超赞的问答网站，回答质量都超级高。,,,,,,http://www.stackexchange.com,,466.png,好好学习>科技和工具,科技和工具,466,
469,,,answers.com,,开放问答，只有你没问，没有不回答,,,,,,http://www.answers.com,,467.png,好好学习>科技和工具,科技和工具,467,
470,,,audible.com,,看书不如听书，快把你的reading list拉到这里来,,,,,,http://www.audible.com,,468.png,好好学习>科技和工具,科技和工具,468,
471,,,brainly.com,,社会化知识分享平台是一个在全球多个国家都有其为学生打造的社交学习网站，为每个国家的学生都提供以一个分享知识、互相学习、以社会化激励手段促进学生获得教育的社交网络。核心是像Quora一样的问答形式，让学生们可以通 过问问题来获得有关家庭作业或其他学习问题上的帮助。,,,,,,http://www.brainly.com,,469.png,好好学习>科技和工具,科技和工具,469,
472,,,mint.com,,Mint是一个帮助用户管理自己的日常支出、合理规划钱财预算的网站。用户在使用时只要定期制作理财规划，包括预算、钱财去向以及哪些花费是无用等方面，让自己培养一种理财意识。而且，网站还有账单提醒和信用提升等功能。现在，用户可直接下载手机APP就能随时随地的管理自己的荷包。,,,,,,http://www.mint.com,,470.png,好好学习>科技和工具,科技和工具,470,
473,,,techcrunch.cn,,科技控们的宝地，在这里，你会看到各种更新的互联网消息和产品评论。虽然基本上都是中文文章，但还是会涉及很多新奇的互联网及科技词汇，当做积累也是棒棒哒。,,,,,,http://www.techcrunch.cn,,471.png,好好学习>科技和工具,科技和工具,471,
474,,,wolframalpha.com,,"按照发明者StephenWolfram的说法，这个网站其实是一个计算知识引擎，而不是搜索引擎。其真正的创新之处，在于能够马上理解问题，并给出答案。在被问到“珠穆朗玛峰有多高”之类的问题时，WolframAlpha不仅能告诉你海拔高度，还能告诉你这座世界第一高峰的地理位置、附近有什么城镇，以及一系列图表。
要是问“什么是升D大调”，WolframAlpha可以把它演奏出来；倘若输入“抛10次，4次正面向上”，WolframAlpha可以猜到，你其实是想知道抛硬币的概率问题。甚至连某地下一次日食的时间，或者国际空间站现在的位置，WolframAlpha都能给你答案。",,,,,,http://www.wolframalpha.com,,472.png,好好学习>科技和工具,科技和工具,472,
475,,,quizlet.com,,"利用Quizlet 可以将你要学的任何内容做成知识卡片,随时随地复习。而且,它的绝大多数功能都是免费的。 一套知识卡片称为一个学习集。",,,,,,http://www.quizlet.com,,473.png,好好学习>科技和工具,科技和工具,473,
476,,,xmind.net,,XMind 是一款非常实用的商业思维导图软件，应用全球最先进的Eclipse RCP 软件架构，全力打造易用、高效的可视化思维软件，强调软件的可扩展、跨平台、稳定性和性能，致力于使用先进的软件技术帮助用户真正意义上提高生产率。,,,,,,http://www.xmind.net,,474.png,好好学习>科技和工具,科技和工具,474,
477,,,todoist.com,,"Todoist 是一款跨平台的云端任务清单管理(待办事项)工具,也可以看作是一款简单化的 GTD 工具,软件界面设计非常精简整洁,但作为 Todo 软件功能一应俱全。Todoist是相对复杂，功能也最为强大的，需要用户花时间在应用里去管理和调整，有丰富的功能和可定制的标签优先级等，并且可以管理大量的任务和项目，完善的团队分享功能等，适合超级清单控，用得好的话可以最大限度的通过清单提高生活效率。",,,,,,http://www.todoist.com,,475.png,好好学习>科技和工具,科技和工具,475,
478,,,wunderlist.com,,Wunderlist 是由一家德国公司开发的应用，用户也很多，最大的特色就是跨超多平台，常见的平台都齐了，不常见的如windows phone平台的也有。功能上也比较丰富，但相对todoist还是少了很多功能，如优先级，标签，总结报告等。其基本完善的功能和强大的跨平台能力使其成为大多数普通用户的首选，适合需要一定的清单管理，但不需要太复杂的功能和花更多的时间的用户。,,,,,,http://www.wunderlist.com,,476.png,好好学习>科技和工具,科技和工具,476,
479,,,any.do,,Any Do相比上面两款应用就不是一个量级的了，属于一款轻量级的清单应用，但用户数却和上面两款应用相当。原因就是大多数的用户并不需要一个复杂的清单管理功能，只需要简单的日常能够代替纸笔的清单应用，同时又需要界面美观和简洁，能够分享和同步，所以在这种轻量级的需求下，Any Do就是一款不错的选择了。,,,,,,http://www.any.do,,477.png,好好学习>科技和工具,科技和工具,477,
480,,,istudentpro.com,,"iStudiez Pro是针对学生的独一无二应用,它将对时间安排、家庭作业和成绩的追踪与一种令人愉悦的用户体验相结合。",,,,,,http://www.istudentpro.com,,478.png,好好学习>科技和工具,科技和工具,478,
481,,,lastpass.com,,Lastpass是一个在线密码管理器和页面过滤器，采用了强大的加密算法，自动登录/云同步/跨平台/支持多款浏览器。如果你有30多个密码又经常点击“忘记密码”，那你可以试试这个网站了。,,,,,,http://www.lastpass.com,,479.png,好好学习>科技和工具,科技和工具,479,
482,,,onedrive.live.com,,"随时随地使用 Microsoft OneDrive 完成更多工作。从手机、计算机(PC 或 Mac)或所使用的任何设备找到并分享你的文档、照片和其他文件。随时随地使用 Office 移动应用保持工作高效并与其他人进行协作。在线存储照片和文档,并且从任意电脑、Mac 电脑或手机都可访问。创建 Word、Excel 或 PowerPoint 文档,并一起处理这些文件。",,,,,,http://www.onedrive.live.com,,480.png,好好学习>科技和工具,科技和工具,480,
483,,,digit.co,,目的是让你根本没意识到自己理财了就已经存下了钱，对于学生来说是很好的理财支持软件。,,,,,,http://www.digit.co,,481.png,好好学习>科技和工具,科技和工具,481,
484,,,MoneySavingExpert.com,,网站致力于研究任何可以省钱的方法，发现任何可以省钱的工具，寻找网络上最省钱的商品交易和买卖。,,,,,,http://www.MoneySavingExpert.com,,482.png,好好学习>科技和工具,科技和工具,482,
485,,,wisebread.com,,"一个著名理财博客网站,它主要为读者提供简单有效的关于理财方面的建议。 ",,,,,,http://www.wisebread.com,,483.png,好好学习>科技和工具,科技和工具,483,
486,,,sleepyti.me,,一款有助于改善你的睡眠的软件，它通过自然的生理睡眠周期把你唤醒，可以让你在起床之后感觉精神舒畅，而不会像被传统闹钟突然惊醒后依然保持昏昏欲睡的感觉。Sleep Time Alarm Clock会以30分钟为周期来检测你的浅睡眠时间。,,,,,,http://www.sleepyti.me,,484.png,好好学习>科技和工具,科技和工具,484,
487,,,alar.my,,"很讨厌的闹铃应用，非常推荐大家尝试,赖床党克星。 软件支持中文，点按加号创建新闹钟。若想关闭闹铃，比如拍相同照片：在设置中先拍张照片，之后闹铃响起后，需拍下同样的照片方可解除。",,,,,,http://www.alar.my,,485.png,好好学习>科技和工具,科技和工具,485,
488,,,hookedapp.com,,app store排名第一的大学生饮食类app，帮你找到学校附近的好吃的，并且会提示各种特价菜或者折扣活动。,,,,,,http://www.hookedapp.com,,486.png,好好学习>科技和工具,科技和工具,486,
489,,,nuance.com/mobile/mobile-applications/dragon-dictation,,是由 Nuance 公司推出的适用于iPhone，iPad和 iPod touch用户的一款语音识别应用软件，将用户的语音转换成文字。,,,,,,http://www.nuance.com/mobile/mobile-applications/dragon-dictation,,487.png,好好学习>科技和工具,科技和工具,487,
490,,,lifehacker.com ,,Lifehacker博客提供很多生活上的how-to指导，比如提供节约时间、金钱等建议。可以让你每天都能进步一点的网站，里面有很多生活的技巧。,,,,,,http://www.lifehacker.com ,,488.png,好好学习>科技和工具,科技和工具,488,
491,,,myscholly.com,,我们经常听说，每年都有成百上千的大学奖学金无人认领，Scholly通过手机端的APP和网站两种方式帮同学们找到这些奖学金，Scholly帮助学生和可被申请的奖学金配对，它通过8个参数，给每个学生提供一个有针对性的奖学金名单。这个网站被美国学生经常使用，但由于国际生申请奖学金比例较低，大家可以酌情使用。,,,,,,http://www.myscholly.com,,489.png,积极生活>奖学金,奖学金,489,
492,,,bigfuture.collegeboard.org/scholarship-search,,College Board’s Scholarship Search跟2200多个奖学金项目合作，也可以自动匹配，总有一款适合你。,,,,,,http://www.bigfuture.collegeboard.org/scholarship-search,,490.png,积极生活>奖学金,奖学金,490,
493,,,fastweb.com,,Fastweb是一个协助学生做好上大学的准备和支付大学学费的资源站点，为学生提供了各类奖学金，大学金融资助等相关的信息。网站上发布的奖学金信息堪称海量，奖学金种类可达1500万种，总金额达到340亿美金。除了按照条件搜索，网站还自动按各种奖学金的截止日期进行了分类，很实用。,,,,,,http://www.fastweb.com,,491.png,积极生活>奖学金,奖学金,491,
494,,,scholarships.com,,网站声称它们在过去二十年中，花了更多的时间创造最好的奖学金数据库，持续更新数据，并丢弃任何无效的奖学金。这个网站不仅适用于高中毕业生，本科就读生，还适用于研究生，无论学年如何，都可以在该网站上搜索相关奖学金的资料。除了美国各种大学研究所的奖学金，网站上还有加拿大、欧洲、日本、韩国等国家的奖学金项目。,,,,,,http://www.scholarships.com,,492.png,积极生活>奖学金,奖学金,492,
495,,,niche.com/colleges/scholarships,,网站上提供了很多不需要essay、GPA或者推荐信就可以申请的奖学金信息，对“学渣”队伍可以说是十分友好了。其实，更多人用这个网站是为了查看学校排名，网站上有许多关于学校的留言和评论，可供学生提前了解学校情况。,,,,,,http://www.niche.com/colleges/scholarships,,493.png,积极生活>奖学金,奖学金,493,
496,,,scholarshipmonkey.com,,奖学金搜索引擎,,,,,,http://www.scholarshipmonkey.com,,494.png,积极生活>奖学金,奖学金,494,
497,,,edupass.org,,奖学金、文化差异等等,,,,,,http://www.edupass.org,,495.png,积极生活>奖学金,奖学金,495,
498,,,blog.iefa.org,,国际教育奖学金信息,,,,,,http://www.blog.iefa.org,,496.png,积极生活>奖学金,奖学金,496,
499,,,fundingusstudy.org,,奖学金信息数据库,,,,,,http://www.fundingusstudy.org,,497.png,积极生活>奖学金,奖学金,497,
500,,,webmd.com,,WebMD为病人和医生建立了一个网上了解和交流医疗信息的通道，其所提供的医疗资讯与服务皆是业界的领导者，除了汇集全美医师的临床报告，还有最新最完整的各种医疗资料库。,,,,,,http://www.webmd.com,,498.png,积极生活>医疗与保险,医疗与保险,498,
501,,,nhs.uk,,英国国家医疗服务体系，提供了各种不适、疾病的信息和治疗建议，在国外有个头疼脑热可以先参考，毕竟预约医生的时间长又长。,,,,,,http://www.nhs.uk,,499.png,积极生活>医疗与保险,医疗与保险,499,
502,,,ashasexualhealth.org,,科学的了解你的身体，性健康不能忽视。,,,,,,http://www.ashasexualhealth.org,,500.png,积极生活>医疗与保险,医疗与保险,500,
503,,,walgreens.com,,美国最大的连锁药局,,,,,,http://www.walgreens.com,,501.png,积极生活>医疗与保险,医疗与保险,501,
504,,,riteaid.com,,来爱德是一家美国最大的药店连锁公司之一，也是福布斯500强之一。 ,,,,,,http://www.riteaid.com,,502.png,积极生活>医疗与保险,医疗与保险,502,
505,,,glassdoor.com,,玻璃门是世界上最透明的职业招聘社区网站，通过改变传统的人们找工作和公司招募顶级人才方式，使雇佣双方都能发挥最大优势、得到最满意的结果。该网站成立于2007年，拥有全球超过六百万家企业评论信息，以及执行总裁的支持率、工资报告、招聘信息、效益评价以及工作环境等信息。,,,,,,http://www.glassdoor.com,,503.png,积极生活>招聘和职场,招聘和职场,503,
506,,,dice.com,,Tech工作招聘,,,,,,http://www.dice.com,,504.png,积极生活>招聘和职场,招聘和职场,504,
507,,,resumezapper.com,,付费群发简历,,,,,,http://www.resumezapper.com,,505.png,积极生活>招聘和职场,招聘和职场,505,
508,,,resumeedge.com,,改简历，暂停新用户注册,,,,,,http://www.resumeedge.com,,506.png,积极生活>招聘和职场,招聘和职场,506,
509,,,securereg3.prometric.com,,ETS下属职业考试机构，旨在提供全面的职场考试解决方案，每年服务700万次考试，为个人职业发展提供支持。,,,,,,http://www.securereg3.prometric.com,,507.png,积极生活>招聘和职场,招聘和职场,507,
510,,,highendcareers.com,,找工作网站,,,,,,http://www.highendcareers.com,,508.png,积极生活>招聘和职场,招聘和职场,508,
511,,,careerbuilder.com,,美国老牌求职网站，大量的500强公司合作企业，丰富的高质量招聘信息，是找工作的好去处。,,,,,,http://www.careerbuilder.com,,509.png,积极生活>招聘和职场,招聘和职场,509,
512,,,bloomberg.com,,彭博社，做金融行业的每天必上的网站，要想在金融圈混好，必须玩得烂熟才行。,,,,,,http://www.bloomberg.com,,510.png,积极生活>招聘和职场,招聘和职场,510,
513,,,vault.com,,由斯坦福和哈佛的高材生创立的人力资源网站，提供权威的企业排名、职场研究等信息，是咨询、证券以及高科技领域人才不可不去的好地方。,,,,,,http://www.vault.com,,511.png,积极生活>招聘和职场,招聘和职场,511,
514,,,hbr.org,,哈佛商业评论，大量的全球经济形式分析、管理前沿讨论等足以让经理人收益匪浅。,,,,,,http://www.hbr.org,,512.png,积极生活>招聘和职场,招聘和职场,512,
515,,,collegeresults.org,,提供全国所有学校四年、五年及六年毕业的比率。而且，该网站还按性别和种族分别计算了毕业率,,,,,,http://www.collegeresults.org,,513.png,积极生活>招聘和职场,招聘和职场,513,
516,,,collegemajors101.com,,想想看，生物学或舞蹈学专业毕业后能从事什么工作CollegeMajors101上面有很多关于专业的从业方向的信息，以及学习这些专业的学术信息。 ​,,,,,,http://www.collegemajors101.com,,514.png,积极生活>招聘和职场,招聘和职场,514,
517,,,myspace.com,,老少皆宜的社区，成立于2003年9月，是目前全球第二大的社交网站。它为全球用户提供了一个集交友、个人信息分享、即时通讯等多种功能于一体的互动平台。MySpace 上创建私人社区，可以与不断增多的共同的朋友分享照片、日志和爱好。,,,,,,http://www.myspace.com,,515.png,积极生活>招聘和职场,招聘和职场,515,
518,,,vkontakte.ru,,vk.com俄罗斯社交网站,,,,,,http://www.vkontakte.ru,,516.png,积极生活>招聘和职场,招聘和职场,516,
519,,,reddit.com,,Reddit是个社交新闻站点，口号：提前于新闻发生，来自互联网的声音。,,,,,,http://www.reddit.com,,517.png,积极生活>招聘和职场,招聘和职场,517,
520,,,omegle.com,,Omegle是一个流行的匿名和随机全球聊天网站，是由美国佛罗里达州的18岁少年雷夫·K-布鲁克斯(LeifK-Brooks)创建的，于2009年3月25日正式上线。Omegle旨在提供一个陌生人之间的交流平台，最大的特点是无需注册和下载，只需进入网站后点击“开始聊天”即可与陌生人进行交流。,,,,,,http://www.omegle.com,,518.png,积极生活>招聘和职场,招聘和职场,518,
521,,,student.com,,学生住宿搜索,,,,,,http://www.student.com,,519.png,积极生活>住宿,住宿,519,
522,,,apartmentguide.com,,公寓出租列表，公寓全国范围指南，寻找室友的信息。是美国著名房屋中介机构公司Primedia旗下知名杂志《公寓指南》的网络版。它提供房屋出租和销售等房屋中介服务，用户可通过城市及房源搜索来查找自己所需的房屋与合租室友。,,,,,,http://www.apartmentguide.com,,520.png,积极生活>住宿,住宿,520,
523,,,forrent.com,,公寓出租信息,,,,,,http://www.forrent.com,,521.png,积极生活>住宿,住宿,521,
524,,,condo.com,,美国公寓租房(Condo.com)是提供公寓租赁和销售的最大门户网站之一，涵盖有美国各大州、城市以及世界70个国家的租房、售房信息。同时，网站还支持贷款链接、财产抵押，还有租售博客等服务。 美国公寓租房网在不动产市场中的人气非常之高，其每月的访问量达150万人次。,,,,,,http://www.condo.com,,522.png,积极生活>住宿,住宿,522,
525,,,tgproperties.com,,TG资产是一家专门管理豪华复式公寓和公寓租售公司的网。该公司坐落于华盛顿北斯波坎和斯波坎瓦利(north Spokane and Spokane Valley)，提供豪华复式公寓和公寓住宅的出租和销售服务，这些公寓位于Indian Trail地区，靠近E.林肯路的拐角和内华达街区。不仅如此，它还有大量商业地产和办公公寓的房源，大都临近市区。,,,,,,http://www.tgproperties.com,,523.png,积极生活>住宿,住宿,523,
526,,,viviun.com,,Viviun是一家提供国际房产列表的领军网站，它收录了有各个国家的不动产的房产列表信息，假期租赁房租的信息，以及豪华公寓租赁的信息。这些房产信息的主要提供者是房屋拥有者和房屋的咨询顾问，网站团队利用这些真实可靠的房源信息，为客户提供放心、安全和可靠的租房和买房服务。,,,,,,http://www.viviun.com,,524.png,积极生活>住宿,住宿,524,
527,,,apartments.com,,Apartments.com是美国的一个房屋租赁信息网站，提供全美的房源租赁信息，不管是偏僻的乡村还是繁华的市区，这里的信息都可以满足租房者的需求。为了优化和简化搜寻房源的程序，网站建设了最全面的数据库，只需输入邮编号或城市名就能帮助用户以最快的速度搜索到房源信息，使用非常方便且快捷。,,,,,,http://www.apartments.com,,525.png,积极生活>住宿,住宿,525,
528,,,metroroommates.com,,Metro Roommates网站创建于2000年2月，隶属于Spyder Web公司旗下，专门提供世界各地的不同价位的租房信息。该网站的房源多种多样，包括房主直接提供、房地产经理，以及承租人等，其中拼租房信息是网站的独特信息资源。,,,,,,http://www.metroroommates.com,,526.png,积极生活>住宿,住宿,526,
529,,,apartmentreviews.net,,公寓综评(ApartmentReviews.net)是集合公寓出租信息评论的网站，隶属于Rental Markets公司，专门帮助租房者更好的了解他们想租的房子，做出更明智的选择。同时，该网站也是一个社交网络平台，用户可以在这里进行互动，发表租房心得，交流租房建议，寻找附近地区的租房者。,,,,,,http://www.apartmentreviews.net,,527.png,积极生活>住宿,住宿,527,
530,,,easyroommate.com,,Easy Roommate已有15年的历史，是世界上最大的室友征寻网站之一，拥有丰富的房源以及成千上万名租房注册用户。本网站为用户提供便捷、安全的搜索引擎，还拥有由合租领域专家组成的客服团队，为用户提供专业的租房咨询服务。,,,,,,http://www.easyroommate.com,,528.png,积极生活>住宿,住宿,528,
531,,,apartmentratings.com,,房屋点评网(ApartmentRatings.com)是美国最大的租房点评社区及公寓信息网站，创建于2000年。住户可以点评自己居住过或正在居住的房屋或者公寓，还可以查看别的住户点评，从而进行合理选择。此外，网站还提供搬家卡车租赁、搬家问答、家具租赁、寻室友、博客等信息和服务。,,,,,,http://www.apartmentratings.com,,529.png,积极生活>住宿,住宿,529,
532,,,sublet.com,,是美国Spyder网络企业的一部分，专门为租房者提供全球，特别是美国地区的租房信息。该网站发布的房源类型繁多，包括了公寓、度假公寓、套房、单间、联排别墅、移动房屋、宿舍房间等，而且不管是长期、短期，还是是否附带家电等要求都能在这里得到满足。,,,,,,http://www.sublet.com,,530.png,积极生活>住宿,住宿,530,
533,,,roomsurf.com,,找室友有可能是很尴尬的一件事，用这个网站帮你省点事，匹配兴趣相投的朋友吧。,,,,,,http://www.roomsurf.com,,531.png,积极生活>住宿,住宿,531,
534,,,chineseinla.com,,洛杉矶华人资讯网(Chinese In LosAngeles)是洛杉矶着名的中文信息网站，主要提供洛杉矶新闻、生活资讯、美食厨艺、房屋租售、旅游景点等。,,,,,,http://www.chineseinla.com,,532.png,积极生活>,,532,
535,,,worklifebalance.com,,工作是为了更好地生活，生活也要帮助更好地工作，两者之间要很好地保持平衡才能基业长青，年轻人确实需要好好学学这方面的技巧。,,,,,,http://www.worklifebalance.com,,533.png,积极生活>,,533,
536,,,usa.gov,,美国政府网,,,,,,http://www.usa.gov,,534.png,积极生活>政府官方,政府官方,534,
537,,,ope.ed.gov/security,,校园安全信息查询,,,,,,http://www.ope.ed.gov/security,,535.png,积极生活>政府官方,政府官方,535,
538,,,nces.ed.gov/collegenavigator,,除了学校录取率、分数要求等信息还包括治安情况的介绍。,,,,,,http://www.nces.ed.gov/collegenavigator,,536.png,积极生活>政府官方,政府官方,536,
539,,,travel.state.gov,,美国签证,,,,,,http://www.travel.state.gov,,537.png,积极生活>政府官方,政府官方,537,
540,,,visa.state.gov,,签证解释,,,,,,http://www.visa.state.gov,,538.png,积极生活>政府官方,政府官方,538,
541,,,ustraveldocs.com/,,美国签证预约网站,,,,,,http://www.ustraveldocs.com/,,539.png,积极生活>政府官方,政府官方,539,
542,,,chinese.usembassy-china.org.cn,,美国驻华大使馆签证处,,,,,,http://www.chinese.usembassy-china.org.cn,,540.png,积极生活>政府官方,政府官方,540,
543,,,loc.gov,,美国国会图书馆号称书架长达800多公里。想借本书瞧瞧吗？上网就可以。国会图书馆进行了浩大的资料数字化工程，对学生还是纯粹想了解美国文献的人来说， 都是很不错的选择。,,,,,,http://www.loc.gov,,541.png,积极生活>政府官方,政府官方,541,
544,,,osti.gov/scitech,,是由美国能源部DOE 下属的科学与技术信息办公室OSTI 开发维护的搜索工具，提供美国能源部1994年以来研究成果的全文文献和目录索引，涉及的学科领域包括物理、化学、材料、生物、环境科学、能源技术、工程、计算机与情报科学和可再生能源等。检索功能有基本检索和高级检索两种。,,,,,,http://www.osti.gov/scitech,,542.png,积极生活>政府官方,政府官方,542,
545,,,fmjfee.com,,SEVIS Fee,,,,,,http://www.fmjfee.com,,543.png,积极生活>政府官方,政府官方,543,
546,,,kids.niehs.nih.gov,,儿童环境健康,,,,,,http://www.kids.niehs.nih.gov,,544.png,积极生活>政府官方,政府官方,544,
547,,,nih.gov,,美国国立卫生研究院,,,,,,http://www.nih.gov,,545.png,积极生活>政府官方,政府官方,545,
548,,,china-embassy.org,,中国驻美大使馆。领区范围：华盛顿特区、特拉华州、爱达荷州、肯塔基州、马里兰州、蒙大拿州、内布拉斯加州、北卡罗来纳州、北达科他州、南卡罗来纳州、南达科他州、田纳西州、犹他州、弗吉尼亚州、西弗吉尼亚州、怀俄明州,,,,,,http://www.china-embassy.org,,546.png,积极生活>政府官方,政府官方,546,
549,,,newyork.china-consulate.org,,中国驻纽约使领馆。领区范围：康涅狄格州、缅因州、马萨诸塞州、新罕布什尔州、新泽西州、纽约州、俄亥俄州、宾夕法尼亚州、罗得岛州、佛蒙特州,,,,,,http://www.newyork.china-consulate.org,,547.png,积极生活>政府官方,政府官方,547,
550,,,losangeles.china-consulate.org,,中国驻洛杉矶使领馆。领区范围：亚利桑那州、南加利福尼亚州、夏威夷州、新墨西哥州、太平洋岛屿,,,,,,http://www.losangeles.china-consulate.org,,548.png,积极生活>政府官方,政府官方,548,
551,,,chinaconsulatesf.org,,中国驻旧金山使领馆。领区范围：阿拉斯加州、北加利福尼亚州、内华达州、俄勒冈州、华盛顿州,,,,,,http://www.chinaconsulatesf.org,,549.png,积极生活>政府官方,政府官方,549,
552,,,houston.china-consulate.org,,中国驻休斯顿使领馆。领区范围：阿拉巴马州、阿肯色州、佛罗里达州、佐治亚州、路易斯安那州、密西西比州、俄克拉荷马州、得克萨斯州和联邦领地波多黎各,,,,,,http://www.houston.china-consulate.org,,550.png,积极生活>政府官方,政府官方,550,
553,,,chinaconsulatechicago.org,,中国驻芝加哥使领馆。领区范围：科罗拉多州、伊利诺斯州、印第安纳州、爱荷华州、堪萨斯州、密执安州、明尼苏达州、密苏里州、威斯康星州,,,,,,http://www.chinaconsulatechicago.org,,551.png,积极生活>政府官方,政府官方,551,
554,,,yelp.com,,人尽皆知的参餐馆点评神器。大众点评的原型。,,,,,,http://www.yelp.com,,552.png,会心一笑>吃喝玩,吃喝玩,552,
555,,,restaurant.com,,根据地址搜美食及优惠券,,,,,,http://www.restaurant.com,,553.png,会心一笑>吃喝玩,吃喝玩,553,
556,,,eatstreet.com,,外卖点餐，EatStreet是美国增长最快的网上订餐平台，在100多个城市与超过15000个餐厅合作，网上订购你喜欢的外卖。,,,,,,http://www.eatstreet.com,,554.png,会心一笑>吃喝玩,吃喝玩,554,
557,,,zagat.com,,高端大气上档次的权威餐厅评分。想吃点好的的时候，听Zagat的绝对没错。,,,,,,http://www.zagat.com,,555.png,会心一笑>吃喝玩,吃喝玩,555,
558,,,opentable.com,,网上预订餐厅座位,,,,,,http://www.opentable.com,,556.png,会心一笑>吃喝玩,吃喝玩,556,
559,,,asianfoodgrocer.com,,在线亚洲超市,,,,,,http://www.asianfoodgrocer.com,,557.png,会心一笑>吃喝玩,吃喝玩,557,
560,,,thingstodo.com,,网站统计全美国各州各城市大小娱乐活动、节日集会等等等等。简单点击自己要去的目的地，就不怕到那边会寂寞啦！日程表，每天可以去玩的地方，参加的各种活 动都帮你列出来了,,,,,,http://www.thingstodo.com,,558.png,会心一笑>吃喝玩,吃喝玩,558,
561,,,watch-me-eat.blogspot.com,,这是一个个人的blog，全是博主在美国大小地方吃东西的文章，附图附攻略，实在是质量精良，创意无限又灰常有实用价值。,,,,,,http://www.watch-me-eat.blogspot.com,,559.png,会心一笑>吃喝玩,吃喝玩,559,
562,,,collegehumor.com,,就如这个名字所讲的一样，关于美国大学生们自己的搞笑事。担心听不懂美国人讲的笑话，跟美国同学间有隔阂，可以提前去这里预习一下。很多美国的大学生都在 这里讨论话题。要了解美国大学生关注什么，喜欢什么就来这吧！,,,,,,http://www.collegehumor.com,,560.png,会心一笑>吃喝玩,吃喝玩,560,
563,,,stubhub.com,,"StubHub是全球最大的门票交易市场,拥有超过40多个国家的上千万个体育,音乐和表演等活动门票。可以搜索身边的各种活动，呼朋唤友去玩玩吧。",,,,,,http://www.stubhub.com,,561.png,会心一笑>吃喝玩,吃喝玩,561,
564,,,instructables.com,,是一个很有创意的分享平台，专门供大家分享动手制作物品的社区，有非常多好玩的东西，它有着很多用户提交的关于如何制作物品的文章、视频和照片，用户可以发表内容，投票或者评论。,,,,,,http://www.instructables.com,,562.png,会心一笑>吃喝玩,吃喝玩,562,
565,,,ucampus.net,,全方位了解你学校所在的城市，附近的吃喝玩乐等信息。,,,,,,http://www.ucampus.net,,563.png,会心一笑>吃喝玩,吃喝玩,563,
566,,,cooklet.com,,美食家会爱上Cooklet的，这是一个集菜谱和社交功能于一身的烹饪应用程序。我很犹豫要不要叫它为食谱，因为它不仅仅能显示烹饪的方法，还包含了许多其他强大的功能，设计得也很吸引人,,,,,,http://www.cooklet.com,,564.png,会心一笑>吃喝玩,吃喝玩,564,
567,,,recipepuppy.com,,"在线食材菜谱搜索引擎，是一个可以根据自己现有的食材搜索菜谱的搜索引擎网站,用户只需输入自己现有的材料名称，即可查询到相关的美食制作方法和步骤。",,,,,,http://www.recipepuppy.com,,565.png,会心一笑>吃喝玩,吃喝玩,565,
568,,,buyagift.co.uk/content/foodhealth,,根据用户的身体状况推荐食物，根据食疗的规则帮助你调理身体,,,,,,http://www.buyagift.co.uk/content/foodhealth,,566.png,会心一笑>吃喝玩,吃喝玩,566,
569,,,hulu.com,,每个月8刀就可以享受上千部最新美剧/电影。,,,,,,http://www.hulu.com,,567.png,会心一笑>吃喝玩,吃喝玩,567,
570,,,netflix.com,,Netflix的电影资源比较给力。,,,,,,http://www.netflix.com,,568.png,会心一笑>吃喝玩,吃喝玩,568,
571,,,twitch.com,,直播,,,,,,http://www.twitch.com,,569.png,会心一笑>吃喝玩,吃喝玩,569,
572,,,youtube.com,,这个不用解释,,,,,,http://www.youtube.com,,570.png,会心一笑>吃喝玩,吃喝玩,570,
573,,,vimeo.com,,专业视频网站,,,,,,http://www.vimeo.com,,571.png,会心一笑>吃喝玩,吃喝玩,571,
574,,,flickr.com,,图片分享网站,,,,,,http://www.flickr.com,,572.png,会心一笑>吃喝玩,吃喝玩,572,
575,,,snapchat.com,,阅后即焚,,,,,,http://www.snapchat.com,,573.png,会心一笑>吃喝玩,吃喝玩,573,
576,,,mevio.com,,娱乐视频网(Mevio)主要收集了视频、音乐、技术、体育、电影、短片等娱乐资源，为用户提供视频发布、分享和搜索，以及新闻、体育、访谈、娱乐和搞笑视频等综合资讯。此外，该网站还拥有海量高清电影、电视剧、综艺节目、公开课等影视资源。,,,,,,http://www.mevio.com,,574.png,会心一笑>吃喝玩,吃喝玩,574,
577,,,myfridgefood.com,,我冰箱里的食物(My Fridge Food)是一个根据现有的食材来选择合适的菜谱的站点，不管你有什么食物都可以通过该网站来筛选出合适的菜谱，然后根据教程烹制出美味可口的菜品。,,,,,,http://www.myfridgefood.com,,575.png,会心一笑>吃喝玩,吃喝玩,575,
578,,,sworkit.com,,适用于心血来潮型的煅炼者（或者说除了健身狂人和死胖子之外的正常人），可以随时根据要求生成一套锻炼体操。长度随意，五分钟到一小时可选；还能选定重点锻炼的部位，生成的体操有图直观。,,,,,,http://www.sworkit.com,,576.png,会心一笑>吃喝玩,吃喝玩,576,
579,,,7minuteworkout.jnj.com,,"健身七分钟,里边有丰富的健身视频教程。",,,,,,http://www.7minuteworkout.jnj.com,,577.png,会心一笑>吃喝玩,吃喝玩,577,
580,,,gymradio.com,,"来点音乐,劲爆的音乐,助力你的健身。",,,,,,http://www.gymradio.com,,578.png,会心一笑>吃喝玩,吃喝玩,578,
581,,,overstock.com,,有时能在这里看到不错的东西，邮费也很低，一般2.95美圆，不过经常搞活动就1美圆。,,,,,,http://www.overstock.com,,579.png,会心一笑>购物,购物,579,
582,,,jcpenny.com,,选择很多，价钱也相对于其他网站便宜些。不管是衣服，各类商品都有。,,,,,,http://www.jcpenny.com,,580.png,会心一笑>购物,购物,580,
583,,,dealoz.com,,DealOz.com致力于为客户提供准确和可靠的价格搜索服务。我们的搜索都是无偏见的，其结果源自于五百多家网络商店。我们的使命是帮助用户在购物的时候节约时间与成本。请联系我们，这样我们才可以为你提供最好的在线购物体验。,,,,,,http://www.dealoz.com,,581.png,会心一笑>购物,购物,581,
584,,,bestbuy.com,,电子产品连锁店,,,,,,http://www.bestbuy.com,,582.png,会心一笑>购物,购物,582,
585,,,frys.com,,主要销售一些数码电脑类产品，如电脑、笔记本、存储器、手机、照相机等，还销售DVD、玩具、生活家居用品。,,,,,,http://www.frys.com,,583.png,会心一笑>购物,购物,583,
586,,,99ranch.com,,华人超市,,,,,,http://www.99ranch.com,,584.png,会心一笑>购物,购物,584,
587,,,gilt.com,,抢购三剑客，品牌产品闪电打折网站，经常不定时出现大牌打折。,,,,,,http://www.gilt.com,,585.png,会心一笑>购物,购物,585,
588,,,ruelala.com,,抢购三剑客，大牌打折店。注册了一个以后半年都没用，然后收到一封email说，因为你半年都没用我们决定鼓励你在这里花钱，所以送你30刀。,,,,,,http://www.ruelala.com,,586.png,会心一笑>购物,购物,586,
589,,,myhabit,,已关店的抢购三剑客。,,,,,,http://www.myhabit,,587.png,会心一笑>购物,购物,587,
590,,,thebodyshop.com,,最全护肤品，给国内各种亲朋好友带Body Butter还是很给力的。,,,,,,http://www.thebodyshop.com,,588.png,会心一笑>购物,购物,588,
591,,,fab.com,,超多可爱有趣的小东西，买礼物必备!,,,,,,http://www.fab.com,,589.png,会心一笑>购物,购物,589,
592,,,amazon.com,,这个就不解释了,,,,,,http://www.amazon.com,,590.png,会心一笑>购物,购物,590,
593,,,ebay.com,,这个也不解释了,,,,,,http://www.ebay.com,,591.png,会心一笑>购物,购物,591,
594,,,target.com,,这个也不解释了,,,,,,http://www.target.com,,592.png,会心一笑>购物,购物,592,
595,,,walmart.com,,这个也不解释了,,,,,,http://www.walmart.com,,593.png,会心一笑>购物,购物,593,
596,,,nordstrom.com,,百货商场,,,,,,http://www.nordstrom.com,,594.png,会心一笑>购物,购物,594,
597,,,macys.com,,百货商场,,,,,,http://www.macys.com,,595.png,会心一笑>购物,购物,595,
598,,,jcpenny.com,,百货商场,,,,,,http://www.jcpenny.com,,596.png,会心一笑>购物,购物,596,
599,,,shopbop.com,,Shopbop是美国一个专门针对女性的时尚购物网站，于1999年创建，总部设在威斯康辛州麦迪逊;后于2006年2月27日被亚马逊(Amazon)收购;2009年，推出叁日或以下的全球免费送货服务;2011年，推出了十二种不同货币结算服务，正式成为一个拥有优质全球化购物体验的购物网站。,,,,,,http://www.shopbop.com,,597.png,会心一笑>购物,购物,597,
600,,,etsy.com,,Etsy是美国的一个购物网站，主要销售手工工艺品，这些商品的共同特点是手工及原创。来自世界各地的优秀设计师和手工达人在Etsy开店，销售他们的优秀手工作品，销售模式类似于Ebay。,,,,,,http://www.etsy.com,,598.png,会心一笑>购物,购物,598,
601,,,ebags.com,,eBags是美国着名的包包购物网站，总部设在科罗拉多州格林伍德镇，主营手包、旅行包、背包、电脑包、箱包等各式各样的包包，涉及新秀丽(Samsonite)、JanSport、KateSpade、化石、耐克等在内的500多个品牌。,,,,,,http://www.ebags.com,,599.png,会心一笑>购物,购物,599,
602,,,kohls.com,,平价亲民，选择的种类很多。 ,,,,,,http://www.kohls.com,,600.png,会心一笑>购物,购物,600,
603,,,woot.com,,一个比较有创意的购物网站，每天只能买一样东西。,,,,,,http://www.woot.com,,601.png,会心一笑>购物,购物,601,
604,,,kmart.com,,算是比较大的一个批发来源，东西价格不会贵。,,,,,,http://www.kmart.com,,602.png,会心一笑>购物,购物,602,
605,,,bedbathandbeyond.com,,比较大的一个家居用品购物网。,,,,,,http://www.bedbathandbeyond.com,,603.png,会心一笑>购物,购物,603,
606,,,slickdeals.net,,每天十个超值省钱信息。,,,,,,http://www.slickdeals.net,,604.png,会心一笑>购物,购物,604,
607,,,randomhouse.com,,兰登书屋，方便快捷，价格实惠。,,,,,,http://www.randomhouse.com,,605.png,会心一笑>购物,购物,605,
608,,,books88.com,,四眼仔网上书店。,,,,,,http://www.books88.com,,606.png,会心一笑>购物,购物,606,
609,,,thenorthface.com,,品牌店不用解释。,,,,,,http://www.thenorthface.com,,607.png,会心一笑>购物,购物,607,
610,,,forever21.com,,品牌店不用解释。,,,,,,http://www.forever21.com,,608.png,会心一笑>购物,购物,608,
611,,,ae.com,,品牌店不用解释。,,,,,,http://www.ae.com,,609.png,会心一笑>购物,购物,609,
612,,,gap.com,,品牌店不用解释。,,,,,,http://www.gap.com,,610.png,会心一笑>购物,购物,610,
613,,,newbalance.com,,品牌店不用解释。,,,,,,http://www.newbalance.com,,611.png,会心一笑>购物,购物,611,
614,,,asos.com,,"众多国际设计师为你带来前卫炫酷的时髦单品,立即探寻属于你的潮流.产品线涵盖女装,男装,鞋履,配饰,开启选购之旅,享全球免邮服务!",,,,,,http://www.asos.com,,612.png,会心一笑>购物,购物,612,
615,,,topshop.com,,是一个快速时尚品牌，属于英国最大的服装零售商Arcadia集团。,,,,,,http://www.topshop.com,,613.png,会心一笑>购物,购物,613,
616,,,bluefly.com,,折扣时尚购物网站。,,,,,,http://www.bluefly.com,,614.png,会心一笑>购物,购物,614,
617,,,yoox.com,,全球著名的多品牌时尚及设计产品网络概念店。,,,,,,http://www.yoox.com,,615.png,会心一笑>购物,购物,615,
618,,,modcloth.com,,主打复古风的线上女装零售商。,,,,,,http://www.modcloth.com,,616.png,会心一笑>购物,购物,616,
619,,,saksfifthavenue.com,,美国高级商场之一。,,,,,,http://www.saksfifthavenue.com,,617.png,会心一笑>购物,购物,617,
620,,,plndr.com,,"是一个专门为用户设计的零售店,提供限时交易信息。如果你想在第一时间找到物美价廉的商品,那么请随时访问网站。",,,,,,http://www.plndr.com,,618.png,会心一笑>购物,购物,618,
621,,,studentrate.com,,学生折扣集合站，包括衣服，课本，电子产品等,,,,,,http://www.studentrate.com,,619.png,会心一笑>购物,购物,619,
622,,,amazon.com/student,,亚马逊的一项优惠计划：Amazon Student （学生计划），享受6个月的免费2日邮，购物折扣等等。,,,,,,http://www.amazon.com/student,,620.png,会心一笑>购物,购物,620,
623,,,freecycle.org,,Freecycle是一种网站活动，当人们有不想要的东西时，可以在其网站上宣传，如果有人看到，便可以领走不想要的东西，以物易物。,,,,,,http://www.freecycle.org,,621.png,会心一笑>购物,购物,621,
624,,,flipp.com,,优惠券定位推荐，Flipp是一款免费应用程序，会把用户所在区域的每周购物通告数据整合起来。只要输入您的邮政编码（或让应用程序确认您的位置），它便会自动搜寻当地所有商店。,,,,,,http://www.flipp.com,,622.png,会心一笑>购物,购物,622,
625,,,groupon.com,,Groupon最早成立于2008年11月，以网友团购为经营卖点。其独特之处在于：每天只推一款折扣产品、每人每天限拍一次、折扣品一定是服务类型的、服务有地域性、线下销售团队规模远超线上团队。,,,,,,http://www.groupon.com,,623.png,会心一笑>购物,购物,623,
626,,,gizmodo.com ,,根据市场调研公司ForresterResearch研究，大部分美国人在购买一些大件商品之前都会在网上研究这些商品。Gizmodo就是提供电子产品的一些研究信息博客。,,,,,,http://www.gizmodo.com ,,624.png,会心一笑>购物,购物,624,
627,,,smartravel.com,,一个关于旅游和文化的网站，不仅可以学习到语言知识，还可以了解风俗文化。如果想要收集地点类和事件类的话题，这个网站一定会给你提供帮助。,,,,,,http://www.smartravel.com,,625.png,会心一笑>旅游,旅游,625,
628,,,groupon.com,,给力省钱团购。不仅有吃的。有时候会有给力的25刀吃50刀东西的团购券。,,,,,,http://www.groupon.com,,626.png,会心一笑>哭胖和折扣,哭胖和折扣,626,
629,,,coupons.com,,打折促销专用网站,,,,,,http://www.coupons.com,,627.png,会心一笑>哭胖和折扣,哭胖和折扣,627,
630,,,dealsea.com,,打折促销专用网站,,,,,,http://www.dealsea.com,,628.png,会心一笑>哭胖和折扣,哭胖和折扣,628,
631,,,edealinfo.com,,打折促销专用网站,,,,,,http://www.edealinfo.com,,629.png,会心一笑>哭胖和折扣,哭胖和折扣,629,
632,,,smartbargains.com,,SmartBargains成立于2000年，是美国最有影响力的全面折扣网站。其销售的产品类型包括：大型综合百货、时装、珠宝、家居用品、电器等等，折扣产品是其卖点；在Smart Bargains的网站上Bargain并不只意味着便宜货，在这里，名牌也便宜， 提供最高达到70%的折扣。在线销售包括墨镜、手表、珠宝、美妆等，品牌包括CK（Calvin Klein）、Michael Kors、Prada等国际大牌。,,,,,,http://www.smartbargains.com,,630.png,会心一笑>哭胖和折扣,哭胖和折扣,630,
633,,,amtrak.com,,有些站点在机场还是挺方便的，早买票会便宜好多,,,,,,http://www.amtrak.com,,631.png,会心一笑>交通和酒店,交通和酒店,631,
634,,,megabus.com,,"觉得火车太贵就坐大巴吧!*另外还有bolt bus, grey hound都比较popular，一样也是早买就可能会出现一刀神票!还要注意就是只能带一件行李。行李多的话就要看工作人员nice不nice了。",,,,,,http://www.megabus.com,,632.png,会心一笑>交通和酒店,交通和酒店,632,
635,,,greyhound.com,,灰狗bus,,,,,,http://www.greyhound.com,,633.png,会心一笑>交通和酒店,交通和酒店,633,
636,,,tripadvisor.com,,虽然不卖机票但是强大的trip advisor可以帮你查找10多个订机票网站上最便宜的，最省时间的机票,,,,,,http://www.tripadvisor.com,,634.png,会心一笑>交通和酒店,交通和酒店,634,
637,,,smartertravel.com,,"是最大的线上旅游资源,为用户提供客观的旅游新闻、旅游优惠等。",,,,,,http://www.smartertravel.com,,635.png,会心一笑>交通和酒店,交通和酒店,635,
638,,,goabroad.com,,到国外是一个致力于向用户提供最全面的国际教育和另类旅行资源的网站，建站起因是互联网上关于国际学生旅行这方面信息缺乏，但如今该网站已扩展到出国学习、出国志愿、出国实习以及出国教书等事项，以帮助用户学习、了解自己感兴趣的国家。同时网站还提供网上咨询服务，协助用户完成兴趣筛选、申请以及缴费等全过程。,,,,,,http://www.goabroad.com,,636.png,会心一笑>交通和酒店,交通和酒店,636,
639,,,bootsnall.com,,"BootsnAll provides inspiration and resources to get you on the road.

We believe long-term, independent travel is the final piece to formal education, and that every citizen of the world can benefit, grow, and learn by taking a big trip.",,,,,,http://www.bootsnall.com,,637.png,会心一笑>交通和酒店,交通和酒店,637,
640,,,citypass.com,,预付费门票套票，游览景点实惠快捷，适用于12个目的地,,,,,,http://www.citypass.com,,638.png,会心一笑>交通和酒店,交通和酒店,638,
641,,,rent.com,,租房,,,,,,http://www.rent.com,,639.png,会心一笑>交通和酒店,交通和酒店,639,
642,,,apartmentguide.com,,租房,,,,,,http://www.apartmentguide.com,,640.png,会心一笑>交通和酒店,交通和酒店,640,
643,,,zillow.com,,租房买房,,,,,,http://www.zillow.com,,641.png,会心一笑>交通和酒店,交通和酒店,641,
644,,,booking.com,,酒店机票,,,,,,http://www.booking.com,,642.png,会心一笑>交通和酒店,交通和酒店,642,
645,,,agoda.com,,酒店机票,,,,,,http://www.agoda.com,,643.png,会心一笑>交通和酒店,交通和酒店,643,
646,,,priceline.com,,酒店机票，竞价,,,,,,http://www.priceline.com,,644.png,会心一笑>交通和酒店,交通和酒店,644,
647,,,hotels.com,,酒店机票,,,,,,http://www.hotels.com,,645.png,会心一笑>交通和酒店,交通和酒店,645,
648,,,kayak.com,,酒店机票,,,,,,http://www.kayak.com,,646.png,会心一笑>交通和酒店,交通和酒店,646,
649,,,travelocity.com,,酒店机票,,,,,,http://www.travelocity.com,,647.png,会心一笑>交通和酒店,交通和酒店,647,
650,,,expedia.com,,酒店机票,,,,,,http://www.expedia.com,,648.png,会心一笑>交通和酒店,交通和酒店,648,
651,,,cheaptickets.com,,酒店机票,,,,,,http://www.cheaptickets.com,,649.png,会心一笑>交通和酒店,交通和酒店,649,
652,,,onetravel.com,,酒店机票,,,,,,http://www.onetravel.com,,650.png,会心一笑>交通和酒店,交通和酒店,650,
653,,,orbitz.com,,酒店机票,,,,,,http://www.orbitz.com,,651.png,会心一笑>交通和酒店,交通和酒店,651,
654,,,gasbuddy.com,,汽油价格查询,,,,,,http://www.gasbuddy.com,,652.png,会心一笑>交通和酒店,交通和酒店,652,
655,,,hertz.com,,租车,,,,,,http://www.hertz.com,,653.png,会心一笑>交通和酒店,交通和酒店,653,
656,,,enterprise.com,,租车,,,,,,http://www.enterprise.com,,654.png,会心一笑>交通和酒店,交通和酒店,654,
657,,,nationalcar.com,,租车,,,,,,http://www.nationalcar.com,,655.png,会心一笑>交通和酒店,交通和酒店,655,
658,,,kbb.com,,买车,,,,,,http://www.kbb.com,,656.png,会心一笑>交通和酒店,交通和酒店,656,
659,,,edmunds.com,,买车,,,,,,http://www.edmunds.com,,657.png,会心一笑>交通和酒店,交通和酒店,657,
660,,,carfax.com,,查VIN。 Carfax，是美国一家领先的车辆历史信息提供商，拥有超过60亿条历史数据记录。通过输入汽车VIN可以查到该车的历史纪录，有无交通事故，里程数以及经手情况。,,,,,,http://www.carfax.com,,658.png,会心一笑>交通和酒店,交通和酒店,658,
661,,,autocheck.com,,车辆历史报告。,,,,,,http://www.autocheck.com,,659.png,会心一笑>交通和酒店,交通和酒店,659,
662,,,carbuyingtips.com,,买车各种tips，挺全的。,,,,,,http://www.carbuyingtips.com,,660.png,会心一笑>交通和酒店,交通和酒店,660,
663,,,jdpower.com/ratings/industry/automotive,,J.D. Power是美国McGraw Hill Financial集团旗下品牌，提供客户满意度、绩效改善等方面的洞察和解决方案。J.D. Power每年基于数百万消费者的反馈信息进行产品或服务方面满意度的评测。J.D. Power开发并维护着现存最大、最全面的历史用户满意度数据库，其中包括用户对于众多产品和服务等方面的消费者反馈信息；J.D. Power的研究以独立性和客观性著称于世。,,,,,,http://www.jdpower.com/ratings/industry/automotive,,661.png,会心一笑>交通和酒店,交通和酒店,661,
664,,,carsdirect.com,,"CarsDirect是美国一家在线汽车研究门户和购车服务的网站,总部设在加州。网站让消费者研究车辆,对比价格,购买保险和网上支付。",,,,,,http://www.carsdirect.com,,662.png,会心一笑>交通和酒店,交通和酒店,662,
665,,,usairways.com,,全美航空(All AmericanAviation Company)成立于1939年，是星空联盟的成员之一，其枢纽机场是夏洛特道格拉斯国际机场、费城国际机场、凤凰城天港国际机场、拉斯维加斯麦卡兰国际机场。全美航空集团(US Airways Group)与美国航空(American Airlines)的母公司AMR集团于2013年12月9日晚正式宣布合并，成为了全球最大的航空集团。,,,,,,http://www.usairways.com,,663.png,会心一笑>交通和酒店,交通和酒店,663,
666,,,united.com,,美国联合航空公司(UnitedAirlines)是美国大陆控股有限公司(UAL股份公司)旗下的航空公司，也是星空联盟的创始成员之一。美联航空成立于1926年，其总部设在美国伊利诺伊州。,,,,,,http://www.united.com,,664.png,会心一笑>交通和酒店,交通和酒店,664,
667,,,airbnb.com,,这个就不解释了,,,,,,http://www.airbnb.com,,665.png,会心一笑>交通和酒店,交通和酒店,665,
668,,,yourmechanic.com,,提供点对点汽车修理服务，通过汽车修理工上门服务，在车主家中或办公场所修理汽车，减少修车费用。,,,,,,http://www.yourmechanic.com,,666.png,会心一笑>交通和酒店,交通和酒店,666,
669,,,lumosity.com,,大脑和身体上其它肌肉一样，也是需要持续的锻炼。Lumosity提供了很多智力小游戏，可以提升你的大脑。,,,,,,http://www.lumosity.com,,667.png,会心一笑>各种其他,各种其他,667,
670,,,artofmanliness.com,,到底怎么样成为一个成功的男人？什么样才是成功的男人？男人必备网站,,,,,,http://www.artofmanliness.com,,668.png,会心一笑>各种其他,各种其他,668,
671,,,howstuffworks.com,,就是个小百科吧，里面有很多冷门的知识，让人欲罢不能。,,,,,,http://www.howstuffworks.com,,669.png,会心一笑>各种其他,各种其他,669,
672,,,factslides.com,,很多你跟本想不到的小知识，比如说你知道圣经其实是西方流行歌手的创作源泉吗？中国还有百万人每天消费一美元以下。,,,,,,http://www.factslides.com,,670.png,会心一笑>各种其他,各种其他,670,
673,,,ifttt.com,,“if this then that”的缩写，事实上是让你的网络行为能够引发连锁反应、让你使用更为方便，其宗旨是“Put the internet to work for you”（让互联网为你服务）。,,,,,,http://www.ifttt.com,,671.png,会心一笑>各种其他,各种其他,671,
674,,,ratatype.com,,你打字速度怎么样？慢的话可以来这里来学学了。,,,,,,http://www.ratatype.com,,672.png,会心一笑>各种其他,各种其他,672,
